UN_Code,Identifier,ISO2_Code,ISO3_Code,Name_En,Name_Fr,Name_Es,Name_Ar,Name_Cn,Name_Ru,Official_Name_En,Official_Name_Fr,Official_Name_Es,Official_Name_Ar,Official_Name_Cn,Official_Name_Ru,Continent_Group_En,Continent_Group_Fr,Continent_Group_Es,Continent_Group_Ar,Continent_Group_Cn,Continent_Group_Ru,EcoClass_Group_En,EcoClass_Group_Fr,EcoClass_Group_Es,EcoClass_Group_Ar,EcoClass_Group_Cn,EcoClass_Group_Ru,GeoRegion_Group_En,GeoRegion_Group_Fr,GeoRegion_Group_Es,GeoRegion_Group_Ar,GeoRegion_Group_Cn,GeoRegion_Group_Ru
51,1,AM,ARM,Armenia,ArmÃ©nie,Armenia,Ø£Ø±ÙEŠÙEŠØ§,"äºšç¾å°¼äºE,Ğ ĞµÑE¿ÑƒĞ±Ğ»Ğ¸ĞºĞ° ĞÑ€Ğ¼ĞµĞ½Ğ¸ÑE",the Republic of Armenia,la RÃ©publique d'ArmÃ©nie,la RepÃºblica de Armenia,Ø£Ø±ÙEŠÙEŠØ§,"äºšç¾å°¼äºE,Ğ ĞµÑE¿ÑƒĞ±Ğ»Ğ¸ĞºĞ° ĞÑ€Ğ¼ĞµĞ½Ğ¸ÑE",Asia,Asie,Asia,,,,Other developing countries or areas,Autres pays ou zones en dÃ©veloppement,Otros paÃ­ses o Ã¡reas en desarrollo,,,,Western Asia,Asie occidentale,Asia occidental,,,,,
4,2,AF,AFG,Afghanistan,Afghanistan,AfganistÃ¡n,"Ø£ÙEºØ§ÙE³ØªØ§ÙE,é˜¿å¯Œæ±—ä¼Šæ–¯å…°å…±å’Œå›½""",ĞÑE³Ğ°Ğ½Ğ¸ÑE‚Ğ°Ğ½,The Islamic Republic of Afghanistan,la RÃ©publique islamique d'Afghanistan,la RepÃºblica IslÃ¡mica del AfganistÃ¡n,"Ø£ÙEºØ§ÙE³ØªØ§ÙE,é˜¿å¯Œæ±—ä¼Šæ–¯å…°å…±å’Œå›½""",ĞÑE³Ğ°Ğ½Ğ¸ÑE‚Ğ°Ğ½,Asia,Asie,Asia,,,,Least Developed Countries,Pays les moins avancÃ©s,PaÃ­ses menos adelantados,,,,Southern Asia,Asie mÃ©ridionale,Asia meridional,,,,,
8,3,AL,ALB,Albania,Albanie,Albania,Ø£ÙE¨Ø§ÙEŠØ§,é˜¿å°”å·´å°¼äºšåEå’Œå›½,"ĞĞ»Ğ±Ğ°Ğ½Ğ¸ÑE,the Republic of Albania""",la RÃ©publique d'Albanie,la RepÃºblica de Albania,Ø£ÙE¨Ø§ÙEŠØ§,é˜¿å°”å·´å°¼äºšåEå’Œå›½,"ĞĞ»Ğ±Ğ°Ğ½Ğ¸ÑE,Europe""",Europe,Europa,,,,Developed countries or areas,Pays ou zones dÃ©veloppÃ©s,PaÃ­ses o Ã¡reas desarrollados,,,,Southern Europe,Europe mÃ©ridionale,Europa meridional,,,,,
12,4,DZ,DZA,Algeria,AlgÃ©rie,Argelia,Ø§ÙE¬Ø²Ø§Ø¦Ø±,é˜¿å°”åŠåˆ©äºšæ°‘ä¸»äººæ°‘åEå’Œå›½,ĞĞ»Ğ¶Ğ¸Ñ€,the People's Democratic Republic of Algeria,la RÃ©publique algÃ©rienne dÃ©mocratique et populaire,la RepÃºblica Argelina DemocrÃ¡tica y Popular,Ø§ÙE¬Ø²Ø§Ø¦Ø±,é˜¿å°”åŠåˆ©äºšæ°‘ä¸»äººæ°‘åEå’Œå›½,ĞĞ»Ğ¶Ğ¸Ñ€,Africa,Afrique,Ãfrica,,,,Other developing countries or areas,Autres pays ou zones en dÃ©veloppement,Otros paÃ­ses o Ã¡reas en desarrollo,,,,Northern Africa,Afrique septentrionale,Ãfrica septentrional,,,
16,5,AS,ASM,American Samoa,Samoa amÃ©ricaines,Samoa Americana,Ø§ÙE£ÙE±ÙŠÙEŠØ© Ø³Ø§ÙEˆØ§,"ç¾å±è¨æ‘©äºE,ĞĞ¼ĞµÑ€Ğ¸ĞºĞ°Ğ½ÑEºĞ¾Ğµ Ğ¡Ğ°Ğ¼Ğ¾Ğ°""",American Samoa,Samoa amÃ©ricaines,Samoa Americana,Ø§ÙE£ÙE±ÙŠÙEŠØ© Ø³Ø§ÙEˆØ§,"ç¾å±è¨æ‘©äºE,ĞĞ¼ĞµÑ€Ğ¸ĞºĞ°Ğ½ÑEºĞ¾Ğµ Ğ¡Ğ°Ğ¼Ğ¾Ğ°""",Oceania,OcÃ©anie,OceanÃ­a,,,,Other developing countries or areas,Autres pays ou zones en dÃ©veloppement,Otros paÃ­ses o Ã¡reas en desarrollo,,,,Polynesia,PolynÃ©sie,Polinesia,,,,,
20,6,AD,AND,Andorra,Andorre,Andorra,Ø£ÙE¯ÙˆØ±Ø§,"å®‰é“å°E,ĞĞ½Ğ´Ğ¾Ñ€Ñ€Ğ°""",the Principality of Andorra,la PrincipautÃ© d'Andorre,el Principado de Andorra,Ø£ÙE¯ÙˆØ±Ø§,"å®‰é“å°E,ĞĞ½Ğ´Ğ¾Ñ€Ñ€Ğ°""",Europe,Europe,Europa,,,,Developed countries or areas,Pays ou zones dÃ©veloppÃ©s,PaÃ­ses o Ã¡reas desarrollados,,,,Southern Europe,Europe mÃ©ridionale,Europa meridional,,,,,
24,7,AO,AGO,Angola,Angola,Angola,Ø¬ÙEEˆØ±ÙŠØ© Ø£ÙEºÙˆÙE§,"å®‰å“¥æ‹E,Ğ ĞµÑE¿ÑƒĞ±Ğ»Ğ¸ĞºĞ° ĞĞ½Ğ³Ğ¾Ğ»Ğ°""",the Republic of Angola,la RÃ©publique d'Angola,la RepÃºblica de Angola,Ø¬ÙEEˆØ±ÙŠØ© Ø£ÙEºÙˆÙE§,"å®‰å“¥æ‹E,Ğ ĞµÑE¿ÑƒĞ±Ğ»Ğ¸ĞºĞ° ĞĞ½Ğ³Ğ¾Ğ»Ğ°""",Africa,Afrique,Ãfrica,,,,Least Developed Countries,Pays les moins avancÃ©s,PaÃ­ses menos adelantados,,,,Middle Africa,Afrique centrale,Ãfrica central,,,,,
28,8,AG,ATG,Antigua and Barbuda,Antigua-et-Barbuda,Antigua y Barbuda,Ø£ÙEªÙŠØºÙˆØ§ ÙˆØ¨Ø§Ø±Ø¨ÙˆØ¯Ø§,å®‰æç“œå’Œå·´å¸E¾¾,ĞĞ½Ñ‚Ğ¸Ğ³ÑƒĞ° Ğ¸ Ğ‘Ğ°Ñ€Ğ±ÑƒĞ´Ğ°,Antigua and Barbuda,Antigua-et-Barbuda,Antigua y Barbuda,Ø£ÙEªÙŠØºÙˆØ§ ÙˆØ¨Ø§Ø±Ø¨ÙˆØ¯Ø§,å®‰æç“œå’Œå·´å¸E¾¾,ĞĞ½Ñ‚Ğ¸Ğ³ÑƒĞ° Ğ¸ Ğ‘Ğ°Ñ€Ğ±ÑƒĞ´Ğ°,Americas,AmÃ©riques,AmÃ©ricas,,,,Other developing countries or areas,Autres pays ou zones en dÃ©veloppement,Otros paÃ­ses o Ã¡reas en desarrollo,,,,Caribbean,CaraÃ¯bes,Caribe,,,
32,9,AR,ARG,Argentina,Argentine,Argentina,"Ø§ÙE£Ø±Ø¬ÙEªÙŠÙE,é˜¿æ ¹å»·""",ĞÑ€Ğ³ĞµĞ½Ñ‚Ğ¸Ğ½ÑEºĞ°ÑEĞ ĞµÑE¿ÑƒĞ±Ğ»Ğ¸ĞºĞ°,the Argentine Republic,la RÃ©publique argentine,la RepÃºblica Argentina,"Ø§ÙE£Ø±Ø¬ÙEªÙŠÙE,é˜¿æ ¹å»·""",ĞÑ€Ğ³ĞµĞ½Ñ‚Ğ¸Ğ½ÑEºĞ°ÑEĞ ĞµÑE¿ÑƒĞ±Ğ»Ğ¸ĞºĞ°,Americas,AmÃ©riques,AmÃ©ricas,,,,Other developing countries or areas,Autres pays ou zones en dÃ©veloppement,Otros paÃ­ses o Ã¡reas en desarrollo,,,,South America,AmÃ©rique du Sud,AmÃ©rica del Sur,,,,,
36,10,AU,AUS,Australia,Australie,Australia,Ø£Ø³ØªØ±Ø§ÙEŠØ§,"æ¾³å¤§åˆ©äºE,ĞĞ²ÑE‚Ñ€Ğ°Ğ»Ğ¸ÑE",Australia,l'Australie,Australia,Ø£Ø³ØªØ±Ø§ÙEŠØ§,"æ¾³å¤§åˆ©äºE,ĞĞ²ÑE‚Ñ€Ğ°Ğ»Ğ¸ÑE",Oceania,OcÃ©anie,OceanÃ­a,,,,Developed countries or areas,Pays ou zones dÃ©veloppÃ©s,PaÃ­ses o Ã¡reas desarrollados,,,,Australia and New Zealand,Australie et Nouvelle-ZÃ©lande,Australia y Nueva Zelandia,,,,,
40,11,AT,AUT,Austria,Autriche,Austria,Ø§ÙEEE³Ø§,å¥¥åœ°åˆ©,"ĞĞ²ÑE‚Ñ€Ğ¸ÑE,the Republic of Austria""",la RÃ©publique d'Autriche,la RepÃºblica de Austria,Ø§ÙEEE³Ø§,å¥¥åœ°åˆ©,"ĞĞ²ÑE‚Ñ€Ğ¸ÑE,Europe""",Europe,Europa,,,,Developed countries or areas,Pays ou zones dÃ©veloppÃ©s,PaÃ­ses o Ã¡reas desarrollados,,,,Western Europe,Europe occidentale,Europa occidental,,,,,
44,12,BS,BHS,Bahamas,Bahamas,Bahamas,Ø¬Ø²Ø± Ø§ÙE¨ÙE§ÙE§,å·´å“ˆé©¬,Ğ‘Ğ°Ğ³Ğ°Ğ¼ÑEºĞ¸Ğµ ĞÑE‚Ñ€Ğ¾Ğ²Ğ°,the Commonwealth of the Bahamas,le Commonwealth des Bahamas,el Commonwealth de las Bahamas,Ø¬Ø²Ø± Ø§ÙE¨ÙE§ÙE§,å·´å“ˆé©¬,Ğ‘Ğ°Ğ³Ğ°Ğ¼ÑEºĞ¸Ğµ ĞÑE‚Ñ€Ğ¾Ğ²Ğ°,Americas,AmÃ©riques,AmÃ©ricas,,,,Other developing countries or areas,Autres pays ou zones en dÃ©veloppement,Otros paÃ­ses o Ã¡reas en desarrollo,,,,Caribbean,CaraÃ¯bes,Caribe,,,
48,13,BH,BHR,Bahrain,BahreÃ¯n,Bahrein,"Ø§ÙE¨Ø­Ø±ÙŠÙE,å·´æ—ç‹å›½""",Ğ‘Ğ°ÑE€ĞµĞ¹Ğ½,the Kingdom of Bahrain,le Royaume de BahreÃ¯n,el Reino de Bahrein,"Ø§ÙE¨Ø­Ø±ÙŠÙE,å·´æ—ç‹å›½""",Ğ‘Ğ°ÑE€ĞµĞ¹Ğ½,Asia,Asie,Asia,,,,Other developing countries or areas,Autres pays ou zones en dÃ©veloppement,Otros paÃ­ses o Ã¡reas en desarrollo,,,,Western Asia,Asie occidentale,Asia occidental,,,,,
52,14,BB,BRB,Barbados,Barbade,Barbados,Ø¨Ø±Ø¨Ø§Ø¯ÙˆØ³,å·´å·´å¤šæ–¯,"Ğ‘Ğ°Ñ€Ğ±Ğ°Ğ´Ğ¾ÑE,Barbados""",la Barbade,Barbados,Ø¨Ø±Ø¨Ø§Ø¯ÙˆØ³,å·´å·´å¤šæ–¯,"Ğ‘Ğ°Ñ€Ğ±Ğ°Ğ´Ğ¾ÑE,Americas""",AmÃ©riques,AmÃ©ricas,,,,Other developing countries or areas,Autres pays ou zones en dÃ©veloppement,Otros paÃ­ses o Ã¡reas en desarrollo,,,,Caribbean,CaraÃ¯bes,Caribe,,,,,
58,15,,,Belgium-Luxembourg,Belgique-Luxembourg,Belgica-Luxemburgo,,,,,,,,,,Europe,Europe,Europa,,,,Developed countries or areas,Pays ou zones dÃ©veloppÃ©s,PaÃ­ses o Ã¡reas desarrollados,,,,Western Europe,Europe occidentale,Europa occidental,,,
50,16,BD,BGD,Bangladesh,Bangladesh,Bangladesh,Ø¨ÙEºÙE§Ø¯ÙŠØ´,å­ŸåŠ æ‹‰å›½,"Ğ‘Ğ°Ğ½Ğ³Ğ»Ğ°Ğ´ĞµÑE,the People's Republic of Bangladesh""",la RÃ©publique populaire du Bangladesh,la RepÃºblica Popular de Bangladesh,Ø¨ÙEºÙE§Ø¯ÙŠØ´,å­ŸåŠ æ‹‰å›½,"Ğ‘Ğ°Ğ½Ğ³Ğ»Ğ°Ğ´ĞµÑE,Asia""",Asie,Asia,,,,Least Developed Countries,Pays les moins avancÃ©s,PaÃ­ses menos adelantados,,,,Southern Asia,Asie mÃ©ridionale,Asia meridional,,,,,
60,17,BM,BMU,Bermuda,Bermudes,Bermudas,Ø¨Ø±ÙEˆØ¯Ø§,ç™¾æ…•å¤§,Ğ‘ĞµÑ€Ğ¼ÑƒĞ´ÑEºĞ¸Ğµ Ğ¾ÑE‚Ñ€Ğ¾Ğ²Ğ°,Bermuda,les Bermudes,Bermudas,Ø¨Ø±ÙEˆØ¯Ø§,ç™¾æ…•å¤§,Ğ‘ĞµÑ€Ğ¼ÑƒĞ´ÑEºĞ¸Ğµ Ğ¾ÑE‚Ñ€Ğ¾Ğ²Ğ°,Americas,AmÃ©riques,AmÃ©ricas,,,,Developed countries or areas,Pays ou zones dÃ©veloppÃ©s,PaÃ­ses o Ã¡reas desarrollados,,,,Northern America,AmÃ©rique du Nord,AmÃ©rica del Norte,,,
64,18,BT,BTN,Bhutan,Bhoutan,BhutÃ¡n,"Ø¨ÙˆØªØ§ÙE,ä¸ä¸¹ç‹å›½""",Ğ‘ÑƒÑ‚Ğ°Ğ½,the Kingdom of Bhutan,le Royaume du Bhoutan,el Reino de BhutÃ¡n,"Ø¨ÙˆØªØ§ÙE,ä¸ä¸¹ç‹å›½""",Ğ‘ÑƒÑ‚Ğ°Ğ½,Asia,Asie,Asia,,,,Least Developed Countries,Pays les moins avancÃ©s,PaÃ­ses menos adelantados,,,,Southern Asia,Asie mÃ©ridionale,Asia meridional,,,,,
68,19,BO,BOL,Bolivia (Plurinat.State),Bolivie (Ã‰tat plurinat.),Bolivia (Estado Plurin.),Ø¨ÙˆÙEŠÙEŠØ§ (Ø¯ÙˆÙE© - Ø§ÙEEªØ¹Ø¯Ø¯Ø© Ø§ÙE‚ÙˆÙEŠØ§Øª),ç»åˆ©ç»´äºšå¤šæ°‘æ—å›½,Ğ‘Ğ¾Ğ»Ğ¸Ğ²Ğ¸ÑE(ĞœĞ½Ğ¾Ğ³Ğ¾Ğ½Ğ°ÑE¸Ğ¾Ğ½Ğ°Ğ»ÑŒĞ½Ğ¾Ğµ Ğ“Ğ¾ÑEƒĞ´Ğ°Ñ€ÑE‚Ğ²Ğ¾),the Plurinational State of Bolivia,l'Ã‰tat plurinational de Bolivie,el Estado Plurinacional de Bolivia,Ø¨ÙˆÙEŠÙEŠØ§ (Ø¯ÙˆÙE© - Ø§ÙEEªØ¹Ø¯Ø¯Ø© Ø§ÙE‚ÙˆÙEŠØ§Øª),ç»åˆ©ç»´äºšå¤šæ°‘æ—å›½,Ğ‘Ğ¾Ğ»Ğ¸Ğ²Ğ¸ÑE(ĞœĞ½Ğ¾Ğ³Ğ¾Ğ½Ğ°ÑE¸Ğ¾Ğ½Ğ°Ğ»ÑŒĞ½Ğ¾Ğµ Ğ“Ğ¾ÑEƒĞ´Ğ°Ñ€ÑE‚Ğ²Ğ¾),Americas,AmÃ©riques,AmÃ©ricas,,,,Other developing countries or areas,Autres pays ou zones en dÃ©veloppement,Otros paÃ­ses o Ã¡reas en desarrollo,,,,South America,AmÃ©rique du Sud,AmÃ©rica del Sur,,,
72,20,BW,BWA,Botswana,Botswana,Botswana,Ø¨ÙˆØªØ³ÙˆØ§ÙE§,åšèŒ¨ç“¦çº³,Ğ‘Ğ¾Ñ‚ÑE²Ğ°Ğ½Ğ°,the Republic of Botswana,la RÃ©publique du Botswana,la RepÃºblica de Botswana,Ø¨ÙˆØªØ³ÙˆØ§ÙE§,åšèŒ¨ç“¦çº³,Ğ‘Ğ¾Ñ‚ÑE²Ğ°Ğ½Ğ°,Africa,Afrique,Ãfrica,,,,Other developing countries or areas,Autres pays ou zones en dÃ©veloppement,Otros paÃ­ses o Ã¡reas en desarrollo,,,,Southern Africa,Afrique australe,Ãfrica austral,,,
76,21,BR,BRA,Brazil,BrÃ©sil,Brasil,Ø§ÙE¬ÙEEˆØ±ÙŠØ© Ø§ÙE§ØªØ­Ø§Ø¯ÙŠØ© Ø§ÙE¨Ø±Ø§Ø²ÙŠÙEŠØ©,å·´ è¥¿,"Ğ‘Ñ€Ğ°Ğ·Ğ¸Ğ»Ğ¸ÑE,the Federative Republic of Brazil""",la RÃ©publique fÃ©dÃ©rative du BrÃ©sil,la RepÃºblica Federativa del Brasil,Ø§ÙE¬ÙEEˆØ±ÙŠØ© Ø§ÙE§ØªØ­Ø§Ø¯ÙŠØ© Ø§ÙE¨Ø±Ø§Ø²ÙŠÙEŠØ©,å·´ è¥¿,"Ğ‘Ñ€Ğ°Ğ·Ğ¸Ğ»Ğ¸ÑE,Americas""",AmÃ©riques,AmÃ©ricas,,,,Other developing countries or areas,Autres pays ou zones en dÃ©veloppement,Otros paÃ­ses o Ã¡reas en desarrollo,,,,South America,AmÃ©rique du Sud,AmÃ©rica del Sur,,,,,
533,22,AW,ABW,Aruba,Aruba,Aruba,Ø£Ø±ÙˆØ¨Ø§,"é˜¿é²å·´å²E,ĞÑ€ÑƒĞ±Ğ°""",Aruba,Aruba,Aruba,Ø£Ø±ÙˆØ¨Ø§,"é˜¿é²å·´å²E,ĞÑ€ÑƒĞ±Ğ°""",Americas,AmÃ©riques,AmÃ©ricas,,,,Other developing countries or areas,Autres pays ou zones en dÃ©veloppement,Otros paÃ­ses o Ã¡reas en desarrollo,,,,Caribbean,CaraÃ¯bes,Caribe,,,,,
84,23,BZ,BLZ,Belize,Belize,Belice,Ø¨ÙEŠØ²,ä¼¯åˆ©å…¹,Ğ‘ĞµĞ»Ğ¸Ğ·,Belize,le Belize,Belice,Ø¨ÙEŠØ²,ä¼¯åˆ©å…¹,Ğ‘ĞµĞ»Ğ¸Ğ·,Americas,AmÃ©riques,AmÃ©ricas,,,,Other developing countries or areas,Autres pays ou zones en dÃ©veloppement,Otros paÃ­ses o Ã¡reas en desarrollo,,,,Central America,AmÃ©rique centrale,AmÃ©rica central,,,
86,24,IO,IOT,British Indian Ocean Ter,Terr. brit. OcÃ©an Indien,Ter. Brit. OcÃ©ano Ãndico,"Ø§ÙEEE¯ÙEØ§ÙEE­ÙŠØ· ÙEEØ§ÙE¨Ø±ÙŠØ·Ø§ÙEŠØ© Ø§ÙEEE§Ø·ÙE,è‹±è¾–å°åº¦æ´‹æµ·åŸE",Ğ‘Ñ€Ğ¸Ñ‚Ğ°Ğ½ÑEºĞ°ÑEÑ‚ĞµÑ€Ñ€Ğ¸Ñ‚Ğ¾Ñ€Ğ¸ÑEĞ² Ğ˜Ğ½Ğ´Ğ¸Ğ¹ÑEºĞ¾Ğ¼ Ğ¾ĞºĞµĞ°Ğ½Ğµ,British Indian Ocean Territory,Territoire britanique de l'OcÃ©an Indien,Territorio BritÃ¡nico del OcÃ©ano Indico,"Ø§ÙEEE¯ÙEØ§ÙEE­ÙŠØ· ÙEEØ§ÙE¨Ø±ÙŠØ·Ø§ÙEŠØ© Ø§ÙEEE§Ø·ÙE,è‹±è¾–å°åº¦æ´‹æµ·åŸE",Ğ‘Ñ€Ğ¸Ñ‚Ğ°Ğ½ÑEºĞ°ÑEÑ‚ĞµÑ€Ñ€Ğ¸Ñ‚Ğ¾Ñ€Ğ¸ÑEĞ² Ğ˜Ğ½Ğ´Ğ¸Ğ¹ÑEºĞ¾Ğ¼ Ğ¾ĞºĞµĞ°Ğ½Ğµ,Africa,Afrique,Ãfrica,,,,Other developing countries or areas,Autres pays ou zones en dÃ©veloppement,Otros paÃ­ses o Ã¡reas en desarrollo,,,,Eastern Africa,Afrique orientale,Ãfrica oriental,,,,,
90,25,SB,SLB,Solomon Islands,Ãles Salomon,Islas SalomÃ³n,"Ø¬Ø²Ø± Ø³ÙEŠÙE§ÙE,æ‰€ç½—é—¨ç¾¤å²E",Ğ¡Ğ¾Ğ»Ğ¾Ğ¼Ğ¾Ğ½Ğ¾Ğ²ÑEĞÑE‚Ñ€Ğ¾Ğ²Ğ°,Solomon Islands,les Ãles Salomon,las Islas SalomÃ³n,"Ø¬Ø²Ø± Ø³ÙEŠÙE§ÙE,æ‰€ç½—é—¨ç¾¤å²E",Ğ¡Ğ¾Ğ»Ğ¾Ğ¼Ğ¾Ğ½Ğ¾Ğ²ÑEĞÑE‚Ñ€Ğ¾Ğ²Ğ°,Oceania,OcÃ©anie,OceanÃ­a,,,,Least Developed Countries,Pays les moins avancÃ©s,PaÃ­ses menos adelantados,,,,Melanesia,MÃ©lanÃ©sie,Melanesia,,,,,
96,26,BN,BRN,Brunei Darussalam,BrunÃ©i Darussalam,Brunei Darussalam,"Ø§ÙE³ÙE§ÙEØ¯Ø§Ø± Ø¨Ø±ÙˆÙEE,æ–E±è¾¾é²è¨å…°å›½""",Ğ‘Ñ€ÑƒĞ½ĞµĞ¹-Ğ”Ğ°Ñ€ÑƒÑEE°Ğ»Ğ°Ğ¼,Brunei Darussalam,le BrunÃ©i Darussalam,Brunei Darussalam,"Ø§ÙE³ÙE§ÙEØ¯Ø§Ø± Ø¨Ø±ÙˆÙEE,æ–E±è¾¾é²è¨å…°å›½""",Ğ‘Ñ€ÑƒĞ½ĞµĞ¹-Ğ”Ğ°Ñ€ÑƒÑEE°Ğ»Ğ°Ğ¼,Asia,Asie,Asia,,,,Other developing countries or areas,Autres pays ou zones en dÃ©veloppement,Otros paÃ­ses o Ã¡reas en desarrollo,,,,South-Eastern Asia,Asie du Sud-Est,Asia sudoriental,,,,,
100,27,BG,BGR,Bulgaria,Bulgarie,Bulgaria,Ø¬ÙEEˆØ±ÙŠØ© Ø¨ÙEºØ§Ø±ÙŠØ§,"ä¿åŠ åˆ©äºE,Ğ‘Ğ¾Ğ»Ğ³Ğ°Ñ€Ğ¸ÑE",the Republic of Bulgaria,la RÃ©publique de Bulgarie,la RepÃºblica de Bulgaria,Ø¬ÙEEˆØ±ÙŠØ© Ø¨ÙEºØ§Ø±ÙŠØ§,"ä¿åŠ åˆ©äºE,Ğ‘Ğ¾Ğ»Ğ³Ğ°Ñ€Ğ¸ÑE",Europe,Europe,Europa,,,,Developed countries or areas,Pays ou zones dÃ©veloppÃ©s,PaÃ­ses o Ã¡reas desarrollados,,,,Eastern Europe,Europe orientale,Europa oriental,,,,,
104,28,MM,MMR,Myanmar,Myanmar,Myanmar,Ø¬ÙEEˆØ±ÙŠØ© Ø§ØªØ­Ø§Ø¯ ÙEŠØ§ÙEE§Ø±,ç¼E”¸è”é‚¦å…±å’Œå›½,Ğ ĞµÑE¿ÑƒĞ±Ğ»Ğ¸ĞºĞ° Ğ¡Ğ¾ÑĞ· ĞœÑŒÑĞ½Ğ¼Ğ°,the Republic of the Union of Myanmar,RÃ©publique de l'Union du Myanmar,la RepÃºblica de la UniÃ³n de Myanmar,Ø¬ÙEEˆØ±ÙŠØ© Ø§ØªØ­Ø§Ø¯ ÙEŠØ§ÙEE§Ø±,ç¼E”¸è”é‚¦å…±å’Œå›½,Ğ ĞµÑE¿ÑƒĞ±Ğ»Ğ¸ĞºĞ° Ğ¡Ğ¾ÑĞ· ĞœÑŒÑĞ½Ğ¼Ğ°,Asia,Asie,Asia,,,,Least Developed Countries,Pays les moins avancÃ©s,PaÃ­ses menos adelantados,,,,South-Eastern Asia,Asie du Sud-Est,Asia sudoriental,,,
108,29,BI,BDI,Burundi,Burundi,Burundi,"Ø¨ÙˆØ±ÙˆÙE¯ÙE,å¸Eš†è¿ª""",Ğ‘ÑƒÑ€ÑƒĞ½Ğ´Ğ¸,the Republic of Burundi,la RÃ©publique du Burundi,la RepÃºblica de Burundi,"Ø¨ÙˆØ±ÙˆÙE¯ÙE,å¸Eš†è¿ª""",Ğ‘ÑƒÑ€ÑƒĞ½Ğ´Ğ¸,Africa,Afrique,Ãfrica,,,,Least Developed Countries,Pays les moins avancÃ©s,PaÃ­ses menos adelantados,,,,Eastern Africa,Afrique orientale,Ãfrica oriental,,,,,
10,30,AQ,ATA,Antarctica others,Antarctique autres,Antartida otros,,,,Antarctica,Antarctique,AntÃ¡rtida,,,,,,,,,,,,,,,,,,,,,
74,31,BV,BVT,Bouvet Island,Ãle Bouvet,Isla Bouvet,Ø¨ÙˆÙEŠÙEØ¬Ø²Ø±,"åšç»´ç‰¹å²E,Ğ¾ÑE‚Ñ€Ğ¾Ğ² Ğ‘ÑƒĞ²Ğµ""",Bouvet Island,Ãle Bouvet,Isla Bouvet,Ø¨ÙˆÙEŠÙEØ¬Ø²Ø±,"åšç»´ç‰¹å²E,Ğ¾ÑE‚Ñ€Ğ¾Ğ² Ğ‘ÑƒĞ²Ğµ""",Americas,AmÃ©riques,AmÃ©ricas,,,,Other developing countries or areas,Autres pays ou zones en dÃ©veloppement,Otros paÃ­ses o Ã¡reas en desarrollo,,,,South America,AmÃ©rique du Sud,AmÃ©rica del Sur,,,,,
120,32,CM,CMR,Cameroon,Cameroun,CamerÃºn,"Ø¬ÙEEˆØ±ÙŠØ© Ø§ÙEE§ÙEŠØ±ÙˆÙE,å–€éº¦éšE",ĞšĞ°Ğ¼ĞµÑ€ÑƒĞ½,the Republic of Cameroon,la RÃ©publique du Cameroun,la RepÃºblica del CamerÃºn,"Ø¬ÙEEˆØ±ÙŠØ© Ø§ÙEE§ÙEŠØ±ÙˆÙE,å–€éº¦éšE",ĞšĞ°Ğ¼ĞµÑ€ÑƒĞ½,Africa,Afrique,Ãfrica,,,,Other developing countries or areas,Autres pays ou zones en dÃ©veloppement,Otros paÃ­ses o Ã¡reas en desarrollo,,,,Middle Africa,Afrique centrale,Ãfrica central,,,,,
124,33,CA,CAN,Canada,Canada,CanadÃ¡,ÙEE¯Ø§,åŠ æ‹¿å¤§,ĞšĞ°Ğ½Ğ°Ğ´Ğ°,Canada,le Canada,el CanadÃ¡,ÙEE¯Ø§,åŠ æ‹¿å¤§,ĞšĞ°Ğ½Ğ°Ğ´Ğ°,Americas,AmÃ©riques,AmÃ©ricas,,,,Developed countries or areas,Pays ou zones dÃ©veloppÃ©s,PaÃ­ses o Ã¡reas desarrollados,,,,Northern America,AmÃ©rique du Nord,AmÃ©rica del Norte,,,
128,34,,,Canton and Enderbury Is,"Canton et Enderbury, Ãl","Canton y Enderbury, Is",,,,,,,,,,,,,,,,,,,,,,,,,,,
132,35,CV,CPV,Cabo Verde,Cabo Verde,Cabo Verde,Ø§ÙE£Ø®Ø¶Ø± Ø§ÙE±Ø£Ø³,"ä½›å¾—è§E,ĞšĞ°Ğ±Ğ¾-Ğ’ĞµÑ€Ğ´Ğµ""",Republic of Cabo Verde,la RÃ©publique de Cabo Verde,la RepÃºblica de Cabo Verde,Ø§ÙE£Ø®Ø¶Ø± Ø§ÙE±Ø£Ø³ Ø¬ÙEEˆØ±ÙŠØ©,ä½›å¾—è§’åEå’Œå›½,Ğ ĞµÑE¿ÑƒĞ±Ğ»Ğ¸ĞºĞ° ĞšĞ°Ğ±Ğ¾-Ğ’ĞµÑ€Ğ´Ğµ,Africa,Afrique,Ãfrica,,,,Other developing countries or areas,Autres pays ou zones en dÃ©veloppement,Otros paÃ­ses o Ã¡reas en desarrollo,,,,Western Africa,Afrique occidentale,Ãfrica occidental,,,,
136,36,KY,CYM,Cayman Islands,Ãles CaÃ¯manes,Islas CaimÃ¡n,ÙE§ÙŠÙE§ÙEØ¬Ø²Ø±,"å¼€æ›¼ç¾¤å²E,ĞšĞ°Ğ¹Ğ¼Ğ°Ğ½Ğ¾Ğ²ÑEĞ¾ÑE‚Ñ€Ğ¾Ğ²Ğ°""",Cayman Islands,les Ãles CaÃ¯manes,Islas CaimÃ¡n,ÙE§ÙŠÙE§ÙEØ¬Ø²Ø±,"å¼€æ›¼ç¾¤å²E,ĞšĞ°Ğ¹Ğ¼Ğ°Ğ½Ğ¾Ğ²ÑEĞ¾ÑE‚Ñ€Ğ¾Ğ²Ğ°""",Americas,AmÃ©riques,AmÃ©ricas,,,,Other developing countries or areas,Autres pays ou zones en dÃ©veloppement,Otros paÃ­ses o Ã¡reas en desarrollo,,,,Caribbean,CaraÃ¯bes,Caribe,,,,,
140,37,CF,CAF,Central African Republic,RÃ©p. centrafricaine,RepÃºblica Centroafricana,"Ø¬ÙEEˆØ±ÙŠØ© Ø£ÙE±ÙŠÙ‚ÙŠØ§ Ø§ÙEˆØ³Ø·ÙE,ä¸­éåEå’Œå›½""",Ğ¦ĞµĞ½Ñ‚Ñ€Ğ°Ğ»ÑŒĞ½Ğ¾Ğ°ÑE€Ğ¸ĞºĞ°Ğ½ÑEºĞ°ÑEĞ ĞµÑE¿ÑƒĞ±Ğ»Ğ¸ĞºĞ°,the Central African Republic,la RÃ©publique centrafricaine,la RepÃºblica Centroafricana,"Ø¬ÙEEˆØ±ÙŠØ© Ø£ÙE±ÙŠÙ‚ÙŠØ§ Ø§ÙEˆØ³Ø·ÙE,ä¸­éåEå’Œå›½""",Ğ¦ĞµĞ½Ñ‚Ñ€Ğ°Ğ»ÑŒĞ½Ğ¾Ğ°ÑE€Ğ¸ĞºĞ°Ğ½ÑEºĞ°ÑEĞ ĞµÑE¿ÑƒĞ±Ğ»Ğ¸ĞºĞ°,Africa,Afrique,Ãfrica,,,,Least Developed Countries,Pays les moins avancÃ©s,PaÃ­ses menos adelantados,,,,Middle Africa,Afrique centrale,Ãfrica central,,,,,
144,38,LK,LKA,Sri Lanka,Sri Lanka,Sri Lanka,Ø³Ø±ÙEÙE§ÙEE§,æ–¯é‡ŒåEå¡,Ğ¨Ñ€Ğ¸-Ğ›Ğ°Ğ½ĞºĞ°,the Democratic Socialist Republic of Sri Lanka,la RÃ©publique socialiste dÃ©mocratique de Sri Lanka,la RepÃºblica Socialista DemocrÃ¡tica de Sri Lanka,Ø³Ø±ÙEÙE§ÙEE§,æ–¯é‡ŒåEå¡,Ğ¨Ñ€Ğ¸-Ğ›Ğ°Ğ½ĞºĞ°,Asia,Asie,Asia,,,,Other developing countries or areas,Autres pays ou zones en dÃ©veloppement,Otros paÃ­ses o Ã¡reas en desarrollo,,,,Southern Asia,Asie mÃ©ridionale,Asia meridional,,,
148,39,TD,TCD,Chad,Tchad,Chad,Ø¬ÙEEˆØ±ÙŠØ© ØªØ´Ø§Ø¯,"ä¹Eå¾E,Ğ§Ğ°Ğ´""",the Republic of Chad,la RÃ©publique du Tchad,la RepÃºblica del Chad,Ø¬ÙEEˆØ±ÙŠØ© ØªØ´Ø§Ø¯,"ä¹Eå¾E,Ğ§Ğ°Ğ´""",Africa,Afrique,Ãfrica,,,,Least Developed Countries,Pays les moins avancÃ©s,PaÃ­ses menos adelantados,,,,Middle Africa,Afrique centrale,Ãfrica central,,,,,
152,40,CL,CHL,Chile,Chili,Chile,"Ø¬ÙEEˆØ±ÙŠØ© Ø´ÙŠÙEE,æ™ºåˆ©å…±å’Œå›½""",Ğ ĞµÑE¿ÑƒĞ±Ğ»Ğ¸ĞºĞ° Ğ§Ğ¸Ğ»Ğ¸,the Republic of Chile,la RÃ©publique du Chili,la RepÃºblica de Chile,"Ø¬ÙEEˆØ±ÙŠØ© Ø´ÙŠÙEE,æ™ºåˆ©å…±å’Œå›½""",Ğ ĞµÑE¿ÑƒĞ±Ğ»Ğ¸ĞºĞ° Ğ§Ğ¸Ğ»Ğ¸,Americas,AmÃ©riques,AmÃ©ricas,,,,Other developing countries or areas,Autres pays ou zones en dÃ©veloppement,Otros paÃ­ses o Ã¡reas en desarrollo,,,,South America,AmÃ©rique du Sud,AmÃ©rica del Sur,,,,,
156,41,CN,CHN,China,Chine,China,"Ø§ÙEµÙŠÙE,ä¸­åäººæ°‘åEå’Œå›½""",ĞšĞ¸Ñ‚Ğ°Ğ¹,the People's Republic of China,la RÃ©publique populaire de Chine,la RepÃºblica Popular China,"Ø§ÙEµÙŠÙE,ä¸­åäººæ°‘åEå’Œå›½""",ĞšĞ¸Ñ‚Ğ°Ğ¹,Asia,Asie,Asia,,,,Other developing countries or areas,Autres pays ou zones en dÃ©veloppement,Otros paÃ­ses o Ã¡reas en desarrollo,,,,Eastern Asia,Asie orientale,Asia oriental,,,,,
162,42,CX,CXR,Christmas Island,Ãle Christmas,Isla Christmas,ÙE±ÙŠØ³ÙE§Ø³ Ø¬Ø²Ø±,"åœ£è¯å²E,Ğ¾ÑE‚Ñ€Ğ¾Ğ² Ğ Ğ¾Ğ¶Ğ´ĞµÑE‚Ğ²Ğ°""",Christmas Island,Ãle Christmas,Isla Christmas,ÙE±ÙŠØ³ÙE§Ø³ Ø¬Ø²Ø±,"åœ£è¯å²E,Ğ¾ÑE‚Ñ€Ğ¾Ğ² Ğ Ğ¾Ğ¶Ğ´ĞµÑE‚Ğ²Ğ°""",Oceania,OcÃ©anie,OceanÃ­a,,,,Developed countries or areas,Pays ou zones dÃ©veloppÃ©s,PaÃ­ses o Ã¡reas desarrollados,,,,Australia and New Zealand,Australie et Nouvelle-ZÃ©lande,Australia y Nueva Zelandia,,,,,
166,43,CC,CCK,Cocos (Keeling) Islands,Ãles des Cocos (Keeling),Islas Cocos (Keeling),ÙEŠÙEEº - ÙEˆÙEˆØ³ Ø¬Ø²Ø±,"å¯å¯ç¾¤å²E,ĞšĞ¾ĞºĞ¾ÑE¾Ğ²Ñ‹Ğµ Ğ¾ÑE‚Ñ€Ğ¾Ğ²Ğ° (ĞšĞ¸Ğ»Ğ¸Ğ½Ğ³)""",Cocos (Keeling) Islands,Ãles des Cocos (Keeling),Islas Cocos (Keeling),ÙEŠÙEEº - ÙEˆÙEˆØ³ Ø¬Ø²Ø±,"å¯å¯ç¾¤å²E,ĞšĞ¾ĞºĞ¾ÑE¾Ğ²Ñ‹Ğµ Ğ¾ÑE‚Ñ€Ğ¾Ğ²Ğ° (ĞšĞ¸Ğ»Ğ¸Ğ½Ğ³)""",Oceania,OcÃ©anie,OceanÃ­a,,,,Developed countries or areas,Pays ou zones dÃ©veloppÃ©s,PaÃ­ses o Ã¡reas desarrollados,,,,Australia and New Zealand,Australie et Nouvelle-ZÃ©lande,Australia y Nueva Zelandia,,,,,
170,44,CO,COL,Colombia,Colombie,Colombia,Ø¬ÙEEˆØ±ÙŠØ© ÙEˆÙEˆÙE¨ÙŠØ§,"å“¥ä¼¦æ¯”äºE,ĞšĞ¾Ğ»ÑƒĞ¼Ğ±Ğ¸ÑE",the Republic of Colombia,la RÃ©publique de Colombie,la RepÃºblica de Colombia,Ø¬ÙEEˆØ±ÙŠØ© ÙEˆÙEˆÙE¨ÙŠØ§,"å“¥ä¼¦æ¯”äºE,ĞšĞ¾Ğ»ÑƒĞ¼Ğ±Ğ¸ÑE",Americas,AmÃ©riques,AmÃ©ricas,,,,Other developing countries or areas,Autres pays ou zones en dÃ©veloppement,Otros paÃ­ses o Ã¡reas en desarrollo,,,,South America,AmÃ©rique du Sud,AmÃ©rica del Sur,,,,,
174,45,KM,COM,Comoros,Comores,Comoras,Ø¬Ø²Ø± Ø§ÙE‚ÙE±,"ç§‘æ‘©ç½E,Ğ¡Ğ¾ÑĞ· ĞšĞ¾Ğ¼Ğ¾Ñ€ÑEºĞ¸ÑEĞÑE‚Ñ€Ğ¾Ğ²Ğ¾Ğ²""",the Union of the Comoros,l'Union des Comores,la UniÃ³n de las Comoras,Ø¬Ø²Ø± Ø§ÙE‚ÙE±,"ç§‘æ‘©ç½E,Ğ¡Ğ¾ÑĞ· ĞšĞ¾Ğ¼Ğ¾Ñ€ÑEºĞ¸ÑEĞÑE‚Ñ€Ğ¾Ğ²Ğ¾Ğ²""",Africa,Afrique,Ãfrica,,,,Least Developed Countries,Pays les moins avancÃ©s,PaÃ­ses menos adelantados,,,,Eastern Africa,Afrique orientale,Ãfrica oriental,,,,,
178,46,CG,COG,Congo,Congo,Congo,"Ø¬ÙEEˆØ±ÙŠØ© Ø§ÙEEˆÙEºÙE,åˆEæE",Ğ ĞµÑE¿ÑƒĞ±Ğ»Ğ¸ĞºĞ° ĞšĞ¾Ğ½Ğ³Ğ¾,the Republic of the Congo,la RÃ©publique du Congo,la RepÃºblica del Congo,"Ø¬ÙEEˆØ±ÙŠØ© Ø§ÙEEˆÙEºÙE,åˆEæE",Ğ ĞµÑE¿ÑƒĞ±Ğ»Ğ¸ĞºĞ° ĞšĞ¾Ğ½Ğ³Ğ¾,Africa,Afrique,Ãfrica,,,,Other developing countries or areas,Autres pays ou zones en dÃ©veloppement,Otros paÃ­ses o Ã¡reas en desarrollo,,,,Middle Africa,Afrique centrale,Ãfrica central,,,,,
184,47,CK,COK,Cook Islands,Ãles Cook,Islas Cook,"Ø¬Ø²Ø± ÙEˆÙE,åº“åEç¾¤å²E",ĞÑE‚Ñ€Ğ¾Ğ²Ğ° ĞšÑƒĞºĞ°,the Cook Islands,les Ãles Cook,las Islas Cook,"Ø¬Ø²Ø± ÙEˆÙE,åº“åEç¾¤å²E",ĞÑE‚Ñ€Ğ¾Ğ²Ğ° ĞšÑƒĞºĞ°,Oceania,OcÃ©anie,OceanÃ­a,,,,Other developing countries or areas,Autres pays ou zones en dÃ©veloppement,Otros paÃ­ses o Ã¡reas en desarrollo,,,,Polynesia,PolynÃ©sie,Polinesia,,,,,
188,48,CR,CRI,Costa Rica,Costa Rica,Costa Rica,ÙEˆØ³ØªØ§Ø±ÙŠÙE§,å“¥æ–¯è¾¾é»åŠ ,Ğ ĞµÑE¿ÑƒĞ±Ğ»Ğ¸ĞºĞ° ĞšĞ¾ÑE‚Ğ°-Ğ Ğ¸ĞºĞ°,the Republic of Costa Rica,la RÃ©publique du Costa Rica,la RepÃºblica de Costa Rica,ÙEˆØ³ØªØ§Ø±ÙŠÙE§,å“¥æ–¯è¾¾é»åŠ ,Ğ ĞµÑE¿ÑƒĞ±Ğ»Ğ¸ĞºĞ° ĞšĞ¾ÑE‚Ğ°-Ğ Ğ¸ĞºĞ°,Americas,AmÃ©riques,AmÃ©ricas,,,,Other developing countries or areas,Autres pays ou zones en dÃ©veloppement,Otros paÃ­ses o Ã¡reas en desarrollo,,,,Central America,AmÃ©rique centrale,AmÃ©rica central,,,
192,49,CU,CUB,Cuba,Cuba,Cuba,Ø¬ÙEEˆØ±ÙŠØ© ÙEˆØ¨Ø§,å¤ å·´,Ğ ĞµÑE¿ÑƒĞ±Ğ»Ğ¸ĞºĞ° ĞšÑƒĞ±Ğ°,the Republic of Cuba,la RÃ©publique de Cuba,la RepÃºblica de Cuba,Ø¬ÙEEˆØ±ÙŠØ© ÙEˆØ¨Ø§,å¤ å·´,Ğ ĞµÑE¿ÑƒĞ±Ğ»Ğ¸ĞºĞ° ĞšÑƒĞ±Ğ°,Americas,AmÃ©riques,AmÃ©ricas,,,,Other developing countries or areas,Autres pays ou zones en dÃ©veloppement,Otros paÃ­ses o Ã¡reas en desarrollo,,,,Caribbean,CaraÃ¯bes,Caribe,,,
196,50,CY,CYP,Cyprus,Chypre,Chipre,Ø¬ÙEEˆØ±ÙŠØ© Ù‚Ø¨Ø±Øµ,å¡æµ¦è·¯æ–¯å…±å’Œå›½,ĞšĞ¸Ğ¿Ñ€,the Republic of Cyprus,la RÃ©publique de Chypre,la RepÃºblica de Chipre,Ø¬ÙEEˆØ±ÙŠØ© Ù‚Ø¨Ø±Øµ,å¡æµ¦è·¯æ–¯å…±å’Œå›½,ĞšĞ¸Ğ¿Ñ€,Asia,Asie,Asia,,,,Developed countries or areas,Pays ou zones dÃ©veloppÃ©s,PaÃ­ses o Ã¡reas desarrollados,,,,Western Asia,Asie occidentale,Asia occidental,,,
200,51,,CSK,Czechoslovakia,TchÃ©coslovaquie,Checoslovaquia,,,,Czechoslovakia,TchÃ©coslovaquie,Checoslovaquia,,,,Europe,Europe,Europa,,,,Developed countries or areas,Pays ou zones dÃ©veloppÃ©s,PaÃ­ses o Ã¡reas desarrollados,,,,Eastern Europe,Europe orientale,Europa oriental,,,
31,52,AZ,AZE,Azerbaijan,AzerbaÃ¯djan,AzerbaiyÃ¡n,Ø§ÙE¬ÙEEˆØ±ÙŠØ© Ø§ÙE£Ø°Ø±Ø¨ÙŠØ¬Ø§ÙEŠØ©,é˜¿å¡æ‹œç–EEå’Œå›½,ĞĞ·ĞµÑ€Ğ±Ğ°Ğ¹Ğ´Ğ¶Ğ°Ğ½,the Republic of Azerbaijan,la RÃ©publique d'AzerbaÃ¯djan,la RepÃºblica de AzerbaiyÃ¡n,Ø§ÙE¬ÙEEˆØ±ÙŠØ© Ø§ÙE£Ø°Ø±Ø¨ÙŠØ¬Ø§ÙEŠØ©,é˜¿å¡æ‹œç–EEå’Œå›½,ĞĞ·ĞµÑ€Ğ±Ğ°Ğ¹Ğ´Ğ¶Ğ°Ğ½,Asia,Asie,Asia,,,,Other developing countries or areas,Autres pays ou zones en dÃ©veloppement,Otros paÃ­ses o Ã¡reas en desarrollo,,,,Western Asia,Asie occidentale,Asia occidental,,,
204,53,BJ,BEN,Benin,BÃ©nin,Benin,"Ø¬ÙEEˆØ±ÙŠØ© Ø¨ÙEE,è´Eå®E",Ğ ĞµÑE¿ÑƒĞ±Ğ»Ğ¸ĞºĞ° Ğ‘ĞµĞ½Ğ¸Ğ½,the Republic of Benin,la RÃ©publique du BÃ©nin,la RepÃºblica de Benin,"Ø¬ÙEEˆØ±ÙŠØ© Ø¨ÙEE,è´Eå®E",Ğ ĞµÑE¿ÑƒĞ±Ğ»Ğ¸ĞºĞ° Ğ‘ĞµĞ½Ğ¸Ğ½,Africa,Afrique,Ãfrica,,,,Least Developed Countries,Pays les moins avancÃ©s,PaÃ­ses menos adelantados,,,,Western Africa,Afrique occidentale,Ãfrica occidental,,,,,
208,54,DK,DNK,Denmark,Danemark,Dinamarca,"ÙEEEE© Ø§ÙE¯Ø§ÙEE±ÙE,ä¸¹éº¦ç‹å›½""","Ğ”Ğ°Ğ½Ğ¸ÑE,the Kingdom of Denmark""",le Royaume du Danemark,el Reino de Dinamarca,"ÙEEEE© Ø§ÙE¯Ø§ÙEE±ÙE,ä¸¹éº¦ç‹å›½""","Ğ”Ğ°Ğ½Ğ¸ÑE,Europe""",Europe,Europa,,,,Developed countries or areas,Pays ou zones dÃ©veloppÃ©s,PaÃ­ses o Ã¡reas desarrollados,,,,Northern Europe,Europe septentrionale,Europa del Norte,,,,,,,
212,55,DM,DMA,Dominica,Dominique,Dominica,ÙEEEˆÙE« Ø¯ÙˆÙEŠÙEŠÙE§,"å¤šç±³å°¼å…E,Ğ”Ğ¾Ğ¼Ğ¸Ğ½Ğ¸ĞºĞ°""",the Commonwealth of Dominica,le Commonwealth de la Dominique,el Commonwealth de Dominica,ÙEEEˆÙE« Ø¯ÙˆÙEŠÙEŠÙE§,"å¤šç±³å°¼å…E,Ğ”Ğ¾Ğ¼Ğ¸Ğ½Ğ¸ĞºĞ°""",Americas,AmÃ©riques,AmÃ©ricas,,,,Other developing countries or areas,Autres pays ou zones en dÃ©veloppement,Otros paÃ­ses o Ã¡reas en desarrollo,,,,Caribbean,CaraÃ¯bes,Caribe,,,,,
214,56,DO,DOM,Dominican Republic,RÃ©publique dominicaine,RepÃºblica Dominicana,Ø§ÙE¬ÙEEˆØ±ÙŠØ© Ø§ÙE¯ÙˆÙEŠÙEŠÙEŠØ©,å¤šç±³å°¼åŠ å…±å’Œå›½,Ğ”Ğ¾Ğ¼Ğ¸Ğ½Ğ¸ĞºĞ°Ğ½ÑEºĞ°ÑEĞ ĞµÑE¿ÑƒĞ±Ğ»Ğ¸ĞºĞ°,the Dominican Republic,la RÃ©publique dominicaine,la RepÃºblica Dominicana,Ø§ÙE¬ÙEEˆØ±ÙŠØ© Ø§ÙE¯ÙˆÙEŠÙEŠÙEŠØ©,å¤šç±³å°¼åŠ å…±å’Œå›½,Ğ”Ğ¾Ğ¼Ğ¸Ğ½Ğ¸ĞºĞ°Ğ½ÑEºĞ°ÑEĞ ĞµÑE¿ÑƒĞ±Ğ»Ğ¸ĞºĞ°,Americas,AmÃ©riques,AmÃ©ricas,,,,Other developing countries or areas,Autres pays ou zones en dÃ©veloppement,Otros paÃ­ses o Ã¡reas en desarrollo,,,,Caribbean,CaraÃ¯bes,Caribe,,,
112,57,BY,BLR,Belarus,BÃ©larus,BelarÃºs,Ø¬ÙEEˆØ±ÙŠØ© Ø¨ÙŠÙE§Ø±ÙˆØ³,ç™½ä¿E½—æ–¯,"Ğ‘ĞµĞ»Ğ°Ñ€ÑƒÑEE,the Republic of Belarus""",la RÃ©publique du BÃ©larus,la RepÃºblica de BelarÃºs,Ø¬ÙEEˆØ±ÙŠØ© Ø¨ÙŠÙE§Ø±ÙˆØ³,ç™½ä¿E½—æ–¯,"Ğ‘ĞµĞ»Ğ°Ñ€ÑƒÑEE,Europe""",Europe,Europa,,,,Developed countries or areas,Pays ou zones dÃ©veloppÃ©s,PaÃ­ses o Ã¡reas desarrollados,,,,Eastern Europe,Europe orientale,Europa oriental,,,,,
218,58,EC,ECU,Ecuador,Ã‰quateur,Ecuador,Ø¬ÙEEˆØ±ÙŠØ© Ø¥ÙEˆØ§Ø¯ÙˆØ±,åE“œå¤šå°”åEå’Œå›½,Ğ­ĞºĞ²Ğ°Ğ´Ğ¾Ñ€,the Republic of Ecuador,la RÃ©publique de l'Ã‰quateur,la RepÃºblica del Ecuador,Ø¬ÙEEˆØ±ÙŠØ© Ø¥ÙEˆØ§Ø¯ÙˆØ±,åE“œå¤šå°”åEå’Œå›½,Ğ­ĞºĞ²Ğ°Ğ´Ğ¾Ñ€,Americas,AmÃ©riques,AmÃ©ricas,,,,Other developing countries or areas,Autres pays ou zones en dÃ©veloppement,Otros paÃ­ses o Ã¡reas en desarrollo,,,,South America,AmÃ©rique du Sud,AmÃ©rica del Sur,,,
818,59,EG,EGY,Egypt,Ã‰gypte,Egipto,ÙEµØ±,"åŸEåE,Ğ•Ğ³Ğ¸Ğ¿ĞµÑE",the Arab Republic of Egypt,la RÃ©publique arabe d'Ã‰gypte,la RepÃºblica Ãrabe de Egipto,ÙEµØ±,"åŸEåE,Ğ•Ğ³Ğ¸Ğ¿ĞµÑE",Africa,Afrique,Ãfrica,,,,Other developing countries or areas,Autres pays ou zones en dÃ©veloppement,Otros paÃ­ses o Ã¡reas en desarrollo,,,,Northern Africa,Afrique septentrionale,Ãfrica septentrional,,,,,
222,60,SV,SLV,El Salvador,El Salvador,El Salvador,Ø§ÙE³ÙEE§Ø¯ÙˆØ±,"è¨å°”ç“¦å¤E,Ğ¡Ğ°Ğ»ÑŒĞ²Ğ°Ğ´Ğ¾Ñ€""",the Republic of El Salvador,la RÃ©publique d'El Salvador,la RepÃºblica de El Salvador,Ø§ÙE³ÙEE§Ø¯ÙˆØ±,"è¨å°”ç“¦å¤E,Ğ¡Ğ°Ğ»ÑŒĞ²Ğ°Ğ´Ğ¾Ñ€""",Americas,AmÃ©riques,AmÃ©ricas,,,,Other developing countries or areas,Autres pays ou zones en dÃ©veloppement,Otros paÃ­ses o Ã¡reas en desarrollo,,,,Central America,AmÃ©rique centrale,AmÃ©rica central,,,,,
226,61,GQ,GNQ,Equatorial Guinea,GuinÃ©e Ã©quatoriale,Guinea Ecuatorial,ØºÙŠÙEŠØ§ Ø§ÙE§Ø³ØªÙˆØ§Ø¦ÙŠØ©,"èµ¤é“åEå†EºE,Ğ­ĞºĞ²Ğ°Ñ‚Ğ¾Ñ€Ğ¸Ğ°Ğ»ÑŒĞ½Ğ°ÑEĞ“Ğ²Ğ¸Ğ½ĞµÑE",the Republic of Equatorial Guinea,la RÃ©publique de GuinÃ©e Ã©quatoriale,la RepÃºblica de Guinea Ecuatorial,ØºÙŠÙEŠØ§ Ø§ÙE§Ø³ØªÙˆØ§Ø¦ÙŠØ©,"èµ¤é“åEå†EºE,Ğ­ĞºĞ²Ğ°Ñ‚Ğ¾Ñ€Ğ¸Ğ°Ğ»ÑŒĞ½Ğ°ÑEĞ“Ğ²Ğ¸Ğ½ĞµÑE",Africa,Afrique,Ãfrica,,,,Other developing countries or areas,Autres pays ou zones en dÃ©veloppement,Otros paÃ­ses o Ã¡reas en desarrollo,,,,Middle Africa,Afrique centrale,Ãfrica central,,,,,
230,62,,,Ethiopia PDR,Ã‰thiopie RDP,EtiopÃ­a RDP,,,,,,,,,,Africa,Afrique,Ãfrica,,,,Least Developed Countries,Pays les moins avancÃ©s,PaÃ­ses menos adelantados,,,,Eastern Africa,Afrique orientale,Ãfrica oriental,,,
233,63,EE,EST,Estonia,Estonie,Estonia,Ø¬ÙEEˆØ±ÙŠØ© Ø¥Ø³ØªÙˆÙEŠØ§,"çˆ±æ²™å°¼äºE,Ğ­ÑE‚Ğ¾Ğ½ÑEºĞ°ÑEĞ ĞµÑE¿ÑƒĞ±Ğ»Ğ¸ĞºĞ°""",the Republic of Estonia,la RÃ©publique d'Estonie,la RepÃºblica de Estonia,Ø¬ÙEEˆØ±ÙŠØ© Ø¥Ø³ØªÙˆÙEŠØ§,"çˆ±æ²™å°¼äºE,Ğ­ÑE‚Ğ¾Ğ½ÑEºĞ°ÑEĞ ĞµÑE¿ÑƒĞ±Ğ»Ğ¸ĞºĞ°""",Europe,Europe,Europa,,,,Developed countries or areas,Pays ou zones dÃ©veloppÃ©s,PaÃ­ses o Ã¡reas desarrollados,,,,Northern Europe,Europe septentrionale,Europa del Norte,,,,,
234,64,FO,FRO,Faroe Islands,Ãles FÃ©roÃ©,Islas Feroe,Ø¬Ø²Ø± ÙEŠØ±ÙˆÙŠÙEAssociate Member),"æ³•ç½—ç¾¤å²E,Ğ¤Ğ°Ñ€ĞµÑ€ÑEºĞ¸Ğµ ĞÑE‚Ñ€Ğ¾Ğ²Ğ°""",Faroe Islands,les Ãles FÃ©roÃ©,las Islas Feroe,Ø¬Ø²Ø± ÙEŠØ±ÙˆÙŠÙEAssociate Member),"æ³•ç½—ç¾¤å²E,Ğ¤Ğ°Ñ€ĞµÑ€ÑEºĞ¸Ğµ ĞÑE‚Ñ€Ğ¾Ğ²Ğ°""",Europe,Europe,Europa,,,,Developed countries or areas,Pays ou zones dÃ©veloppÃ©s,PaÃ­ses o Ã¡reas desarrollados,,,,Northern Europe,Europe septentrionale,Europa del Norte,,,,,
238,65,FK,FLK,Falkland Is.(Malvinas),Ãles Falkland(Malvinas),Islas Malvinas(Falkland),ÙE§ÙEEŠÙE§Ø³ - ÙEˆÙEE§ÙE¯ Ø¬Ø²Ø±,"ç¦åEå…°ç¾¤å²›ï¼ˆé©¬å°”ç»´çº³æ–¯EE,Ğ¤Ğ¾Ğ»ĞºĞ»ĞµĞ½Ğ´ÑEºĞ¸Ğµ (ĞœĞ°Ğ»ÑŒĞ²Ğ¸Ğ½ÑEºĞ¸Ğµ) Ğ¾ÑE‚Ñ€Ğ¾Ğ²Ğ°""",the Falkland Islands (Malvinas),les Ãles Falkland (Malvinas),las Islas Malvinas (Falkland Islands),ÙE§ÙEEŠÙE§Ø³ - ÙEˆÙEE§ÙE¯ Ø¬Ø²Ø±,"ç¦åEå…°ç¾¤å²›ï¼ˆé©¬å°”ç»´çº³æ–¯EE,Ğ¤Ğ¾Ğ»ĞºĞ»ĞµĞ½Ğ´ÑEºĞ¸Ğµ (ĞœĞ°Ğ»ÑŒĞ²Ğ¸Ğ½ÑEºĞ¸Ğµ) Ğ¾ÑE‚Ñ€Ğ¾Ğ²Ğ°""",Americas,AmÃ©riques,AmÃ©ricas,,,,Other developing countries or areas,Autres pays ou zones en dÃ©veloppement,Otros paÃ­ses o Ã¡reas en desarrollo,,,,South America,AmÃ©rique du Sud,AmÃ©rica del Sur,,,,,
242,66,FJ,FJI,Fiji,Fidji,Fiji,"ÙEŠØ¬ÙE,æ–æµE",Ğ¤Ğ¸Ğ´Ğ¶Ğ¸,the Republic of Fiji,la RÃ©publique des Fidji,la RepÃºblica de Fiji,"Ø¬ÙEEˆØ±ÙŠÙ‘Ø© ÙEŠØ¬ÙE,æ–æµåEå’Œå›½""",Ğ ĞµÑE¿ÑƒĞ±Ğ»Ğ¸ĞºĞ° Ğ¤Ğ¸Ğ´Ğ¶Ğ¸,Oceania,OcÃ©anie,OceanÃ­a,,,,Other developing countries or areas,Autres pays ou zones en dÃ©veloppement,Otros paÃ­ses o Ã¡reas en desarrollo,,,,Melanesia,MÃ©lanÃ©sie,Melanesia,,,,,
246,67,FI,FIN,Finland,Finlande,Finlandia,ÙEEEE¯Ø§,èŠ¬ å…°,"Ğ¤Ğ¸Ğ½Ğ»ÑĞ½Ğ´Ğ¸ÑE,the Republic of Finland""",la RÃ©publique de Finlande,la RepÃºblica de Finlandia,ÙEEEE¯Ø§,èŠ¬ å…°,"Ğ¤Ğ¸Ğ½Ğ»ÑĞ½Ğ´Ğ¸ÑE,Europe""",Europe,Europa,,,,Developed countries or areas,Pays ou zones dÃ©veloppÃ©s,PaÃ­ses o Ã¡reas desarrollados,,,,Northern Europe,Europe septentrionale,Europa del Norte,,,,,
250,68,FR,FRA,France,France,Francia,ÙE±ÙE³Ø§,æ³E å›½,"Ğ¤Ñ€Ğ°Ğ½ÑE¸ÑE,the French Republic""",la RÃ©publique franÃ§aise,la RepÃºblica Francesa,ÙE±ÙE³Ø§,æ³E å›½,"Ğ¤Ñ€Ğ°Ğ½ÑE¸ÑE,Europe""",Europe,Europa,,,,Developed countries or areas,Pays ou zones dÃ©veloppÃ©s,PaÃ­ses o Ã¡reas desarrollados,,,,Western Europe,Europe occidentale,Europa occidental,,,,,
254,69,GF,GUF,French Guiana,Guyane franÃ§aise,Guayana Francesa,ÙEEØºÙŠØ§ÙE§ Ø§ÙEE±ÙE³ÙŠØ©,"æ³•å±åœ­äºšé‚£äºº/æ³•å±åœ­äºšé‚£çšE,Ğ³Ğ²Ğ¸Ğ°Ğ½ÑEºĞ¸Ğ¹""",French Guiana,Guyane franÃ§aise,Guayana francesa,ÙEEØºÙŠØ§ÙE§ Ø§ÙEE±ÙE³ÙŠØ©,"æ³•å±åœ­äºšé‚£äºº/æ³•å±åœ­äºšé‚£çšE,Ğ³Ğ²Ğ¸Ğ°Ğ½ÑEºĞ¸Ğ¹""",Americas,AmÃ©riques,AmÃ©ricas,,,,Other developing countries or areas,Autres pays ou zones en dÃ©veloppement,Otros paÃ­ses o Ã¡reas en desarrollo,,,,South America,AmÃ©rique du Sud,AmÃ©rica del Sur,,,,,
258,70,PF,PYF,French Polynesia,PolynÃ©sie franÃ§aise,Polinesia Francesa,ÙEEØ¨ÙˆÙEŠÙEŠØ²ÙŠØ§ Ø§ÙEE±ÙE³ÙŠØ©,æ³¢åˆ©å°¼è¥¿äºšäºº/æ³¢åˆ©å°¼è¥¿äºšçš„,"Ğ¿Ğ¾Ğ»Ğ¸Ğ½ĞµĞ·Ğ¸ĞµÑE,French Polynesia""",la PolynÃ©sie franÃ§aise,Polinesia Francesa,ÙEEØ¨ÙˆÙEŠÙEŠØ²ÙŠØ§ Ø§ÙEE±ÙE³ÙŠØ©,æ³¢åˆ©å°¼è¥¿äºšäºº/æ³¢åˆ©å°¼è¥¿äºšçš„,"Ğ¿Ğ¾Ğ»Ğ¸Ğ½ĞµĞ·Ğ¸ĞµÑE,Oceania""",OcÃ©anie,OceanÃ­a,,,,Other developing countries or areas,Autres pays ou zones en dÃ©veloppement,Otros paÃ­ses o Ã¡reas en desarrollo,,,,Polynesia,PolynÃ©sie,Polinesia,,,,,
260,71,TF,ATF,French Southern Terr,Terres australes fr.,Tierras Australes Fr.,"Ø£ÙEªØ§Ø±ØªÙŠÙE§ ÙEEÙˆØ§ÙEˆØ§Ù‚Ø¹Ø© Ø§ÙE¬ÙEˆØ¨ÙŠØ© Ø§ÙEE±ÙE³ÙŠØ© Ø§ÙE£Ù‚Ø§ÙEŠÙE,æ³•å±å—åŠçƒå’Œå—æE¢Eœ°""",Ğ¤Ñ€Ğ°Ğ½ÑEƒĞ·ÑEºĞ¸Ğµ ÑĞ¶Ğ½Ñ‹Ğµ Ğ¸ Ğ°Ğ½Ñ‚Ğ°Ñ€ĞºÑ‚Ğ¸ÑEµÑEºĞ¸Ğµ Ñ‚ĞµÑ€Ñ€Ğ¸Ñ‚Ğ¾Ñ€Ğ¸Ğ¸,French Southern and Antarctic Territories,les Terres australes et antarctiques franÃ§aises,las Tierras Australes y AntÃ¡rticas Francesas,"Ø£ÙEªØ§Ø±ØªÙŠÙE§ ÙEEÙˆØ§ÙEˆØ§Ù‚Ø¹Ø© Ø§ÙE¬ÙEˆØ¨ÙŠØ© Ø§ÙEE±ÙE³ÙŠØ© Ø§ÙE£Ù‚Ø§ÙEŠÙE,æ³•å±å—åŠçƒå’Œå—æE¢Eœ°""",Ğ¤Ñ€Ğ°Ğ½ÑEƒĞ·ÑEºĞ¸Ğµ ÑĞ¶Ğ½Ñ‹Ğµ Ğ¸ Ğ°Ğ½Ñ‚Ğ°Ñ€ĞºÑ‚Ğ¸ÑEµÑEºĞ¸Ğµ Ñ‚ĞµÑ€Ñ€Ğ¸Ñ‚Ğ¾Ñ€Ğ¸Ğ¸,Africa,Afrique,Ãfrica,,,,Other developing countries or areas,Autres pays ou zones en dÃ©veloppement,Otros paÃ­ses o Ã¡reas en desarrollo,,,,Eastern Africa,Afrique orientale,Ãfrica oriental,,,,,
262,72,DJ,DJI,Djibouti,Djibouti,Djibouti,"Ø¬ÙŠØ¨ÙˆØªÙE,å‰å¸E""",Ğ”Ğ¶Ğ¸Ğ±ÑƒÑ‚Ğ¸,the Republic of Djibouti,la RÃ©publique de Djibouti,la RepÃºblica de Djibouti,"Ø¬ÙŠØ¨ÙˆØªÙE,å‰å¸E""",Ğ”Ğ¶Ğ¸Ğ±ÑƒÑ‚Ğ¸,Africa,Afrique,Ãfrica,,,,Least Developed Countries,Pays les moins avancÃ©s,PaÃ­ses menos adelantados,,,,Eastern Africa,Afrique orientale,Ãfrica oriental,,,,,
268,73,GE,GEO,Georgia,GÃ©orgie,Georgia,Ø¬ÙˆØ±Ø¬ÙŠØ§,"æ ¼é²å‰äºE,Ğ“Ñ€ÑƒĞ·Ğ¸ÑE",Georgia,la GÃ©orgie,Georgia,Ø¬ÙˆØ±Ø¬ÙŠØ§,"æ ¼é²å‰äºE,Ğ“Ñ€ÑƒĞ·Ğ¸ÑE",Asia,Asie,Asia,,,,Other developing countries or areas,Autres pays ou zones en dÃ©veloppement,Otros paÃ­ses o Ã¡reas en desarrollo,,,,Western Asia,Asie occidentale,Asia occidental,,,,,
266,74,GA,GAB,Gabon,Gabon,GabÃ³n,Ø§ÙE¬ÙEEˆØ±ÙŠØ© Ø§ÙEºØ§Ø¨ÙˆÙEŠØ©,åŠ  è“¬,Ğ“Ğ°Ğ±Ğ¾Ğ½,the Gabonese Republic,la RÃ©publique gabonaise,la RepÃºblica Gabonesa,Ø§ÙE¬ÙEEˆØ±ÙŠØ© Ø§ÙEºØ§Ø¨ÙˆÙEŠØ©,åŠ  è“¬,Ğ“Ğ°Ğ±Ğ¾Ğ½,Africa,Afrique,Ãfrica,,,,Other developing countries or areas,Autres pays ou zones en dÃ©veloppement,Otros paÃ­ses o Ã¡reas en desarrollo,,,,Middle Africa,Afrique centrale,Ãfrica central,,,
270,75,GM,GMB,Gambia,Gambia,Gambia,ØºØ§ÙE¨ÙŠØ§,"å†ˆæ¯”äºE,Ğ“Ğ°Ğ¼Ğ±Ğ¸ÑE",the Republic of the Gambia,la RÃ©publique de Gambie,la RepÃºblica de Gambia,ØºØ§ÙE¨ÙŠØ§ Ø¬ÙEEˆØ±ÙŠÙ‘Ø©,å†ˆæ¯”äºšåEå’Œå›½,"Ğ ĞµÑE¿ÑƒĞ±Ğ»Ğ¸ĞºĞ° Ğ“Ğ°Ğ¼Ğ±Ğ¸ÑE,Africa""",Afrique,Ãfrica,,,,Least Developed Countries,Pays les moins avancÃ©s,PaÃ­ses menos adelantados,,,,Western Africa,Afrique occidentale,Ãfrica occidental,,,,,
274,76,,,Gaza Strip(Palestine),Bande de Gaza(Palestine),Faja de Gaza(Palestina),,,,,,,,,,,,,,,,Other developing countries or areas,Autres pays ou zones en dÃ©veloppement,Otros paÃ­ses o Ã¡reas en desarrollo,,,,,,,,,
278,77,,,"Germany,New LÃ¤nder","Allemagne,NouveauxLÃ¤nder","Alemania,Nuevos LÃ¤nder",,,,,,,,,,Europe,Europe,Europa,,,,Developed countries or areas,Pays ou zones dÃ©veloppÃ©s,PaÃ­ses o Ã¡reas desarrollados,,,,Western Europe,Europe occidentale,Europa occidental,,,
280,78,,,"Germany, Fed. Rep. of","Allemagne, RÃ©p. fÃ©d. d'","Alemania, Rep. Fed. de",,,,,,,,,,Europe,Europe,Europa,,,,Developed countries or areas,Pays ou zones dÃ©veloppÃ©s,PaÃ­ses o Ã¡reas desarrollados,,,,Western Europe,Europe occidentale,Europa occidental,,,
276,79,DE,DEU,Germany,Allemagne,Alemania,Ø£ÙEE§ÙEŠØ§,å¾·æ„å¿—è”é‚¦å…±å’Œå›½,"Ğ“ĞµÑ€Ğ¼Ğ°Ğ½Ğ¸ÑE,the Federal Republic of Germany""",la RÃ©publique fÃ©dÃ©rale d'Allemagne,la RepÃºblica Federal de Alemania,Ø£ÙEE§ÙEŠØ§,å¾·æ„å¿—è”é‚¦å…±å’Œå›½,"Ğ“ĞµÑ€Ğ¼Ğ°Ğ½Ğ¸ÑE,Europe""",Europe,Europa,,,,Developed countries or areas,Pays ou zones dÃ©veloppÃ©s,PaÃ­ses o Ã¡reas desarrollados,,,,Western Europe,Europe occidentale,Europa occidental,,,,,
70,80,BA,BIH,Bosnia and Herzegovina,Bosnie-HerzÃ©govine,Bosnia y Herzegovina,"Ø§ÙE¨ÙˆØ³ÙE© ÙˆØ§ÙEE±Ø³ÙE,æ³¢æ–¯å°¼äºšï¼é»‘å¡å“¥ç»´é‚£""",Ğ‘Ğ¾ÑE½Ğ¸ÑEĞ¸ Ğ“ĞµÑ€ÑEµĞ³Ğ¾Ğ²Ğ¸Ğ½Ğ°,Bosnia and Herzegovina,la Bosnie-HerzÃ©govine,Bosnia y Herzegovina,"Ø§ÙE¨ÙˆØ³ÙE© ÙˆØ§ÙEE±Ø³ÙE,æ³¢æ–¯å°¼äºšï¼é»‘å¡å“¥ç»´é‚£""",Ğ‘Ğ¾ÑE½Ğ¸ÑEĞ¸ Ğ“ĞµÑ€ÑEµĞ³Ğ¾Ğ²Ğ¸Ğ½Ğ°,Europe,Europe,Europa,,,,Developed countries or areas,Pays ou zones dÃ©veloppÃ©s,PaÃ­ses o Ã¡reas desarrollados,,,,Southern Europe,Europe mÃ©ridionale,Europa meridional,,,,,
288,81,GH,GHA,Ghana,Ghana,Ghana,Ø¬ÙEEˆØ±ÙŠØ© ØºØ§ÙE§,åŠ  çº³,Ğ“Ğ°Ğ½Ğ°,the Republic of Ghana,la RÃ©publique du Ghana,la RepÃºblica de Ghana,Ø¬ÙEEˆØ±ÙŠØ© ØºØ§ÙE§,åŠ  çº³,Ğ“Ğ°Ğ½Ğ°,Africa,Afrique,Ãfrica,,,,Other developing countries or areas,Autres pays ou zones en dÃ©veloppement,Otros paÃ­ses o Ã¡reas en desarrollo,,,,Western Africa,Afrique occidentale,Ãfrica occidental,,,
292,82,GI,GIB,Gibraltar,Gibraltar,Gibraltar,"ÙEEØ¬Ø¨ÙEØ·Ø§Ø±ÙE,ç›´å¸E½—é™€äºº/ç›´å¸E½—é™€çšE",Ğ³Ğ¸Ğ±Ñ€Ğ°Ğ»Ñ‚Ğ°Ñ€ÑEºĞ¸Ğ¹,Gibraltar,Gibraltar,Gibraltar,"ÙEEØ¬Ø¨ÙEØ·Ø§Ø±ÙE,ç›´å¸E½—é™€äºº/ç›´å¸E½—é™€çšE",Ğ³Ğ¸Ğ±Ñ€Ğ°Ğ»Ñ‚Ğ°Ñ€ÑEºĞ¸Ğ¹,Europe,Europe,Europa,,,,Developed countries or areas,Pays ou zones dÃ©veloppÃ©s,PaÃ­ses o Ã¡reas desarrollados,,,,Southern Europe,Europe mÃ©ridionale,Europa meridional,,,,,
296,83,KI,KIR,Kiribati,Kiribati,Kiribati,ÙEŠØ±ÙŠØ¨Ø§Ø³,åŸºé‡Œå·´æ–¯,ĞšĞ¸Ñ€Ğ¸Ğ±Ğ°Ñ‚Ğ¸,the Republic of Kiribati,la RÃ©publique de Kiribati,la RepÃºblica de Kiribati,ÙEŠØ±ÙŠØ¨Ø§Ø³,åŸºé‡Œå·´æ–¯,ĞšĞ¸Ñ€Ğ¸Ğ±Ğ°Ñ‚Ğ¸,Oceania,OcÃ©anie,OceanÃ­a,,,,Least Developed Countries,Pays les moins avancÃ©s,PaÃ­ses menos adelantados,,,,Micronesia,MicronÃ©sie,Micronesia,,,
300,84,GR,GRC,Greece,GrÃ¨ce,Grecia,"Ø§ÙEŠÙˆÙE§ÙE,å¸Eè…E","Ğ“Ñ€ĞµÑE¸ÑE,the Hellenic Republic""",la RÃ©publique hellÃ©nique,la RepÃºblica HelÃ©nica,"Ø§ÙEŠÙˆÙE§ÙE,å¸Eè…E","Ğ“Ñ€ĞµÑE¸ÑE,Europe""",Europe,Europa,,,,Developed countries or areas,Pays ou zones dÃ©veloppÃ©s,PaÃ­ses o Ã¡reas desarrollados,,,,Southern Europe,Europe mÃ©ridionale,Europa meridional,,,,,,,
304,85,GL,GRL,Greenland,Groenland,Groenlandia,ØºØ±ÙŠÙEE§ÙE¯,æ ¼é™µå…°,"Ğ“Ñ€ĞµĞ½Ğ»Ğ°Ğ½Ğ´Ğ¸ÑE,Greenland""",Groenland,Groenlandia,ØºØ±ÙŠÙEE§ÙE¯,æ ¼é™µå…°,"Ğ“Ñ€ĞµĞ½Ğ»Ğ°Ğ½Ğ´Ğ¸ÑE,Americas""",AmÃ©riques,AmÃ©ricas,,,,Developed countries or areas,Pays ou zones dÃ©veloppÃ©s,PaÃ­ses o Ã¡reas desarrollados,,,,Northern America,AmÃ©rique du Nord,AmÃ©rica del Norte,,,,,
308,86,GD,GRD,Grenada,Grenade,Granada,ØºØ±ÙŠÙE§Ø¯Ø§,æ ¼æ—çº³è¾¾,Ğ“Ñ€ĞµĞ½Ğ°Ğ´Ğ°,Grenada,la Grenade,Granada,ØºØ±ÙŠÙE§Ø¯Ø§,æ ¼æ—çº³è¾¾,Ğ“Ñ€ĞµĞ½Ğ°Ğ´Ğ°,Americas,AmÃ©riques,AmÃ©ricas,,,,Other developing countries or areas,Autres pays ou zones en dÃ©veloppement,Otros paÃ­ses o Ã¡reas en desarrollo,,,,Caribbean,CaraÃ¯bes,Caribe,,,
312,87,GP,GLP,Guadeloupe,Guadeloupe,Guadalupe,ØºÙˆØ§Ø¯ÙŠØ§ÙEˆØ¨,ç“œå¾·ç½—æ™®,Ğ“Ğ²Ğ°Ğ´ĞµĞ»ÑƒĞ¿Ğ°,Guadeloupe,la Guadeloupe,Guadalupe,ØºÙˆØ§Ø¯ÙŠØ§ÙEˆØ¨,ç“œå¾·ç½—æ™®,Ğ“Ğ²Ğ°Ğ´ĞµĞ»ÑƒĞ¿Ğ°,Americas,AmÃ©riques,AmÃ©ricas,,,,Other developing countries or areas,Autres pays ou zones en dÃ©veloppement,Otros paÃ­ses o Ã¡reas en desarrollo,,,,Caribbean,CaraÃ¯bes,Caribe,,,
316,88,GU,GUM,Guam,Guam,Guam,"ØºÙˆØ§ÙE,å…³å²E",Ğ“ÑƒĞ°Ğ¼,Guam,Guam,Guam,"ØºÙˆØ§ÙE,å…³å²E",Ğ“ÑƒĞ°Ğ¼,Oceania,OcÃ©anie,OceanÃ­a,,,,Other developing countries or areas,Autres pays ou zones en dÃ©veloppement,Otros paÃ­ses o Ã¡reas en desarrollo,,,,Micronesia,MicronÃ©sie,Micronesia,,,,,
320,89,GT,GTM,Guatemala,Guatemala,Guatemala,ØºÙˆØ§ØªÙŠÙE§ÙE§,å±åœ°é©¬æ‹‰åEå’Œå›½,Ğ“Ğ²Ğ°Ñ‚ĞµĞ¼Ğ°Ğ»Ğ°,the Republic of Guatemala,la RÃ©publique du Guatemala,la RepÃºblica de Guatemala,ØºÙˆØ§ØªÙŠÙE§ÙE§,å±åœ°é©¬æ‹‰åEå’Œå›½,Ğ“Ğ²Ğ°Ñ‚ĞµĞ¼Ğ°Ğ»Ğ°,Americas,AmÃ©riques,AmÃ©ricas,,,,Other developing countries or areas,Autres pays ou zones en dÃ©veloppement,Otros paÃ­ses o Ã¡reas en desarrollo,,,,Central America,AmÃ©rique centrale,AmÃ©rica central,,,
324,90,GN,GIN,Guinea,GuinÃ©e,Guinea,ØºÙŠÙEŠØ§,å‡ å†EºšåEå’Œå›½,Ğ“Ğ²Ğ¸Ğ½ĞµĞ¹ÑEºĞ°ÑEĞ ĞµÑE¿ÑƒĞ±Ğ»Ğ¸ĞºĞ°,the Republic of Guinea,la RÃ©publique de GuinÃ©e,la RepÃºblica de Guinea,ØºÙŠÙEŠØ§,å‡ å†EºšåEå’Œå›½,Ğ“Ğ²Ğ¸Ğ½ĞµĞ¹ÑEºĞ°ÑEĞ ĞµÑE¿ÑƒĞ±Ğ»Ğ¸ĞºĞ°,Africa,Afrique,Ãfrica,,,,Least Developed Countries,Pays les moins avancÃ©s,PaÃ­ses menos adelantados,,,,Western Africa,Afrique occidentale,Ãfrica occidental,,,
328,91,GY,GUY,Guyana,Guyana,Guyana,ØºÙŠØ§ÙE§,åœ­äºšé‚£,Ğ“Ğ°Ğ¹Ğ°Ğ½Ğ°,the Co-operative Republic of Guyana,la RÃ©publique coopÃ©rative du Guyana,la RepÃºblica Cooperativa de Guyana,Ø§ÙEªØ¹Ø§ÙˆÙEŠÙ‘Ø© ØºÙŠØ§ÙE§ Ø¬ÙEEˆØ±ÙŠÙ‘Ø©,åœ­äºšé‚£åˆä½œåEå’Œå›½,ĞšĞ¾Ğ¾Ğ¿ĞµÑ€Ğ°Ñ‚Ğ¸Ğ²Ğ½Ğ°ÑEĞ ĞµÑE¿ÑƒĞ±Ğ»Ğ¸ĞºĞ° Ğ“Ğ°Ğ¹Ğ°Ğ½Ğ°,Americas,AmÃ©riques,AmÃ©ricas,,,,Other developing countries or areas,Autres pays ou zones en dÃ©veloppement,Otros paÃ­ses o Ã¡reas en desarrollo,,,,South America,AmÃ©rique du Sud,AmÃ©rica del Sur,,,
334,92,HM,HMD,Heard and McDonald Is.,Ãles Heard et McDonald,Islas Heard y McDonald,ÙE§ÙE¯ÙˆÙE§ÙE¯ ÙˆØ¬Ø²ÙŠØ±Ø© ÙEŠØ±Ø¯ Ø¬Ø²ÙŠØ±Ø©,"èµ«å¾·å’Œéº¦å…‹å”çº³ç¾¤å²›ï¼›èµ«å¾·å²›å’Œéº¦å…‹å”çº³å²E,Ğ¾ÑE‚Ñ€Ğ¾Ğ²Ğ° Ğ¥ĞµÑ€Ğ´ Ğ¸ ĞœĞ°ĞºĞ´Ğ¾Ğ½Ğ°Ğ»ÑŒĞ´""",Heard Island and McDonald Island,Ãles Heard et McDonald,Islas Heard y McDonald,ÙE§ÙE¯ÙˆÙE§ÙE¯ ÙˆØ¬Ø²ÙŠØ±Ø© ÙEŠØ±Ø¯ Ø¬Ø²ÙŠØ±Ø©,"èµ«å¾·å’Œéº¦å…‹å”çº³ç¾¤å²›ï¼›èµ«å¾·å²›å’Œéº¦å…‹å”çº³å²E,Ğ¾ÑE‚Ñ€Ğ¾Ğ²Ğ° Ğ¥ĞµÑ€Ğ´ Ğ¸ ĞœĞ°ĞºĞ´Ğ¾Ğ½Ğ°Ğ»ÑŒĞ´""",Oceania,OcÃ©anie,OceanÃ­a,,,,Developed countries or areas,Pays ou zones dÃ©veloppÃ©s,PaÃ­ses o Ã¡reas desarrollados,,,,Australia and New Zealand,Australie et Nouvelle-ZÃ©lande,Australia y Nueva Zelandia,,,,,
332,93,HT,HTI,Haiti,HaÃ¯ti,HaitÃ­,"ÙE§ÙŠØªÙE,æµ·åœ°å…±å’Œå›½""",Ğ“Ğ°Ğ¸Ñ‚Ğ¸,the Republic of Haiti,la RÃ©publique d'HaÃ¯ti,la RepÃºblica de HaitÃ­,"ÙE§ÙŠØªÙE,æµ·åœ°å…±å’Œå›½""",Ğ“Ğ°Ğ¸Ñ‚Ğ¸,Americas,AmÃ©riques,AmÃ©ricas,,,,Least Developed Countries,Pays les moins avancÃ©s,PaÃ­ses menos adelantados,,,,Caribbean,CaraÃ¯bes,Caribe,,,,,
336,94,VA,VAT,Holy See,Saint-SiÃ¨ge,Santa Sede,,,,Holy See,le Saint-SiÃ¨ge,la Santa Sede,,,,Europe,Europe,Europa,,,,Developed countries or areas,Pays ou zones dÃ©veloppÃ©s,PaÃ­ses o Ã¡reas desarrollados,,,,Southern Europe,Europe mÃ©ridionale,Europa meridional,,,
340,95,HN,HND,Honduras,Honduras,Honduras,ÙEE¯ÙˆØ±Ø§Ø³,æ´ªéƒ½æ‹‰æ–¯å…±å’Œå›½,"Ğ“Ğ¾Ğ½Ğ´ÑƒÑ€Ğ°ÑE,the Republic of Honduras""",la RÃ©publique du Honduras,la RepÃºblica de Honduras,ÙEE¯ÙˆØ±Ø§Ø³,æ´ªéƒ½æ‹‰æ–¯å…±å’Œå›½,"Ğ“Ğ¾Ğ½Ğ´ÑƒÑ€Ğ°ÑE,Americas""",AmÃ©riques,AmÃ©ricas,,,,Other developing countries or areas,Autres pays ou zones en dÃ©veloppement,Otros paÃ­ses o Ã¡reas en desarrollo,,,,Central America,AmÃ©rique centrale,AmÃ©rica central,,,,,
344,96,HK,HKG,"China, Hong Kong SAR","Chine, RAS de Hong-Kong","China, RAE de Hong Kong",Ø®Ø§ØµØ© Ø¥Ø¯Ø§Ø±ÙŠØ© ÙEE·Ù‚Ø© ÙEˆÙEº ÙEˆÙEº Ø§ÙEµÙŠÙE,ä¸­å›½é¦™æ¸¯ç‰¹åŒº,"ĞšĞ¸Ñ‚Ğ°Ğ¹, Ğ¡Ğ¿ĞµÑE¸Ğ°Ğ»ÑŒĞ½Ñ‹Ğ¹ Ğ°Ğ´Ğ¼Ğ¸Ğ½Ğ¸ÑE‚Ñ€Ğ°Ñ‚Ğ¸Ğ²Ğ½Ñ‹Ğ¹ Ñ€Ğ°Ğ¹Ğ¾Ğ½ Ğ“Ğ¾Ğ½ĞºĞ¾Ğ½Ğ³","China, Hong Kong Special Administrative Region",Chine - RÃ©gion administrative spÃ©ciale de Hong-Kong,"China, RegiÃ³n Administrativa Especial de Hong Kong",Ø®Ø§ØµØ© Ø¥Ø¯Ø§Ø±ÙŠØ© ÙEE·Ù‚Ø© ÙEˆÙEº ÙEˆÙEº Ø§ÙEµÙŠÙE,ä¸­å›½é¦™æ¸¯ç‰¹åˆ«è¡Œæ”¿åŒº,"ĞšĞ¸Ñ‚Ğ°Ğ¹, Ğ¡Ğ¿ĞµÑE¸Ğ°Ğ»ÑŒĞ½Ñ‹Ğ¹ Ğ°Ğ´Ğ¼Ğ¸Ğ½Ğ¸ÑE‚Ñ€Ğ°Ñ‚Ğ¸Ğ²Ğ½Ñ‹Ğ¹ Ñ€Ğ°Ğ¹Ğ¾Ğ½ Ğ“Ğ¾Ğ½ĞºĞ¾Ğ½Ğ³",Asia,Asie,Asia,,,,Other developing countries or areas,Autres pays ou zones en dÃ©veloppement,Otros paÃ­ses o Ã¡reas en desarrollo,,,,Eastern Asia,Asie orientale,Asia oriental,,,
348,97,HU,HUN,Hungary,Hongrie,HungrÃ­a,ÙEEºØ§Ø±ÙŠØ§,åŒˆç‰™åˆ©,"Ğ’ĞµĞ½Ğ³Ñ€Ğ¸ÑE,Hungary""",la Hongrie,HungrÃ­a,ÙEEºØ§Ø±ÙŠØ§,åŒˆç‰™åˆ©,"Ğ’ĞµĞ½Ğ³Ñ€Ğ¸ÑE,Europe""",Europe,Europa,,,,Developed countries or areas,Pays ou zones dÃ©veloppÃ©s,PaÃ­ses o Ã¡reas desarrollados,,,,Eastern Europe,Europe orientale,Europa oriental,,,,,
191,98,HR,HRV,Croatia,Croatie,Croacia,ÙE±ÙˆØ§ØªÙŠØ§,å…‹ç½—åœ°äºšåEå’Œå›½,"Ğ¥Ğ¾Ñ€Ğ²Ğ°Ñ‚Ğ¸ÑE,the Republic of Croatia""",la RÃ©publique de Croatie,la RepÃºblica de Croacia,ÙE±ÙˆØ§ØªÙŠØ§,å…‹ç½—åœ°äºšåEå’Œå›½,"Ğ¥Ğ¾Ñ€Ğ²Ğ°Ñ‚Ğ¸ÑE,Europe""",Europe,Europa,,,,Developed countries or areas,Pays ou zones dÃ©veloppÃ©s,PaÃ­ses o Ã¡reas desarrollados,,,,Southern Europe,Europe mÃ©ridionale,Europa meridional,,,,,
352,99,IS,ISL,Iceland,Islande,Islandia,Ø¬ÙEEˆØ±ÙŠØ© Ø¢ÙŠØ³ÙEE¯Ø§,"å†° å²E,Ğ˜ÑE»Ğ°Ğ½Ğ´Ğ¸ÑE",the Republic of Iceland,la RÃ©publique d'Islande,la RepÃºblica de Islandia,Ø¬ÙEEˆØ±ÙŠØ© Ø¢ÙŠØ³ÙEE¯Ø§,"å†° å²E,Ğ˜ÑE»Ğ°Ğ½Ğ´Ğ¸ÑE",Europe,Europe,Europa,,,,Developed countries or areas,Pays ou zones dÃ©veloppÃ©s,PaÃ­ses o Ã¡reas desarrollados,,,,Northern Europe,Europe septentrionale,Europa del Norte,,,,,
356,100,IN,IND,India,Inde,India,Ø¬ÙEEˆØ±ÙŠØ© Ø§ÙEEE¯,å° åº¦,"Ğ˜Ğ½Ğ´Ğ¸ÑE,the Republic of India""",la RÃ©publique de l'Inde,la RepÃºblica de la India,Ø¬ÙEEˆØ±ÙŠØ© Ø§ÙEEE¯,å° åº¦,"Ğ˜Ğ½Ğ´Ğ¸ÑE,Asia""",Asie,Asia,,,,Other developing countries or areas,Autres pays ou zones en dÃ©veloppement,Otros paÃ­ses o Ã¡reas en desarrollo,,,,Southern Asia,Asie mÃ©ridionale,Asia meridional,,,,,
360,101,ID,IDN,Indonesia,IndonÃ©sie,Indonesia,Ø¥ÙE¯ÙˆÙEŠØ³ÙŠØ§,"å°åº¦å°¼è¥¿äºE,Ğ˜Ğ½Ğ´Ğ¾Ğ½ĞµĞ·Ğ¸ÑE",the Republic of Indonesia,la RÃ©publique d'IndonÃ©sie,la RepÃºblica de Indonesia,Ø¥ÙE¯ÙˆÙEŠØ³ÙŠØ§,"å°åº¦å°¼è¥¿äºE,Ğ˜Ğ½Ğ´Ğ¾Ğ½ĞµĞ·Ğ¸ÑE",Asia,Asie,Asia,,,,Other developing countries or areas,Autres pays ou zones en dÃ©veloppement,Otros paÃ­ses o Ã¡reas en desarrollo,,,,South-Eastern Asia,Asie du Sud-Est,Asia sudoriental,,,,,
364,102,IR,IRN,Iran (Islamic Rep. of),Iran (RÃ©p. islamique d'),IrÃ¡n (Rep. IslÃ¡mica del),"Ø¥ÙŠØ±Ø§ÙE,ä¼Šæœ—ä¼Šæ–¯å…°å…±å’Œå›½""",Ğ˜Ñ€Ğ°Ğ½ (Ğ˜ÑE»Ğ°Ğ¼ÑEºĞ°ÑEĞ ĞµÑE¿ÑƒĞ±Ğ»Ğ¸ĞºĞ°),the Islamic Republic of Iran,la RÃ©publique islamique d'Iran,la RepÃºblica IslÃ¡mica del IrÃ¡n,"Ø¥ÙŠØ±Ø§ÙE,ä¼Šæœ—ä¼Šæ–¯å…°å…±å’Œå›½""",Ğ˜Ñ€Ğ°Ğ½ (Ğ˜ÑE»Ğ°Ğ¼ÑEºĞ°ÑEĞ ĞµÑE¿ÑƒĞ±Ğ»Ğ¸ĞºĞ°),Asia,Asie,Asia,,,,Other developing countries or areas,Autres pays ou zones en dÃ©veloppement,Otros paÃ­ses o Ã¡reas en desarrollo,,,,Southern Asia,Asie mÃ©ridionale,Asia meridional,,,,,
368,103,IQ,IRQ,Iraq,Iraq,Iraq,"Ø¬ÙEEˆØ±ÙŠØ© Ø§ÙE¹Ø±Ø§ÙE,ä¼Šæ‹‰å…E",Ğ˜Ñ€Ğ°Ğº,the Republic of Iraq,la RÃ©publique d'Iraq,la RepÃºblica del Iraq,"Ø¬ÙEEˆØ±ÙŠØ© Ø§ÙE¹Ø±Ø§ÙE,ä¼Šæ‹‰å…E",Ğ˜Ñ€Ğ°Ğº,Asia,Asie,Asia,,,,Other developing countries or areas,Autres pays ou zones en dÃ©veloppement,Otros paÃ­ses o Ã¡reas en desarrollo,,,,Western Asia,Asie occidentale,Asia occidental,,,,,
372,104,IE,IRL,Ireland,Irlande,Irlanda,Ø¢ÙŠØ±ÙEE¯Ø§,çˆ±å°”åE,"Ğ˜Ñ€Ğ»Ğ°Ğ½Ğ´Ğ¸ÑE,Ireland""",l'Irlande,Irlanda,Ø¢ÙŠØ±ÙEE¯Ø§,çˆ±å°”åE,"Ğ˜Ñ€Ğ»Ğ°Ğ½Ğ´Ğ¸ÑE,Europe""",Europe,Europa,,,,Developed countries or areas,Pays ou zones dÃ©veloppÃ©s,PaÃ­ses o Ã¡reas desarrollados,,,,Northern Europe,Europe septentrionale,Europa del Norte,,,,,
376,105,IL,ISR,Israel,IsraÃ«l,Israel,"Ø¯ÙˆÙE© Ø¥Ø³Ø±Ø§Ø¦ÙŠÙE,ä»¥è‰²åˆE","Ğ˜Ğ·Ñ€Ğ°Ğ¸Ğ»ÑE,the State of Israel""",l'Ã‰tat d'IsraÃ«l,el Estado de Israel,"Ø¯ÙˆÙE© Ø¥Ø³Ø±Ø§Ø¦ÙŠÙE,ä»¥è‰²åˆE","Ğ˜Ğ·Ñ€Ğ°Ğ¸Ğ»ÑE,Asia""",Asie,Asia,,,,Developed countries or areas,Pays ou zones dÃ©veloppÃ©s,PaÃ­ses o Ã¡reas desarrollados,,,,Western Asia,Asie occidentale,Asia occidental,,,,,,,
380,106,IT,ITA,Italy,Italie,Italia,Ø¥ÙŠØ·Ø§ÙEŠØ§,æ„å¤§åˆ©,"Ğ˜Ñ‚Ğ°Ğ»Ğ¸ÑE,the Republic of Italy""",la RÃ©publique italienne,la RepÃºblica Italiana,Ø¥ÙŠØ·Ø§ÙEŠØ§,æ„å¤§åˆ©,"Ğ˜Ñ‚Ğ°Ğ»Ğ¸ÑE,Europe""",Europe,Europa,,,,Developed countries or areas,Pays ou zones dÃ©veloppÃ©s,PaÃ­ses o Ã¡reas desarrollados,,,,Southern Europe,Europe mÃ©ridionale,Europa meridional,,,,,
384,107,CI,CIV,CÃ´te d'Ivoire,CÃ´te d'Ivoire,CÃ´te d'Ivoire,Ø¬ÙEEˆØ±ÙŠØ© ÙEˆØª Ø¯ÙŠÙEˆØ§Ø±,ç§‘ç‰¹è¿ªç“¦,Ğ ĞµÑE¿ÑƒĞ±Ğ»Ğ¸ĞºĞ° ĞšĞ¾ÑEĞ´'Ğ˜Ğ²ÑƒĞ°Ñ€,the Republic of CÃ´te d'Ivoire,la RÃ©publique de CÃ´te d'Ivoire,la RepÃºblica de CÃ´te d'Ivoire,Ø¬ÙEEˆØ±ÙŠØ© ÙEˆØª Ø¯ÙŠÙEˆØ§Ø±,ç§‘ç‰¹è¿ªç“¦,Ğ ĞµÑE¿ÑƒĞ±Ğ»Ğ¸ĞºĞ° ĞšĞ¾ÑEĞ´'Ğ˜Ğ²ÑƒĞ°Ñ€,Africa,Afrique,Ãfrica,,,,Other developing countries or areas,Autres pays ou zones en dÃ©veloppement,Otros paÃ­ses o Ã¡reas en desarrollo,,,,Western Africa,Afrique occidentale,Ãfrica occidental,,,
398,108,KZ,KAZ,Kazakhstan,Kazakhstan,KazajstÃ¡n,"ÙE§Ø²Ø§Ø®Ø³ØªØ§ÙE,å“ˆè¨å…‹æ–¯å¦""",ĞšĞ°Ğ·Ğ°ÑEE‚Ğ°Ğ½,the Republic of Kazakhstan,la RÃ©publique du Kazakhstan,la RepÃºblica de KazajstÃ¡n,"ÙE§Ø²Ø§Ø®Ø³ØªØ§ÙE,å“ˆè¨å…‹æ–¯å¦""",ĞšĞ°Ğ·Ğ°ÑEE‚Ğ°Ğ½,Asia,Asie,Asia,,,,Other developing countries or areas,Autres pays ou zones en dÃ©veloppement,Otros paÃ­ses o Ã¡reas en desarrollo,,,,Central Asia,Asie centrale,Asia central,,,,,
388,109,JM,JAM,Jamaica,JamaÃ¯que,Jamaica,Ø¬Ø§ÙE§ÙŠÙE§,ç‰™ä¹°åŠ ,Ğ¯Ğ¼Ğ°Ğ¹ĞºĞ°,Jamaica,la JamaÃ¯que,Jamaica,Ø¬Ø§ÙE§ÙŠÙE§,ç‰™ä¹°åŠ ,Ğ¯Ğ¼Ğ°Ğ¹ĞºĞ°,Americas,AmÃ©riques,AmÃ©ricas,,,,Other developing countries or areas,Autres pays ou zones en dÃ©veloppement,Otros paÃ­ses o Ã¡reas en desarrollo,,,,Caribbean,CaraÃ¯bes,Caribe,,,
392,110,JP,JPN,Japan,Japon,JapÃ³n,"Ø§ÙEŠØ§Ø¨Ø§ÙE,æ—¥ æœ¬""","Ğ¯Ğ¿Ğ¾Ğ½Ğ¸ÑE,Japan""",le Japon,el JapÃ³n,"Ø§ÙEŠØ§Ø¨Ø§ÙE,æ—¥ æœ¬""","Ğ¯Ğ¿Ğ¾Ğ½Ğ¸ÑE,Asia""",Asie,Asia,,,,Developed countries or areas,Pays ou zones dÃ©veloppÃ©s,PaÃ­ses o Ã¡reas desarrollados,,,,Eastern Asia,Asie orientale,Asia oriental,,,,,,,
396,111,JT,JTN,Johnston Island,"Johnston, Ile","Johnston, Isla",,,,Johnston Island,Ãle Johnston,Isla Johnston,,,,,,,,,,,,,,,,,,,,,
400,112,JO,JOR,Jordan,Jordanie,Jordania,"Ø§ÙE£Ø±Ø¯ÙE,çº¦ æ—¦""",Ğ˜Ğ¾Ñ€Ğ´Ğ°Ğ½ÑEºĞ¾Ğµ Ğ¥Ğ°ÑˆĞ¸Ğ¼Ğ¸Ñ‚ÑEºĞ¾Ğµ ĞšĞ¾Ñ€Ğ¾Ğ»ĞµĞ²ÑE‚Ğ²Ğ¾,the Hashemite Kingdom of Jordan,le Royaume hachÃ©mite de Jordanie,el Reino Hachemita de Jordania,"Ø§ÙE£Ø±Ø¯ÙE,çº¦ æ—¦""",Ğ˜Ğ¾Ñ€Ğ´Ğ°Ğ½ÑEºĞ¾Ğµ Ğ¥Ğ°ÑˆĞ¸Ğ¼Ğ¸Ñ‚ÑEºĞ¾Ğµ ĞšĞ¾Ñ€Ğ¾Ğ»ĞµĞ²ÑE‚Ğ²Ğ¾,Asia,Asie,Asia,,,,Other developing countries or areas,Autres pays ou zones en dÃ©veloppement,Otros paÃ­ses o Ã¡reas en desarrollo,,,,Western Asia,Asie occidentale,Asia occidental,,,,,
417,113,KG,KGZ,Kyrgyzstan,Kirghizistan,KirguistÃ¡n,Ø¬ÙEEˆØ±ÙŠØ© Ø§ÙE‚ÙŠØ±ØºÙŠØ²,å‰å°”å‰æ–¯æ–¯å¦,ĞšÑ‹Ñ€Ğ³Ñ‹Ğ·ÑE‚Ğ°Ğ½,the Kyrgyz Republic,la RÃ©publique kirghize,la RepÃºblica Kirguisa,Ø¬ÙEEˆØ±ÙŠØ© Ø§ÙE‚ÙŠØ±ØºÙŠØ²,å‰å°”å‰æ–¯æ–¯å¦,ĞšÑ‹Ñ€Ğ³Ñ‹Ğ·ÑE‚Ğ°Ğ½,Asia,Asie,Asia,,,,Other developing countries or areas,Autres pays ou zones en dÃ©veloppement,Otros paÃ­ses o Ã¡reas en desarrollo,,,,Central Asia,Asie centrale,Asia central,,,
404,114,KE,KEN,Kenya,Kenya,Kenya,ÙEŠÙEŠØ§,"è‚¯å°¼äºE,ĞšĞµĞ½Ğ¸ÑE",the Republic of Kenya,la RÃ©publique du Kenya,la RepÃºblica de Kenya,ÙEŠÙEŠØ§,"è‚¯å°¼äºE,ĞšĞµĞ½Ğ¸ÑE",Africa,Afrique,Ãfrica,,,,Other developing countries or areas,Autres pays ou zones en dÃ©veloppement,Otros paÃ­ses o Ã¡reas en desarrollo,,,,Eastern Africa,Afrique orientale,Ãfrica oriental,,,,,
116,115,KH,KHM,Cambodia,Cambodge,Camboya,ÙEE¨ÙˆØ¯ÙŠØ§,æŸ¬åŸ”å¯¨,ĞšĞ°Ğ¼Ğ±Ğ¾Ğ´Ğ¶Ğ°,the Kingdom of Cambodia,le Royaume du Cambodge,el Reino de Camboya,ÙEE¨ÙˆØ¯ÙŠØ§,æŸ¬åŸ”å¯¨,ĞšĞ°Ğ¼Ğ±Ğ¾Ğ´Ğ¶Ğ°,Asia,Asie,Asia,,,,Least Developed Countries,Pays les moins avancÃ©s,PaÃ­ses menos adelantados,,,,South-Eastern Asia,Asie du Sud-Est,Asia sudoriental,,,
408,116,KP,PRK,"Korea, Dem. People's Rep",RÃ©p. pop. dÃ©m. de CorÃ©e,Rep. Pop. Dem. de Corea,Ø¬ÙEEˆØ±ÙŠØ© ÙEˆØ±ÙŠØ§ Ø§ÙE´Ø¹Ø¨ÙŠØ© Ø§ÙE¯ÙŠÙE‚Ø±Ø§Ø·ÙŠØ©,æœé²œæ°‘ä¸»ä¸»ä¹‰äººæ°‘åEå’Œå›½,ĞšĞ¾Ñ€ĞµĞ¹ÑEºĞ°ÑEĞĞ°Ñ€Ğ¾Ğ´Ğ½Ğ¾-Ğ”ĞµĞ¼Ğ¾ĞºÑ€Ğ°Ñ‚Ğ¸ÑEµÑEºĞ°ÑEĞ ĞµÑE¿ÑƒĞ±Ğ»Ğ¸ĞºĞ°,the Democratic People's Republic of Korea,la RÃ©publique populaire dÃ©mocratique de CorÃ©e,la RepÃºblica Popular DemocrÃ¡tica de Corea,Ø¬ÙEEˆØ±ÙŠØ© ÙEˆØ±ÙŠØ§ Ø§ÙE´Ø¹Ø¨ÙŠØ© Ø§ÙE¯ÙŠÙE‚Ø±Ø§Ø·ÙŠØ©,æœé²œæ°‘ä¸»ä¸»ä¹‰äººæ°‘åEå’Œå›½,ĞšĞ¾Ñ€ĞµĞ¹ÑEºĞ°ÑEĞĞ°Ñ€Ğ¾Ğ´Ğ½Ğ¾-Ğ”ĞµĞ¼Ğ¾ĞºÑ€Ğ°Ñ‚Ğ¸ÑEµÑEºĞ°ÑEĞ ĞµÑE¿ÑƒĞ±Ğ»Ğ¸ĞºĞ°,Asia,Asie,Asia,,,,Other developing countries or areas,Autres pays ou zones en dÃ©veloppement,Otros paÃ­ses o Ã¡reas en desarrollo,,,,Eastern Asia,Asie orientale,Asia oriental,,,
410,117,KR,KOR,"Korea, Republic of",RÃ©publique de CorÃ©e,RepÃºblica de Corea,Ø¬ÙEEˆØ±ÙŠØ© ÙEˆØ±ÙŠØ§,å¤§éŸ©æ°‘å›½,"Ğ ĞµÑE¿ÑƒĞ±Ğ»Ğ¸ĞºĞ° ĞšĞ¾Ñ€ĞµÑE,the Republic of Korea""",la RÃ©publique de CorÃ©e,la RepÃºblica de Corea,Ø¬ÙEEˆØ±ÙŠØ© ÙEˆØ±ÙŠØ§,å¤§éŸ©æ°‘å›½,"Ğ ĞµÑE¿ÑƒĞ±Ğ»Ğ¸ĞºĞ° ĞšĞ¾Ñ€ĞµÑE,Asia""",Asie,Asia,,,,Other developing countries or areas,Autres pays ou zones en dÃ©veloppement,Otros paÃ­ses o Ã¡reas en desarrollo,,,,Eastern Asia,Asie orientale,Asia oriental,,,,,
414,118,KW,KWT,Kuwait,KoweÃ¯t,Kuwait,Ø§ÙEEˆÙŠØª,ç§‘å¨ç‰¹,"ĞšÑƒĞ²ĞµĞ¹ÑE,the State of Kuwait""",l'Ã‰tat du KoweÃ¯t,el Estado de Kuwait,Ø§ÙEEˆÙŠØª,ç§‘å¨ç‰¹,"ĞšÑƒĞ²ĞµĞ¹ÑE,Asia""",Asie,Asia,,,,Other developing countries or areas,Autres pays ou zones en dÃ©veloppement,Otros paÃ­ses o Ã¡reas en desarrollo,,,,Western Asia,Asie occidentale,Asia occidental,,,,,
428,119,LV,LVA,Latvia,Lettonie,Letonia,ÙE§ØªÙEŠØ§,"æ‹‰è„±ç»´äºE,Ğ›Ğ°Ñ‚Ğ²Ğ¸ÑE",the Republic of Latvia,la RÃ©publique de Lettonie,la RepÃºblica de Letonia,ÙE§ØªÙEŠØ§,"æ‹‰è„±ç»´äºE,Ğ›Ğ°Ñ‚Ğ²Ğ¸ÑE",Europe,Europe,Europa,,,,Developed countries or areas,Pays ou zones dÃ©veloppÃ©s,PaÃ­ses o Ã¡reas desarrollados,,,,Northern Europe,Europe septentrionale,Europa del Norte,,,,,
418,120,LA,LAO,Lao People's Dem. Rep.,RÃ©p. dÃ©m. pop. lao,Rep. Dem. Pop. Lao,Ø¬ÙEEˆØ±ÙŠØ© ÙE§ÙEØ§ÙE¯ÙŠÙE‚Ø±Ø§Ø·ÙŠØ© Ø§ÙE´Ø¹Ø¨ÙŠØ©,è€æŒäººæ°‘æ°‘ä¸»å…±å’Œå›½,Ğ›Ğ°Ğ¾ÑEEºĞ°ÑEĞĞ°Ñ€Ğ¾Ğ´Ğ½Ğ¾-Ğ”ĞµĞ¼Ğ¾ĞºÑ€Ğ°Ñ‚Ğ¸ÑEµÑEºĞ°ÑEĞ ĞµÑE¿ÑƒĞ±Ğ»Ğ¸ĞºĞ°,the Lao People's Democratic Republic,la RÃ©publique dÃ©mocratique populaire lao,la RepÃºblica DemocrÃ¡tica Popular Lao,Ø¬ÙEEˆØ±ÙŠØ© ÙE§ÙEØ§ÙE¯ÙŠÙE‚Ø±Ø§Ø·ÙŠØ© Ø§ÙE´Ø¹Ø¨ÙŠØ©,è€æŒäººæ°‘æ°‘ä¸»å…±å’Œå›½,Ğ›Ğ°Ğ¾ÑEEºĞ°ÑEĞĞ°Ñ€Ğ¾Ğ´Ğ½Ğ¾-Ğ”ĞµĞ¼Ğ¾ĞºÑ€Ğ°Ñ‚Ğ¸ÑEµÑEºĞ°ÑEĞ ĞµÑE¿ÑƒĞ±Ğ»Ğ¸ĞºĞ°,Asia,Asie,Asia,,,,Least Developed Countries,Pays les moins avancÃ©s,PaÃ­ses menos adelantados,,,,South-Eastern Asia,Asie du Sud-Est,Asia sudoriental,,,
422,121,LB,LBN,Lebanon,Liban,LÃ­bano,Ø§ÙE¬ÙEEˆØ±ÙŠØ© Ø§ÙEE¨ÙE§ÙEŠØ©,é»å·´å«©,Ğ›Ğ¸Ğ²Ğ°Ğ½,the Lebanese Republic,la RÃ©publique libanaise,la RepÃºblica libanesa,Ø§ÙE¬ÙEEˆØ±ÙŠØ© Ø§ÙEE¨ÙE§ÙEŠØ©,é»å·´å«©,Ğ›Ğ¸Ğ²Ğ°Ğ½,Asia,Asie,Asia,,,,Other developing countries or areas,Autres pays ou zones en dÃ©veloppement,Otros paÃ­ses o Ã¡reas en desarrollo,,,,Western Asia,Asie occidentale,Asia occidental,,,
426,122,LS,LSO,Lesotho,Lesotho,Lesotho,"ÙEEEE© ÙEŠØ³ÙˆØªÙE,è±ç´¢æ‰E",ĞšĞ¾Ñ€Ğ¾Ğ»ĞµĞ²ÑE‚Ğ²Ğ¾ Ğ›ĞµÑE¾Ñ‚Ğ¾,the Kingdom of Lesotho,le Royaume du Lesotho,el Reino de Lesotho,"ÙEEEE© ÙEŠØ³ÙˆØªÙE,è±ç´¢æ‰E",ĞšĞ¾Ñ€Ğ¾Ğ»ĞµĞ²ÑE‚Ğ²Ğ¾ Ğ›ĞµÑE¾Ñ‚Ğ¾,Africa,Afrique,Ãfrica,,,,Least Developed Countries,Pays les moins avancÃ©s,PaÃ­ses menos adelantados,,,,Southern Africa,Afrique australe,Ãfrica austral,,,,,
430,123,LR,LBR,Liberia,LibÃ©ria,Liberia,ÙEŠØ¨Ø±ÙŠØ§,"åˆ©æ¯”é‡ŒäºE,Ğ›Ğ¸Ğ±ĞµÑ€Ğ¸ÑE",the Republic of Liberia,la RÃ©publique du LibÃ©ria,la RepÃºblica de Liberia,ÙEŠØ¨Ø±ÙŠØ§,"åˆ©æ¯”é‡ŒäºE,Ğ›Ğ¸Ğ±ĞµÑ€Ğ¸ÑE",Africa,Afrique,Ãfrica,,,,Least Developed Countries,Pays les moins avancÃ©s,PaÃ­ses menos adelantados,,,,Western Africa,Afrique occidentale,Ãfrica occidental,,,,,
434,124,LY,LBY,Libya,Libye,Libia,ÙEŠØ¨ÙŠØ§,"åˆ©æ¯”äºE,Ğ›Ğ¸Ğ²Ğ¸ÑE",State of Libya,l'Ã‰tat de Libye,Estado de Libia,Ø¯ÙˆÙE© ÙEŠØ¨ÙŠØ§,åˆ©æ¯”äºšå›½,"Ğ“Ğ¾ÑEƒĞ´Ğ°Ñ€ÑE‚Ğ²Ğ¾ Ğ›Ğ¸Ğ²Ğ¸ÑE,Africa""",Afrique,Ãfrica,,,,Other developing countries or areas,Autres pays ou zones en dÃ©veloppement,Otros paÃ­ses o Ã¡reas en desarrollo,,,,Northern Africa,Afrique septentrionale,Ãfrica septentrional,,,,,
438,125,LI,LIE,Liechtenstein,Liechtenstein,Liechtenstein,"ÙE®ØªÙE´ØªØ§ÙŠÙE,åˆ—æ”¯æ•¦å£«ç™»""",Ğ›Ğ¸ÑE‚ĞµĞ½ÑˆÑ‚ĞµĞ¹Ğ½,the Principality of Liechtenstein,la PrincipautÃ© du Liechtenstein,el Principado de Liechtenstein,ÙE®ØªÙE´ØªØ§ÙŠÙEØ¥ÙE§Ø±Ø©,åˆ—æ”¯æ•¦å£«ç™»å…¬å›½,ĞšĞ½ÑĞ¶ĞµÑE‚Ğ²Ğ¾ Ğ›Ğ¸ÑE‚ĞµĞ½ÑˆÑ‚ĞµĞ¹Ğ½,Europe,Europe,Europa,,,,Developed countries or areas,Pays ou zones dÃ©veloppÃ©s,PaÃ­ses o Ã¡reas desarrollados,,,,Western Europe,Europe occidentale,Europa occidental,,,,
440,126,LT,LTU,Lithuania,Lituanie,Lituania,ÙEŠØªÙˆØ§ÙEŠØ§,ç«‹é™¶å®›åEå’Œå›½,Ğ›Ğ¸Ñ‚Ğ²Ğ°,the Republic of Lithuania,la RÃ©publique de Lituanie,la RepÃºblica de Lituania,ÙEŠØªÙˆØ§ÙEŠØ§,ç«‹é™¶å®›åEå’Œå›½,Ğ›Ğ¸Ñ‚Ğ²Ğ°,Europe,Europe,Europa,,,,Developed countries or areas,Pays ou zones dÃ©veloppÃ©s,PaÃ­ses o Ã¡reas desarrollados,,,,Northern Europe,Europe septentrionale,Europa del Norte,,,
584,127,MH,MHL,Marshall Islands,Ãles Marshall,Islas Marshall,"Ø¬ÙEEˆØ±ÙŠØ© Ø¬Ø²Ø± ÙE§Ø±Ø´Ø§ÙE,é©¬ç»å°”ç¾¤å²›åEå’Œå›½""",ĞœĞ°Ñ€ÑˆĞ°Ğ»Ğ»Ğ¾Ğ²ÑEĞÑE‚Ñ€Ğ¾Ğ²Ğ°,the Republic of the Marshall Islands,la RÃ©publique des Ãles Marshall,la RepÃºblica de las Islas Marshall,"Ø¬ÙEEˆØ±ÙŠØ© Ø¬Ø²Ø± ÙE§Ø±Ø´Ø§ÙE,é©¬ç»å°”ç¾¤å²›åEå’Œå›½""",ĞœĞ°Ñ€ÑˆĞ°Ğ»Ğ»Ğ¾Ğ²ÑEĞÑE‚Ñ€Ğ¾Ğ²Ğ°,Oceania,OcÃ©anie,OceanÃ­a,,,,Other developing countries or areas,Autres pays ou zones en dÃ©veloppement,Otros paÃ­ses o Ã¡reas en desarrollo,,,,Micronesia,MicronÃ©sie,Micronesia,,,,,
446,128,MO,MAC,"China, Macao SAR","Chine, RAS de Macao","China, RAE de Macao",Ø®Ø§ØµØ© Ø¥Ø¯Ø§Ø±ÙŠØ© ÙEE·Ù‚Ø© ÙEE§ÙEØ§ÙEµÙŠÙE,ä¸­å›½æ¾³é—¨ç‰¹åŒº,"ĞšĞ¸Ñ‚Ğ°Ğ¹, Ğ¡Ğ¿ĞµÑE¸Ğ°Ğ»ÑŒĞ½Ñ‹Ğ¹ Ğ°Ğ´Ğ¼Ğ¸Ğ½Ğ¸ÑE‚Ñ€Ğ°Ñ‚Ğ¸Ğ²Ğ½Ñ‹Ğ¹ Ñ€Ğ°Ğ¹Ğ¾Ğ½ ĞœĞ°ĞºĞ°Ğ¾","China, Macao SAR",Chine - RAS de Macao,"China, RegiÃ³n Administrativa Especial de Macao",Ø®Ø§ØµØ© Ø¥Ø¯Ø§Ø±ÙŠØ© ÙEE·Ù‚Ø© ÙEE§ÙEØ§ÙEµÙŠÙE,ä¸­å›½æ¾³é—¨ç‰¹åˆ«è¡Œæ”¿åŒº,"ĞšĞ¸Ñ‚Ğ°Ğ¹, Ğ¡Ğ¿ĞµÑE¸Ğ°Ğ»ÑŒĞ½Ñ‹Ğ¹ Ğ°Ğ´Ğ¼Ğ¸Ğ½Ğ¸ÑE‚Ñ€Ğ°Ñ‚Ğ¸Ğ²Ğ½Ñ‹Ğ¹ Ñ€Ğ°Ğ¹Ğ¾Ğ½ ĞœĞ°ĞºĞ°Ğ¾",Asia,Asie,Asia,,,,Other developing countries or areas,Autres pays ou zones en dÃ©veloppement,Otros paÃ­ses o Ã¡reas en desarrollo,,,,Eastern Asia,Asie orientale,Asia oriental,,,
450,129,MG,MDG,Madagascar,Madagascar,Madagascar,Ø¬ÙEEˆØ±ÙŠØ© ÙE¯ØºØ´Ù‚Ø±,é©¬è¾¾åŠ æ–¯åŠ ,ĞœĞ°Ğ´Ğ°Ğ³Ğ°ÑEºĞ°Ñ€,the Republic of Madagascar,la RÃ©publique de Madagascar,la RepÃºblica de Madagascar,Ø¬ÙEEˆØ±ÙŠØ© ÙE¯ØºØ´Ù‚Ø±,é©¬è¾¾åŠ æ–¯åŠ ,ĞœĞ°Ğ´Ğ°Ğ³Ğ°ÑEºĞ°Ñ€,Africa,Afrique,Ãfrica,,,,Least Developed Countries,Pays les moins avancÃ©s,PaÃ­ses menos adelantados,,,,Eastern Africa,Afrique orientale,Ãfrica oriental,,,
454,130,MW,MWI,Malawi,Malawi,Malawi,"ÙEE§ÙˆÙE,é©¬æ‹‰ç»´""",ĞœĞ°Ğ»Ğ°Ğ²Ğ¸,the Republic of Malawi,la RÃ©publique du Malawi,la RepÃºblica de Malawi,"ÙEE§ÙˆÙE,é©¬æ‹‰ç»´""",ĞœĞ°Ğ»Ğ°Ğ²Ğ¸,Africa,Afrique,Ãfrica,,,,Least Developed Countries,Pays les moins avancÃ©s,PaÃ­ses menos adelantados,,,,Eastern Africa,Afrique orientale,Ãfrica oriental,,,,,
458,131,MY,MYS,Malaysia,Malaisie,Malasia,ÙE§ÙEŠØ²ÙŠØ§,"é©¬æ¥è¥¿äºE,ĞœĞ°Ğ»Ğ°Ğ¹Ğ·Ğ¸ÑE",Malaysia,la Malaisie,Malasia,ÙE§ÙEŠØ²ÙŠØ§,"é©¬æ¥è¥¿äºE,ĞœĞ°Ğ»Ğ°Ğ¹Ğ·Ğ¸ÑE",Asia,Asie,Asia,,,,Other developing countries or areas,Autres pays ou zones en dÃ©veloppement,Otros paÃ­ses o Ã¡reas en desarrollo,,,,South-Eastern Asia,Asie du Sud-Est,Asia sudoriental,,,,,
462,132,MV,MDV,Maldives,Maldives,Maldivas,"ÙEE¯ÙŠÙE,é©¬å°”ä»£å¤«å…±å’Œå›½""","ĞœĞ°Ğ»ÑŒĞ´Ğ¸Ğ²ÑE,the Republic of Maldives""",la RÃ©publique des Maldives,la RepÃºblica de Maldivas,"ÙEE¯ÙŠÙE,é©¬å°”ä»£å¤«å…±å’Œå›½""","ĞœĞ°Ğ»ÑŒĞ´Ğ¸Ğ²ÑE,Asia""",Asie,Asia,,,,Other developing countries or areas,Autres pays ou zones en dÃ©veloppement,Otros paÃ­ses o Ã¡reas en desarrollo,,,,Southern Asia,Asie mÃ©ridionale,Asia meridional,,,,,,,
466,133,ML,MLI,Mali,Mali,MalÃ­,"ÙE§ÙEE,é©¬é‡ŒåEå’Œå›½""",Ğ ĞµÑE¿ÑƒĞ±Ğ»Ğ¸ĞºĞ° ĞœĞ°Ğ»Ğ¸,the Republic of Mali,la RÃ©publique du Mali,la RepÃºblica de MalÃ­,"ÙE§ÙEE,é©¬é‡ŒåEå’Œå›½""",Ğ ĞµÑE¿ÑƒĞ±Ğ»Ğ¸ĞºĞ° ĞœĞ°Ğ»Ğ¸,Africa,Afrique,Ãfrica,,,,Least Developed Countries,Pays les moins avancÃ©s,PaÃ­ses menos adelantados,,,,Western Africa,Afrique occidentale,Ãfrica occidental,,,,,
470,134,MT,MLT,Malta,Malte,Malta,Ø¬ÙEEˆØ±ÙŠØ© ÙE§ÙE·Ø©,"é©¬è€³ä»E,ĞœĞ°Ğ»ÑŒÑ‚Ğ°""",the Republic of Malta,la RÃ©publique de Malte,la RepÃºblica de Malta,Ø¬ÙEEˆØ±ÙŠØ© ÙE§ÙE·Ø©,"é©¬è€³ä»E,ĞœĞ°Ğ»ÑŒÑ‚Ğ°""",Europe,Europe,Europa,,,,Developed countries or areas,Pays ou zones dÃ©veloppÃ©s,PaÃ­ses o Ã¡reas desarrollados,,,,Southern Europe,Europe mÃ©ridionale,Europa meridional,,,,,
474,135,MQ,MTQ,Martinique,Martinique,Martinica,"ÙE§Ø±ØªÙŠÙEŠÙE,é©¬æå°¼å…E",ĞœĞ°Ñ€Ñ‚Ğ¸Ğ½Ğ¸ĞºĞ°,Martinique,Martinique,Martinica,"ÙE§Ø±ØªÙŠÙEŠÙE,é©¬æå°¼å…E",ĞœĞ°Ñ€Ñ‚Ğ¸Ğ½Ğ¸ĞºĞ°,Americas,AmÃ©riques,AmÃ©ricas,,,,Other developing countries or areas,Autres pays ou zones en dÃ©veloppement,Otros paÃ­ses o Ã¡reas en desarrollo,,,,Caribbean,CaraÃ¯bes,Caribe,,,,,
478,136,MR,MRT,Mauritania,Mauritanie,Mauritania,ÙEˆØ±ÙŠØªØ§ÙEŠØ§,æ¯›é‡Œå¡”å°¼äºšä¼Šæ–¯å…°å…±å’Œå›½,"ĞœĞ°Ğ²Ñ€Ğ¸Ñ‚Ğ°Ğ½Ğ¸ÑE,the Islamic Republic of Mauritania""",la RÃ©publique islamique de Mauritanie,la RepÃºblica IslÃ¡mica de Mauritania,ÙEˆØ±ÙŠØªØ§ÙEŠØ§,æ¯›é‡Œå¡”å°¼äºšä¼Šæ–¯å…°å…±å’Œå›½,"ĞœĞ°Ğ²Ñ€Ğ¸Ñ‚Ğ°Ğ½Ğ¸ÑE,Africa""",Afrique,Ãfrica,,,,Least Developed Countries,Pays les moins avancÃ©s,PaÃ­ses menos adelantados,,,,Western Africa,Afrique occidentale,Ãfrica occidental,,,,,
480,137,MU,MUS,Mauritius,Maurice,Mauricio,ÙEˆØ±ÙŠØ´ÙŠÙˆØ³,æ¯›é‡Œæ±‚æ–¯,ĞœĞ°Ğ²Ñ€Ğ¸ĞºĞ¸Ğ¹,the Republic of Mauritius,la RÃ©publique de Maurice,la RepÃºblica de Mauricio,ÙEˆØ±ÙŠØ´ÙŠÙˆØ³,æ¯›é‡Œæ±‚æ–¯,ĞœĞ°Ğ²Ñ€Ğ¸ĞºĞ¸Ğ¹,Africa,Afrique,Ãfrica,,,,Other developing countries or areas,Autres pays ou zones en dÃ©veloppement,Otros paÃ­ses o Ã¡reas en desarrollo,,,,Eastern Africa,Afrique orientale,Ãfrica oriental,,,
484,138,MX,MEX,Mexico,Mexique,MÃ©xico,"Ø§ÙEEE³ÙŠÙE,å¢¨è¥¿å“¥""",ĞœĞµĞºÑE¸ĞºĞ°,the United Mexican States,les Ã‰tats-Unis du Mexique,los Estados Unidos Mexicanos,"Ø§ÙEEE³ÙŠÙE,å¢¨è¥¿å“¥""",ĞœĞµĞºÑE¸ĞºĞ°,Americas,AmÃ©riques,AmÃ©ricas,,,,Other developing countries or areas,Autres pays ou zones en dÃ©veloppement,Otros paÃ­ses o Ã¡reas en desarrollo,,,,Central America,AmÃ©rique centrale,AmÃ©rica central,,,,,
488,139,MI,MID,Midway Islands,"Midway, Ãles","Midway, Islas",,,,Midway Island,Ãle Midway,Islas Midway,,,,,,,,,,,,,,,,,,,,,
492,140,MC,MCO,Monaco,Monaco,MÃ³naco,"ÙEˆÙE§ÙEE,æ‘©çº³å“¥""",ĞšĞ½ÑĞ¶ĞµÑE‚Ğ²Ğ¾ ĞœĞ¾Ğ½Ğ°ĞºĞ¾,the Principality of Monaco,la PrincipautÃ© de Monaco,el Principado de MÃ³naco,"ÙEˆÙE§ÙEE,æ‘©çº³å“¥""",ĞšĞ½ÑĞ¶ĞµÑE‚Ğ²Ğ¾ ĞœĞ¾Ğ½Ğ°ĞºĞ¾,Europe,Europe,Europa,,,,Developed countries or areas,Pays ou zones dÃ©veloppÃ©s,PaÃ­ses o Ã¡reas desarrollados,,,,Western Europe,Europe occidentale,Europa occidental,,,,,
496,141,MN,MNG,Mongolia,Mongolie,Mongolia,ÙEEºÙˆÙEŠØ§,è’Eå¤,"ĞœĞ¾Ğ½Ğ³Ğ¾Ğ»Ğ¸ÑE,Mongolia""",la Mongolie,Mongolia,ÙEEºÙˆÙEŠØ§,è’Eå¤,"ĞœĞ¾Ğ½Ğ³Ğ¾Ğ»Ğ¸ÑE,Asia""",Asie,Asia,,,,Other developing countries or areas,Autres pays ou zones en dÃ©veloppement,Otros paÃ­ses o Ã¡reas en desarrollo,,,,Eastern Asia,Asie orientale,Asia oriental,,,,,
500,142,MS,MSR,Montserrat,Montserrat,Montserrat,ÙEˆÙEªÙŠØ³ÙŠØ±Ø§Øª,è’™ç‰¹å¡æ‹‰ç‰¹,"ĞœĞ¾Ğ½Ñ‚ÑEµÑ€Ñ€Ğ°ÑE,Montserrat""",Montserrat,Montserrat,ÙEˆÙEªÙŠØ³ÙŠØ±Ø§Øª,è’™ç‰¹å¡æ‹‰ç‰¹,"ĞœĞ¾Ğ½Ñ‚ÑEµÑ€Ñ€Ğ°ÑE,Americas""",AmÃ©riques,AmÃ©ricas,,,,Other developing countries or areas,Autres pays ou zones en dÃ©veloppement,Otros paÃ­ses o Ã¡reas en desarrollo,,,,Caribbean,CaraÃ¯bes,Caribe,,,,,
504,143,MA,MAR,Morocco,Maroc,Marruecos,Ø§ÙEEEEE© Ø§ÙEEºØ±Ø¨ÙŠØ©,æ‘©æ´›å“¥,ĞšĞ¾Ñ€Ğ¾Ğ»ĞµĞ²ÑE‚Ğ²Ğ¾ ĞœĞ°Ñ€Ğ¾ĞºĞºĞ¾,the Kingdom of Morocco,le Royaume du Maroc,el Reino de Marruecos,Ø§ÙEEEEE© Ø§ÙEEºØ±Ø¨ÙŠØ©,æ‘©æ´›å“¥,ĞšĞ¾Ñ€Ğ¾Ğ»ĞµĞ²ÑE‚Ğ²Ğ¾ ĞœĞ°Ñ€Ğ¾ĞºĞºĞ¾,Africa,Afrique,Ãfrica,,,,Other developing countries or areas,Autres pays ou zones en dÃ©veloppement,Otros paÃ­ses o Ã¡reas en desarrollo,,,,Northern Africa,Afrique septentrionale,Ãfrica septentrional,,,
508,144,MZ,MOZ,Mozambique,Mozambique,Mozambique,"ÙEˆØ²Ø§ÙE¨ÙŠÙE,è«æ¡‘æ¯”åE""",ĞœĞ¾Ğ·Ğ°Ğ¼Ğ±Ğ¸Ğº,the Republic of Mozambique,la RÃ©publique du Mozambique,la RepÃºblica de Mozambique,"ÙEˆØ²Ø§ÙE¨ÙŠÙE,è«æ¡‘æ¯”åE""",ĞœĞ¾Ğ·Ğ°Ğ¼Ğ±Ğ¸Ğº,Africa,Afrique,Ãfrica,,,,Least Developed Countries,Pays les moins avancÃ©s,PaÃ­ses menos adelantados,,,,Eastern Africa,Afrique orientale,Ãfrica oriental,,,,,
583,145,FM,FSM,"Micronesia, Fed.States of",MicronÃ©sie(Ã‰tats fÃ©d.de),Micronesia(Estados Fed.),ÙˆÙE§ÙŠØ§Øª ÙEŠÙE±ÙˆÙEŠØ²ÙŠØ§ Ø§ÙEEˆØ­Ø¯Ø©,å¯EEç½—å°¼è¥¿äºEè”é‚¦),Ğ¤ĞµĞ´ĞµÑ€Ğ°Ñ‚Ğ¸Ğ²Ğ½Ñ‹Ğµ Ğ¨Ñ‚Ğ°Ñ‚ÑEĞœĞ¸ĞºÑ€Ğ¾Ğ½ĞµĞ·Ğ¸Ğ¸,the Federated States of Micronesia,les Ã‰tats fÃ©dÃ©rÃ©s de MicronÃ©sie,los Estados Federados de Micronesia,ÙˆÙE§ÙŠØ§Øª ÙEŠÙE±ÙˆÙEŠØ²ÙŠØ§ Ø§ÙEEˆØ­Ø¯Ø©,å¯EEç½—å°¼è¥¿äºEè”é‚¦),Ğ¤ĞµĞ´ĞµÑ€Ğ°Ñ‚Ğ¸Ğ²Ğ½Ñ‹Ğµ Ğ¨Ñ‚Ğ°Ñ‚ÑEĞœĞ¸ĞºÑ€Ğ¾Ğ½ĞµĞ·Ğ¸Ğ¸,Oceania,OcÃ©anie,OceanÃ­a,,,,Other developing countries or areas,Autres pays ou zones en dÃ©veloppement,Otros paÃ­ses o Ã¡reas en desarrollo,,,,Micronesia,MicronÃ©sie,Micronesia,,,
498,146,MD,MDA,"Moldova, Republic of",RÃ©publique de Moldova,RepÃºblica de Moldova,"ÙEˆÙE¯ÙˆÙEE,æ‘©å°”å¤šç“¦çšE",Ğ ĞµÑE¿ÑƒĞ±Ğ»Ğ¸ĞºĞ° ĞœĞ¾Ğ»Ğ´Ğ¾Ğ²Ğ°,the Republic of Moldova,la RÃ©publique de Moldova,la RepÃºblica de Moldova,"ÙEˆÙE¯ÙˆÙEE,æ‘©å°”å¤šç“¦çšE",Ğ ĞµÑE¿ÑƒĞ±Ğ»Ğ¸ĞºĞ° ĞœĞ¾Ğ»Ğ´Ğ¾Ğ²Ğ°,Europe,Europe,Europa,,,,Developed countries or areas,Pays ou zones dÃ©veloppÃ©s,PaÃ­ses o Ã¡reas desarrollados,,,,Eastern Europe,Europe orientale,Europa oriental,,,,,
516,147,NA,NAM,Namibia,Namibie,Namibia,ÙE§ÙEŠØ¨ÙŠØ§,"çº³ç±³æ¯”äºE,ĞĞ°Ğ¼Ğ¸Ğ±Ğ¸ÑE",the Republic of Namibia,la RÃ©publique de Namibie,la RepÃºblica de Namibia,ÙE§ÙEŠØ¨ÙŠØ§,"çº³ç±³æ¯”äºE,ĞĞ°Ğ¼Ğ¸Ğ±Ğ¸ÑE",Africa,Afrique,Ãfrica,,,,Other developing countries or areas,Autres pays ou zones en dÃ©veloppement,Otros paÃ­ses o Ã¡reas en desarrollo,,,,Southern Africa,Afrique australe,Ãfrica austral,,,,,
520,148,NR,NRU,Nauru,Nauru,Nauru,"ÙE§ÙˆØ±ÙE,ç‘Eé²E","Ğ ĞµÑE¿ÑƒĞ±Ğ»Ğ¸ĞºĞ° ĞĞ°ÑƒÑ€ÑE,the Republic of Nauru""",la RÃ©publique de Nauru,la RepÃºblica de Nauru,"ÙE§ÙˆØ±ÙE,ç‘Eé²E","Ğ ĞµÑE¿ÑƒĞ±Ğ»Ğ¸ĞºĞ° ĞĞ°ÑƒÑ€ÑE,Oceania""",OcÃ©anie,OceanÃ­a,,,,Other developing countries or areas,Autres pays ou zones en dÃ©veloppement,Otros paÃ­ses o Ã¡reas en desarrollo,,,,Micronesia,MicronÃ©sie,Micronesia,,,,,,,
524,149,NP,NPL,Nepal,NÃ©pal,Nepal,"ÙEŠØ¨Ø§ÙE,å°¼æ³Šå°E",Ğ¤ĞµĞ´ĞµÑ€Ğ°Ñ‚Ğ¸Ğ²Ğ½Ğ°ÑEĞ”ĞµĞ¼Ğ¾ĞºÑ€Ğ°Ñ‚Ğ¸ÑEµÑEºĞ°ÑEĞ ĞµÑE¿ÑƒĞ±Ğ»Ğ¸ĞºĞ° ĞĞµĞ¿Ğ°Ğ»,Federal Democratic Republic of Nepal,RÃ©publique dÃ©mocratique fÃ©dÃ©rale du Nepal,RepÃºblica Federal DemocrÃ¡tica de Nepal,"ÙEŠØ¨Ø§ÙE,å°¼æ³Šå°E",Ğ¤ĞµĞ´ĞµÑ€Ğ°Ñ‚Ğ¸Ğ²Ğ½Ğ°ÑEĞ”ĞµĞ¼Ğ¾ĞºÑ€Ğ°Ñ‚Ğ¸ÑEµÑEºĞ°ÑEĞ ĞµÑE¿ÑƒĞ±Ğ»Ğ¸ĞºĞ° ĞĞµĞ¿Ğ°Ğ»,Asia,Asie,Asia,,,,Least Developed Countries,Pays les moins avancÃ©s,PaÃ­ses menos adelantados,,,,Southern Asia,Asie mÃ©ridionale,Asia meridional,,,,,
528,150,NL,NLD,Netherlands,Pays-Bas,PaÃ­ses Bajos,ÙEˆÙEE¯Ø§,è·å…°ç‹å›½,"ĞĞ¸Ğ´ĞµÑ€Ğ»Ğ°Ğ½Ğ´ÑE,the Kingdom of the Netherlands""",le Royaume des Pays-Bas,el Reino de los PaÃ­ses Bajos,ÙEˆÙEE¯Ø§,è·å…°ç‹å›½,"ĞĞ¸Ğ´ĞµÑ€Ğ»Ğ°Ğ½Ğ´ÑE,Europe""",Europe,Europa,,,,Developed countries or areas,Pays ou zones dÃ©veloppÃ©s,PaÃ­ses o Ã¡reas desarrollados,,,,Western Europe,Europe occidentale,Europa occidental,,,,,
530,151,AN,ANT,Netherlands Antilles,Antilles nÃ©erlandaises,Antillas Neerlandesas,ÙEEØ¬Ø²Ø± Ø§ÙE£ÙEªÙŠÙEØ§ÙEEˆÙEE¯ÙŠØ©,"è·å±å®‰çš„åˆ—æ–¯äºº/å±å®‰çš„åˆ—æ–¯äººçšE,(Ğ¸Ğ·/ Ğ¶Ğ¸Ñ‚ĞµĞ»ÑE Ğ“Ğ¾Ğ»Ğ»Ğ°Ğ½Ğ´ÑEºĞ¸ÑEĞĞ½Ñ‚Ğ¸Ğ»ÑŒÑEºĞ¸ÑEĞ¾ÑE‚Ñ€Ğ¾Ğ²Ğ¾Ğ²""",Netherlands Antilles,les Antilles nÃ©erlandaises,Antillas Neerlandesas,ÙEEØ¬Ø²Ø± Ø§ÙE£ÙEªÙŠÙEØ§ÙEEˆÙEE¯ÙŠØ©,"è·å±å®‰çš„åˆ—æ–¯äºº/å±å®‰çš„åˆ—æ–¯äººçšE,(Ğ¸Ğ·/ Ğ¶Ğ¸Ñ‚ĞµĞ»ÑE Ğ“Ğ¾Ğ»Ğ»Ğ°Ğ½Ğ´ÑEºĞ¸ÑEĞĞ½Ñ‚Ğ¸Ğ»ÑŒÑEºĞ¸ÑEĞ¾ÑE‚Ñ€Ğ¾Ğ²Ğ¾Ğ²""",Americas,AmÃ©riques,AmÃ©ricas,,,,Other developing countries or areas,Autres pays ou zones en dÃ©veloppement,Otros paÃ­ses o Ã¡reas en desarrollo,,,,Caribbean,CaraÃ¯bes,Caribe,,,,,
536,152,,,Neutral Zone,Zone neutre,Zona Neutral,,,,,,,,,,,,,,,,,,,,,,,,,,,
540,153,NC,NCL,New Caledonia,Nouvelle-CalÃ©donie,Nueva Caledonia,Ø§ÙE¬Ø¯ÙŠØ¯Ø© ÙE§ÙEŠØ¯ÙˆÙEŠØ§,"æ–°å–€é‡Œå¤šå°¼äºE,ĞĞ¾Ğ²Ğ°ÑEĞšĞ°Ğ»ĞµĞ´Ğ¾Ğ½Ğ¸ÑE",New Caledonia,Nouvelle-CalÃ©donie,Nueva Caledonia,Ø§ÙE¬Ø¯ÙŠØ¯Ø© ÙE§ÙEŠØ¯ÙˆÙEŠØ§,"æ–°å–€é‡Œå¤šå°¼äºE,ĞĞ¾Ğ²Ğ°ÑEĞšĞ°Ğ»ĞµĞ´Ğ¾Ğ½Ğ¸ÑE",Oceania,OcÃ©anie,OceanÃ­a,,,,Other developing countries or areas,Autres pays ou zones en dÃ©veloppement,Otros paÃ­ses o Ã¡reas en desarrollo,,,,Melanesia,MÃ©lanÃ©sie,Melanesia,,,,,
807,154,MK,MKD,North Macedonia,MacÃ©doine du Nord,Macedonia del Norte,ÙE‚Ø¯ÙˆÙEŠØ§ Ø§ÙE´ÙE§ÙEŠØ©,åŒ—é©¬å…¶é¡¿,"Ğ¡ĞµĞ²ĞµÑ€Ğ½Ğ°ÑEĞœĞ°ĞºĞµĞ´Ğ¾Ğ½Ğ¸ÑE,the Republic of North Macedonia""",la RÃ©publique de MacÃ©doine du Nord,la RepÃºblica de Macedonia del Norte,Ø¬ÙEEˆØ±ÙŠØ© ÙE‚Ø¯ÙˆÙEŠØ§ Ø§ÙE´ÙE§ÙEŠØ©,åŒ—é©¬å…¶é¡¿å…±å’Œå›½,"Ğ ĞµÑE¿ÑƒĞ±Ğ»Ğ¸ĞºĞ° Ğ¡ĞµĞ²ĞµÑ€Ğ½Ğ°ÑEĞœĞ°ĞºĞµĞ´Ğ¾Ğ½Ğ¸ÑE,Europe""",Europe,Europa,,,,Developed countries or areas,Pays ou zones dÃ©veloppÃ©s,PaÃ­ses o Ã¡reas desarrollados,,,,Southern Europe,Europe mÃ©ridionale,Europa meridional,,,,,
548,155,VU,VUT,Vanuatu,Vanuatu,Vanuatu,"ÙE§ÙEˆØ§ØªÙE,ç“¦åŠªé˜¿å›¾å…±å’Œå›½""","Ğ ĞµÑE¿ÑƒĞ±Ğ»Ğ¸ĞºĞ° Ğ’Ğ°Ğ½ÑƒĞ°Ñ‚ÑE,the Republic of Vanuatu""",la RÃ©publique de Vanuatu,la RepÃºblica de Vanuatu,"ÙE§ÙEˆØ§ØªÙE,ç“¦åŠªé˜¿å›¾å…±å’Œå›½""","Ğ ĞµÑE¿ÑƒĞ±Ğ»Ğ¸ĞºĞ° Ğ’Ğ°Ğ½ÑƒĞ°Ñ‚ÑE,Oceania""",OcÃ©anie,OceanÃ­a,,,,Other developing countries or areas,Autres pays ou zones en dÃ©veloppement,Otros paÃ­ses o Ã¡reas en desarrollo,,,,Melanesia,MÃ©lanÃ©sie,Melanesia,,,,,,,
554,156,NZ,NZL,New Zealand,Nouvelle-ZÃ©lande,Nueva Zelandia,ÙEŠÙˆØ²ÙŠÙEE¯Ø§,æ–°è¥¿å…°,"ĞĞ¾Ğ²Ğ°ÑEĞ—ĞµĞ»Ğ°Ğ½Ğ´Ğ¸ÑE,New Zealand""",la Nouvelle-ZÃ©lande,Nueva Zelandia,ÙEŠÙˆØ²ÙŠÙEE¯Ø§,æ–°è¥¿å…°,"ĞĞ¾Ğ²Ğ°ÑEĞ—ĞµĞ»Ğ°Ğ½Ğ´Ğ¸ÑE,Oceania""",OcÃ©anie,OceanÃ­a,,,,Developed countries or areas,Pays ou zones dÃ©veloppÃ©s,PaÃ­ses o Ã¡reas desarrollados,,,,Australia and New Zealand,Australie et Nouvelle-ZÃ©lande,Australia y Nueva Zelandia,,,,,
558,157,NI,NIC,Nicaragua,Nicaragua,Nicaragua,ÙEŠÙE§Ø±Ø§ØºÙˆØ§,å°¼åŠ æ‹‰ç“œå…±å’Œå›½,ĞĞ¸ĞºĞ°Ñ€Ğ°Ğ³ÑƒĞ°,the Republic of Nicaragua,la RÃ©publique du Nicaragua,la RepÃºblica de Nicaragua,ÙEŠÙE§Ø±Ø§ØºÙˆØ§,å°¼åŠ æ‹‰ç“œå…±å’Œå›½,ĞĞ¸ĞºĞ°Ñ€Ğ°Ğ³ÑƒĞ°,Americas,AmÃ©riques,AmÃ©ricas,,,,Other developing countries or areas,Autres pays ou zones en dÃ©veloppement,Otros paÃ­ses o Ã¡reas en desarrollo,,,,Central America,AmÃ©rique centrale,AmÃ©rica central,,,
562,158,NE,NER,Niger,Niger,NÃ­ger,Ø§ÙEEŠØ¬Ø±,"å°¼æ—¥å°E,Ğ ĞµÑE¿ÑƒĞ±Ğ»Ğ¸ĞºĞ° ĞĞ¸Ğ³ĞµÑ€""",the Republic of the Niger,la RÃ©publique du Niger,la RepÃºblica del NÃ­ger,Ø§ÙEEŠØ¬Ø±,"å°¼æ—¥å°E,Ğ ĞµÑE¿ÑƒĞ±Ğ»Ğ¸ĞºĞ° ĞĞ¸Ğ³ĞµÑ€""",Africa,Afrique,Ãfrica,,,,Least Developed Countries,Pays les moins avancÃ©s,PaÃ­ses menos adelantados,,,,Western Africa,Afrique occidentale,Ãfrica occidental,,,,,
566,159,NG,NGA,Nigeria,NigÃ©ria,Nigeria,ÙEŠØ¬ÙŠØ±ÙŠØ§,"å°¼æ—¥åˆ©äºE,ĞĞ¸Ğ³ĞµÑ€Ğ¸ÑE",the Federal Republic of Nigeria,la RÃ©publique fÃ©dÃ©rale du NigÃ©ria,la RepÃºblica Federal de Nigeria,ÙEŠØ¬ÙŠØ±ÙŠØ§,"å°¼æ—¥åˆ©äºE,ĞĞ¸Ğ³ĞµÑ€Ğ¸ÑE",Africa,Afrique,Ãfrica,,,,Other developing countries or areas,Autres pays ou zones en dÃ©veloppement,Otros paÃ­ses o Ã¡reas en desarrollo,,,,Western Africa,Afrique occidentale,Ãfrica occidental,,,,,
570,160,NU,NIU,Niue,NiouÃ©,Niue,"ÙEŠÙˆÙE,çº½åŸE","ĞĞ¸ÑƒÑE,the Republic of Niue""",la RÃ©publique de NiouÃ©,la RepÃºblica de Niue,"ÙEŠÙˆÙE,çº½åŸE","ĞĞ¸ÑƒÑE,Oceania""",OcÃ©anie,OceanÃ­a,,,,Other developing countries or areas,Autres pays ou zones en dÃ©veloppement,Otros paÃ­ses o Ã¡reas en desarrollo,,,,Polynesia,PolynÃ©sie,Polinesia,,,,,,,
574,161,NF,NFK,Norfolk Island,Ãle Norfolk,Isla Norfolk,ÙEEˆØ±ÙEˆÙEEÙE¬Ø²ÙŠØ±Ø© ØªØ§Ø¨Ø¹Ø© ÙEE§Ø·ÙEÙEˆØ±ÙEˆÙEE Ø¬Ø²ÙŠØ±Ø©,"è¯ºç¦åEå²E,Ğ¾ÑE‚Ñ€Ğ¾Ğ² ĞĞ¾Ñ€ÑE¾Ğ»Ğº""",Territory of Norfolk Island,Ãle Norfolk,Isla Norfolk,ÙEEˆØ±ÙEˆÙEEÙE¬Ø²ÙŠØ±Ø© ØªØ§Ø¨Ø¹Ø© ÙEE§Ø·ÙEÙEˆØ±ÙEˆÙEE Ø¬Ø²ÙŠØ±Ø©,"è¯ºç¦åEå²E,Ğ¾ÑE‚Ñ€Ğ¾Ğ² ĞĞ¾Ñ€ÑE¾Ğ»Ğº""",Oceania,OcÃ©anie,OceanÃ­a,,,,Developed countries or areas,Pays ou zones dÃ©veloppÃ©s,PaÃ­ses o Ã¡reas desarrollados,,,,Australia and New Zealand,Australie et Nouvelle-ZÃ©lande,Australia y Nueva Zelandia,,,,,
578,162,NO,NOR,Norway,NorvÃ¨ge,Noruega,Ø§ÙEE±ÙˆÙŠØ¬,"æŒª å¨E,ĞĞ¾Ñ€Ğ²ĞµĞ³Ğ¸ÑE",the Kingdom of Norway,le Royaume de NorvÃ¨ge,el Reino de Noruega,Ø§ÙEE±ÙˆÙŠØ¬,"æŒª å¨E,ĞĞ¾Ñ€Ğ²ĞµĞ³Ğ¸ÑE",Europe,Europe,Europa,,,,Developed countries or areas,Pays ou zones dÃ©veloppÃ©s,PaÃ­ses o Ã¡reas desarrollados,,,,Northern Europe,Europe septentrionale,Europa del Norte,,,,,
580,163,MP,MNP,Northern Mariana Is.,Ãles Mariannes du Nord,Islas Marianas septent.,Ø§ÙE´ÙE§ÙEŠØ© ÙE§Ø±ÙŠØ§ÙE§ Ø¬Ø²Ø±,"åŒ—é©¬é‡Œäºšçº³ç¾¤å²E,Ğ¡ĞµĞ²ĞµÑ€Ğ½Ñ‹Ğµ ĞœĞ°Ñ€Ğ¸Ğ°Ğ½ÑEºĞ¸Ğµ Ğ¾ÑE‚Ñ€Ğ¾Ğ²Ğ°""",Northern Mariana Islands,Commonwealth des Mariannes du Nord,Islas Marianas septentrionales,Ø§ÙE´ÙE§ÙEŠØ© ÙE§Ø±ÙŠØ§ÙE§ Ø¬Ø²Ø±,"åŒ—é©¬é‡Œäºšçº³ç¾¤å²E,Ğ¡Ğ¾Ğ´Ñ€ÑƒĞ¶ĞµÑE‚Ğ²Ğ¾ Ğ¡ĞµĞ²ĞµÑ€Ğ½Ñ‹ÑEĞœĞ°Ñ€Ğ¸Ğ°Ğ½ÑEºĞ¸ÑEĞ¾ÑE‚Ñ€Ğ¾Ğ²Ğ¾Ğ²""",Oceania,OcÃ©anie,OceanÃ­a,,,,Other developing countries or areas,Autres pays ou zones en dÃ©veloppement,Otros paÃ­ses o Ã¡reas en desarrollo,,,,Micronesia,MicronÃ©sie,Micronesia,,,,,
582,164,,,Pacific Islands Trust Tr,"Pacifique, Ãles du","Pacifico, Islas del",,,,Pacific Islands Trust Territory,Territoire des Ãles du Pacifique,Territorio de las Islas del PacÃ­fico,,,,,,,,,,,,,,,,,,,,,
586,165,PK,PAK,Pakistan,Pakistan,PakistÃ¡n,"Ø¨Ø§ÙE³ØªØ§ÙE,å·´åŸºæ–¯å¦""",ĞŸĞ°ĞºĞ¸ÑE‚Ğ°Ğ½,the Islamic Republic of Pakistan,la RÃ©publique islamique du Pakistan,la RepÃºblica IslÃ¡mica del PakistÃ¡n,"Ø¨Ø§ÙE³ØªØ§ÙE,å·´åŸºæ–¯å¦""",ĞŸĞ°ĞºĞ¸ÑE‚Ğ°Ğ½,Asia,Asie,Asia,,,,Other developing countries or areas,Autres pays ou zones en dÃ©veloppement,Otros paÃ­ses o Ã¡reas en desarrollo,,,,Southern Asia,Asie mÃ©ridionale,Asia meridional,,,,,
591,166,PA,PAN,Panama,Panama,PanamÃ¡,Ø¬ÙEEˆØ±ÙŠØ© Ø¨ÙEE§,å·´æ‹¿é©¬,ĞŸĞ°Ğ½Ğ°Ğ¼Ğ°,the Republic of Panama,la RÃ©publique du Panama,la RepÃºblica de PanamÃ¡,Ø¬ÙEEˆØ±ÙŠØ© Ø¨ÙEE§,å·´æ‹¿é©¬,ĞŸĞ°Ğ½Ğ°Ğ¼Ğ°,Americas,AmÃ©riques,AmÃ©ricas,,,,Other developing countries or areas,Autres pays ou zones en dÃ©veloppement,Otros paÃ­ses o Ã¡reas en desarrollo,,,,Central America,AmÃ©rique centrale,AmÃ©rica central,,,
203,167,CZ,CZE,Czechia,TchÃ©quie,Chequia,"Ø§ÙEªØ´ÙŠÙE,æ·å…E","Ğ§ĞµÑE¸ÑE,the Czech Republic""",la RÃ©publique tchÃ¨que,la RepÃºblica Checa,Ø§ÙEªØ´ÙŠÙEŠÙ‘Ø© Ø§ÙE¬ÙEEˆØ±ÙŠÙ‘Ø©,æ·å…‹åEå’Œå›½,Ğ§ĞµÑˆÑEºĞ°ÑEĞ ĞµÑE¿ÑƒĞ±Ğ»Ğ¸ĞºĞ°,Europe,Europe,Europa,,,,Developed countries or areas,Pays ou zones dÃ©veloppÃ©s,PaÃ­ses o Ã¡reas desarrollados,,,,Eastern Europe,Europe orientale,Europa oriental,,,,,
598,168,PG,PNG,Papua New Guinea,Papouasie-Nlle-GuinÃ©e,Papua Nueva Guinea,Ø§ÙE¬Ø¯ÙŠØ¯Ø© ØºÙŠÙEŠØ§ Ø¨Ø§Ø¨ÙˆØ§,å·´å¸Eºšæ–°å‡ å†Eºšç‹¬ç«‹å›½,"ĞŸĞ°Ğ¿ÑƒĞ°-ĞĞ¾Ğ²Ğ°ÑEĞ“Ğ²Ğ¸Ğ½ĞµÑE,Independent State of Papua New Guinea""",Ã‰tat indÃ©pendant de Papouasie-Nouvelle-GuinÃ©e,Estado Independiente de Papua Nueva Guinea,Ø§ÙEE³ØªÙ‚ÙE© Ø§ÙE¬Ø¯ÙŠØ¯Ø© ØºÙŠÙEŠØ§ Ø¨Ø§Ø¨ÙˆØ§ Ø¯ÙˆÙE©,å·´å¸Eºšæ–°å‡ å†Eºšç‹¬ç«‹å›½,"ĞĞµĞ·Ğ°Ğ²Ğ¸ÑE¸Ğ¼Ğ¾Ğµ Ğ³Ğ¾ÑEƒĞ´Ğ°Ñ€ÑE‚Ğ²Ğ¾ ĞŸĞ°Ğ¿ÑƒĞ°-ĞĞ¾Ğ²Ğ°ÑEĞ“Ğ²Ğ¸Ğ½ĞµÑE,Oceania""",OcÃ©anie,OceanÃ­a,,,,Other developing countries or areas,Autres pays ou zones en dÃ©veloppement,Otros paÃ­ses o Ã¡reas en desarrollo,,,,Melanesia,MÃ©lanÃ©sie,Melanesia,,,,,
600,169,PY,PRY,Paraguay,Paraguay,Paraguay,"Ø¨Ø§Ø±Ø§ØºÙˆØ§ÙE,å·´æ‹‰åœ­""",ĞŸĞ°Ñ€Ğ°Ğ³Ğ²Ğ°Ğ¹,the Republic of Paraguay,la RÃ©publique du Paraguay,la RepÃºblica del Paraguay,"Ø¨Ø§Ø±Ø§ØºÙˆØ§ÙE,å·´æ‹‰åœ­""",ĞŸĞ°Ñ€Ğ°Ğ³Ğ²Ğ°Ğ¹,Americas,AmÃ©riques,AmÃ©ricas,,,,Other developing countries or areas,Autres pays ou zones en dÃ©veloppement,Otros paÃ­ses o Ã¡reas en desarrollo,,,,South America,AmÃ©rique du Sud,AmÃ©rica del Sur,,,,,
604,170,PE,PER,Peru,PÃ©rou,PerÃº,"Ø¨ÙŠØ±ÙE,ç§˜é²åEå’Œå›½""","ĞŸĞµÑ€ÑE,the Republic of Peru""",la RÃ©publique du PÃ©rou,la RepÃºblica del PerÃº,"Ø¨ÙŠØ±ÙE,ç§˜é²åEå’Œå›½""","ĞŸĞµÑ€ÑE,Americas""",AmÃ©riques,AmÃ©ricas,,,,Other developing countries or areas,Autres pays ou zones en dÃ©veloppement,Otros paÃ­ses o Ã¡reas en desarrollo,,,,South America,AmÃ©rique du Sud,AmÃ©rica del Sur,,,,,,,
608,171,PH,PHL,Philippines,Philippines,Filipinas,"Ø¬ÙEEˆØ±ÙŠØ© Ø§ÙEEE¨ÙŠÙE,è²å¾‹å®¾å…±å’Œå›½""","Ğ ĞµÑE¿ÑƒĞ±Ğ»Ğ¸ĞºĞ° Ğ¤Ğ¸Ğ»Ğ¸Ğ¿Ğ¿Ğ¸Ğ½ÑE,the Republic of the Philippines""",la RÃ©publique des Philippines,la RepÃºblica de Filipinas,"Ø¬ÙEEˆØ±ÙŠØ© Ø§ÙEEE¨ÙŠÙE,è²å¾‹å®¾å…±å’Œå›½""","Ğ ĞµÑE¿ÑƒĞ±Ğ»Ğ¸ĞºĞ° Ğ¤Ğ¸Ğ»Ğ¸Ğ¿Ğ¿Ğ¸Ğ½ÑE,Asia""",Asie,Asia,,,,Other developing countries or areas,Autres pays ou zones en dÃ©veloppement,Otros paÃ­ses o Ã¡reas en desarrollo,,,,South-Eastern Asia,Asie du Sud-Est,Asia sudoriental,,,,,,,
612,172,PN,PCN,Pitcairn Islands,Ãles Pitcairn,Islas Pitcairn,Ø¨ÙŠØªÙEŠØ±ÙEØ¬Ø²Ø±,"çš®ç‰¹å…‹æ©å²E,ĞŸĞ¸Ñ‚ĞºÑÑ€Ğ½""",Pitcairn Islands,Ãles Pitcairn,Islas Pitcairn,Ø¨ÙŠØªÙEŠØ±ÙEØ¬Ø²Ø±,"çš®ç‰¹å…‹æ©å²E,ĞŸĞ¸Ñ‚ĞºÑÑ€Ğ½""",Oceania,OcÃ©anie,OceanÃ­a,,,,Other developing countries or areas,Autres pays ou zones en dÃ©veloppement,Otros paÃ­ses o Ã¡reas en desarrollo,,,,Polynesia,PolynÃ©sie,Polinesia,,,,,
616,173,PL,POL,Poland,Pologne,Polonia,Ø¨ÙˆÙEE¯Ø§,æ³¢ å…°,ĞŸĞ¾Ğ»ÑŒÑˆĞ°,the Republic of Poland,la RÃ©publique de Pologne,la RepÃºblica de Polonia,Ø¨ÙˆÙEE¯Ø§,æ³¢ å…°,ĞŸĞ¾Ğ»ÑŒÑˆĞ°,Europe,Europe,Europa,,,,Developed countries or areas,Pays ou zones dÃ©veloppÃ©s,PaÃ­ses o Ã¡reas desarrollados,,,,Eastern Europe,Europe orientale,Europa oriental,,,
620,174,PT,PRT,Portugal,Portugal,Portugal,"Ø§ÙE¨Ø±ØªØºØ§ÙE,è‘¡èE‰™""",ĞŸĞ¾Ñ€Ñ‚ÑƒĞ³Ğ°Ğ»ÑŒÑEºĞ°ÑEĞ ĞµÑE¿ÑƒĞ±Ğ»Ğ¸ĞºĞ°,the Portuguese Republic,la RÃ©publique portugaise,la RepÃºblica Portuguesa,"Ø§ÙE¨Ø±ØªØºØ§ÙE,è‘¡èE‰™""",ĞŸĞ¾Ñ€Ñ‚ÑƒĞ³Ğ°Ğ»ÑŒÑEºĞ°ÑEĞ ĞµÑE¿ÑƒĞ±Ğ»Ğ¸ĞºĞ°,Europe,Europe,Europa,,,,Developed countries or areas,Pays ou zones dÃ©veloppÃ©s,PaÃ­ses o Ã¡reas desarrollados,,,,Southern Europe,Europe mÃ©ridionale,Europa meridional,,,,,
624,175,GW,GNB,Guinea-Bissau,GuinÃ©e-Bissau,Guinea-Bissau,"ØºÙŠÙEŠØ§ - Ø¨ÙŠØ³Ø§ÙE,å‡ å†Eºšæ¯”ç»E","Ğ“Ğ²Ğ¸Ğ½ĞµÑEĞ‘Ğ¸ÑE°ÑE,the Republic of Guinea-Bissau""",la RÃ©publique de GuinÃ©e-Bissau,la RepÃºblica de Guinea-Bissau,"ØºÙŠÙEŠØ§ - Ø¨ÙŠØ³Ø§ÙE,å‡ å†Eºšæ¯”ç»E","Ğ“Ğ²Ğ¸Ğ½ĞµÑEĞ‘Ğ¸ÑE°ÑE,Africa""",Afrique,Ãfrica,,,,Least Developed Countries,Pays les moins avancÃ©s,PaÃ­ses menos adelantados,,,,Western Africa,Afrique occidentale,Ãfrica occidental,,,,,,,
626,176,TL,TLS,Timor-Leste,Timor-Leste,Timor-Leste,"ØªÙŠÙEˆØ±- ÙEŠØ´ØªÙE,ä¸œå¸æ±¶""",Ğ¢Ğ¸Ğ¼Ğ¾Ñ€-Ğ›ĞµÑˆÑ‚Ğ¸,the Democratic Republic of Timor-Leste,la RÃ©publique dÃ©mocratique du Timor-Leste,la RepÃºblica DemocrÃ¡tica de Timor-Leste,"ØªÙŠÙEˆØ±- ÙEŠØ´ØªÙE,ä¸œå¸æ±¶""",Ğ¢Ğ¸Ğ¼Ğ¾Ñ€-Ğ›ĞµÑˆÑ‚Ğ¸,Asia,Asie,Asia,,,,Least Developed Countries,Pays les moins avancÃ©s,PaÃ­ses menos adelantados,,,,South-Eastern Asia,Asie du Sud-Est,Asia sudoriental,,,,,
630,177,PR,PRI,Puerto Rico,Porto Rico,Puerto Rico,"Ø¨ÙˆØ±ØªÙˆØ±ÙŠÙEE,æ³¢å¤šé»å„""",ĞŸÑƒÑÑ€Ñ‚Ğ¾-Ğ Ğ¸ĞºĞ¾,Puerto Rico,Porto Rico,Puerto Rico,Ø¨ÙˆØ±ØªÙˆØ±ÙŠÙEEÙEEEˆÙE«,æ³¢å¤šé»å„è‡ªç”±è”é‚¦,Ğ¡Ğ¾Ğ´Ñ€ÑƒĞ¶ĞµÑE‚Ğ²Ğ¾ ĞŸÑƒÑÑ€Ñ‚Ğ¾-Ğ Ğ¸ĞºĞ¾,Americas,AmÃ©riques,AmÃ©ricas,,,,Other developing countries or areas,Autres pays ou zones en dÃ©veloppement,Otros paÃ­ses o Ã¡reas en desarrollo,,,,Caribbean,CaraÃ¯bes,Caribe,,,,
232,178,ER,ERI,Eritrea,Ã‰rythrÃ©e,Eritrea,Ø¥Ø±ÙŠØªØ±ÙŠØ§,"åE«‹ç‰¹é‡ŒäºE,Ğ­Ñ€Ğ¸Ñ‚Ñ€ĞµÑE",the State of Eritrea,l'Ã‰tat d'Ã‰rythrÃ©e,el Estado de Eritrea,Ø¥Ø±ÙŠØªØ±ÙŠØ§ Ø¯ÙˆÙE©,åE«‹ç‰¹é‡Œäºšå›½,"Ğ“Ğ¾ÑEƒĞ´Ğ°Ñ€ÑE‚Ğ²Ğ¾ Ğ­Ñ€Ğ¸Ñ‚Ñ€ĞµÑE,Africa""",Afrique,Ãfrica,,,,Least Developed Countries,Pays les moins avancÃ©s,PaÃ­ses menos adelantados,,,,Eastern Africa,Afrique orientale,Ãfrica oriental,,,,,
634,179,QA,QAT,Qatar,Qatar,Qatar,Ø¯ÙˆÙE© Ù‚Ø·Ø±,"å¡å¡”å°E,Ğ“Ğ¾ÑEƒĞ´Ğ°Ñ€ÑE‚Ğ²Ğ¾ ĞšĞ°Ñ‚Ğ°Ñ€""",the State of Qatar,l'Ã‰tat du Qatar,el Estado de Qatar,Ø¯ÙˆÙE© Ù‚Ø·Ø±,"å¡å¡”å°E,Ğ“Ğ¾ÑEƒĞ´Ğ°Ñ€ÑE‚Ğ²Ğ¾ ĞšĞ°Ñ‚Ğ°Ñ€""",Asia,Asie,Asia,,,,Other developing countries or areas,Autres pays ou zones en dÃ©veloppement,Otros paÃ­ses o Ã¡reas en desarrollo,,,,Western Asia,Asie occidentale,Asia occidental,,,,,
585,180,PW,PLW,Palau,Palaos,Palau,"Ø¨Ø§ÙE§ÙE,å¸•åŠ³å…±å’Œå›½""","ĞŸĞ°Ğ»Ğ°ÑE,the Republic of Palau""",la RÃ©publique des Palaos,la RepÃºblica de Palau,"Ø¨Ø§ÙE§ÙE,å¸•åŠ³å…±å’Œå›½""","ĞŸĞ°Ğ»Ğ°ÑE,Oceania""",OcÃ©anie,OceanÃ­a,,,,Other developing countries or areas,Autres pays ou zones en dÃ©veloppement,Otros paÃ­ses o Ã¡reas en desarrollo,,,,Micronesia,MicronÃ©sie,Micronesia,,,,,,,
716,181,ZW,ZWE,Zimbabwe,Zimbabwe,Zimbabwe,"Ø¬ÙEEˆØ±ÙŠØ© Ø²ÙE¨Ø§Ø¨ÙˆÙE,æ´¥å·´å¸EŸ¦""",Ğ ĞµÑE¿ÑƒĞ±Ğ»Ğ¸ĞºĞ° Ğ—Ğ¸Ğ¼Ğ±Ğ°Ğ±Ğ²Ğµ,the Republic of Zimbabwe,la RÃ©publique du Zimbabwe,la RepÃºblica de Zimbabwe,"Ø¬ÙEEˆØ±ÙŠØ© Ø²ÙE¨Ø§Ø¨ÙˆÙE,æ´¥å·´å¸EŸ¦""",Ğ ĞµÑE¿ÑƒĞ±Ğ»Ğ¸ĞºĞ° Ğ—Ğ¸Ğ¼Ğ±Ğ°Ğ±Ğ²Ğµ,Africa,Afrique,Ãfrica,,,,Other developing countries or areas,Autres pays ou zones en dÃ©veloppement,Otros paÃ­ses o Ã¡reas en desarrollo,,,,Eastern Africa,Afrique orientale,Ãfrica oriental,,,,,
638,182,RE,REU,RÃ©union,RÃ©union,ReuniÃ³n,"Ø±ÙŠÙŠÙˆÙEŠÙˆÙE,ç•™å°¼æ±ª""",Ğ ĞµÑĞ½ÑŒĞ¾Ğ½,RÃ©union,RÃ©union,ReuniÃ³n,"Ø±ÙŠÙŠÙˆÙEŠÙˆÙE,ç•™å°¼æ±ª""",Ğ ĞµÑĞ½ÑŒĞ¾Ğ½,Africa,Afrique,Ãfrica,,,,Other developing countries or areas,Autres pays ou zones en dÃ©veloppement,Otros paÃ­ses o Ã¡reas en desarrollo,,,,Eastern Africa,Afrique orientale,Ãfrica oriental,,,,,
642,183,RO,ROU,Romania,Roumanie,Rumania,Ø±ÙˆÙE§ÙEŠØ§,"ç½—é©¬å°¼äºE,Ğ ÑƒĞ¼Ñ‹Ğ½Ğ¸ÑE",Romania,la Roumanie,Rumania,Ø±ÙˆÙE§ÙEŠØ§,"ç½—é©¬å°¼äºE,Ğ ÑƒĞ¼Ñ‹Ğ½Ğ¸ÑE",Europe,Europe,Europa,,,,Developed countries or areas,Pays ou zones dÃ©veloppÃ©s,PaÃ­ses o Ã¡reas desarrollados,,,,Eastern Europe,Europe orientale,Europa oriental,,,,,
646,184,RW,RWA,Rwanda,Rwanda,Rwanda,Ø±ÙˆØ§ÙE¯Ø§,å¢æ—ºè¾¾,Ğ ÑƒĞ°Ğ½Ğ´Ğ°,the Republic of Rwanda,la RÃ©publique du Rwanda,la RepÃºblica de Rwanda,Ø±ÙˆØ§ÙE¯Ø§,å¢æ—ºè¾¾,Ğ ÑƒĞ°Ğ½Ğ´Ğ°,Africa,Afrique,Ãfrica,,,,Least Developed Countries,Pays les moins avancÃ©s,PaÃ­ses menos adelantados,,,,Eastern Africa,Afrique orientale,Ãfrica oriental,,,
643,185,RU,RUS,Russian Federation,FÃ©dÃ©ration de Russie,FederaciÃ³n de Rusia,"Ø§ÙE§ØªØ­Ø§Ø¯ Ø§ÙE±ÙˆØ³ÙE,ä¿E½—æ–¯è”é‚¦""","Ğ Ğ¾ÑEE¸Ğ¹ÑEºĞ°ÑEĞ¤ĞµĞ´ĞµÑ€Ğ°ÑE¸ÑE,the Russian Federation""",la FÃ©dÃ©ration de Russie,la FederaciÃ³n de Rusia,"Ø§ÙE§ØªØ­Ø§Ø¯ Ø§ÙE±ÙˆØ³ÙE,ä¿E½—æ–¯è”é‚¦""","Ğ Ğ¾ÑEE¸Ğ¹ÑEºĞ°ÑEĞ¤ĞµĞ´ĞµÑ€Ğ°ÑE¸ÑE,Europe""",Europe,Europa,,,,Developed countries or areas,Pays ou zones dÃ©veloppÃ©s,PaÃ­ses o Ã¡reas desarrollados,,,,Eastern Europe,Europe orientale,Europa oriental,,,,,,,
891,186,CS,SCG,Serbia and Montenegro,Serbie-et-MontÃ©nÃ©gro,Serbia y Montenegro,,,,Serbia and Montenegro,Serbie-et-MontÃ©nÃ©gro,Serbia y Montenegro,,,,Europe,Europe,Europa,,,,Developed countries or areas,Pays ou zones dÃ©veloppÃ©s,PaÃ­ses o Ã¡reas desarrollados,,,,Southern Europe,Europe mÃ©ridionale,Europa meridional,,,
654,187,SH,SHN,Saint Helena,Sainte-HÃ©lÃ¨ne,Santa Elena,ÙEˆÙE§ Ø¯Ø§ ÙˆØªØ±ÙŠØ³ØªØ§ÙEÙˆØ£Ø³ÙE³ÙŠÙˆÙEÙEŠÙE§ÙE© Ø³Ø§ÙEª,"åœ£èµ«å‹’æ‹¿ã€E˜¿æ£®æ¾å’Œç‰¹é‡Œæ–¯å¦è¾¾åº“å°¼äºE,Ğ¾ÑE‚Ñ€Ğ¾Ğ²Ğ° Ğ¡Ğ²ÑÑ‚Ğ¾Ğ¹ Ğ•Ğ»ĞµĞ½ÑE Ğ’Ğ¾Ğ·Ğ½ĞµÑEµĞ½Ğ¸ÑEĞ¸ Ğ¢Ñ€Ğ¸ÑE‚Ğ°Ğ½-Ğ´Ğ°-ĞšÑƒĞ½ÑŒÑE","Saint Helena, Ascension and Tristan da Cunha","Sainte-HÃ©lÃ¨ne, Ascension et Tristan da Cunha","Santa Elena, Ascension y Tristan da Cunha",ÙEˆÙE§ Ø¯Ø§ ÙˆØªØ±ÙŠØ³ØªØ§ÙEÙˆØ£Ø³ÙE³ÙŠÙˆÙEÙEŠÙE§ÙE© Ø³Ø§ÙEª,"åœ£èµ«å‹’æ‹¿ã€E˜¿æ£®æ¾å’Œç‰¹é‡Œæ–¯å¦è¾¾åº“å°¼äºE,Ğ¾ÑE‚Ñ€Ğ¾Ğ²Ğ° Ğ¡Ğ²ÑÑ‚Ğ¾Ğ¹ Ğ•Ğ»ĞµĞ½ÑE Ğ’Ğ¾Ğ·Ğ½ĞµÑEµĞ½Ğ¸ÑEĞ¸ Ğ¢Ñ€Ğ¸ÑE‚Ğ°Ğ½-Ğ´Ğ°-ĞšÑƒĞ½ÑŒÑE",Africa,Afrique,Ãfrica,,,,Other developing countries or areas,Autres pays ou zones en dÃ©veloppement,Otros paÃ­ses o Ã¡reas en desarrollo,,,,Western Africa,Afrique occidentale,Ãfrica occidental,,,,,
659,188,KN,KNA,Saint Kitts and Nevis,Saint-Kitts-et-Nevis,Saint Kitts y Nevis,Ø³Ø§ÙEª ÙEŠØªØ³ ÙˆÙEŠÙEŠØ³,åœ£åŸºèŒ¨å’Œå°¼ç»´æ–¯,"Ğ¡ĞµĞ½ÑEĞšĞ¸Ñ‚ÑEĞ¸ ĞĞµĞ²Ğ¸ÑE,Saint Kitts and Nevis""",Saint-Kitts-et-Nevis,Saint Kitts y Nevis,Ø³Ø§ÙEª ÙEŠØªØ³ ÙˆÙEŠÙEŠØ³,åœ£åŸºèŒ¨å’Œå°¼ç»´æ–¯,"Ğ¡ĞµĞ½ÑEĞšĞ¸Ñ‚ÑEĞ¸ ĞĞµĞ²Ğ¸ÑE,Americas""",AmÃ©riques,AmÃ©ricas,,,,Other developing countries or areas,Autres pays ou zones en dÃ©veloppement,Otros paÃ­ses o Ã¡reas en desarrollo,,,,Caribbean,CaraÃ¯bes,Caribe,,,,,
662,189,LC,LCA,Saint Lucia,Sainte-Lucie,Santa LucÃ­a,Ø³Ø§ÙEª ÙEˆØ³ÙŠØ§,"åœ£å¢è¥¿äºE,Ğ¡ĞµĞ½ÑEĞ›ÑÑE¸ÑE",Saint Lucia,Sainte-Lucie,Santa LucÃ­a,Ø³Ø§ÙEª ÙEˆØ³ÙŠØ§,"åœ£å¢è¥¿äºE,Ğ¡ĞµĞ½ÑEĞ›ÑÑE¸ÑE",Americas,AmÃ©riques,AmÃ©ricas,,,,Other developing countries or areas,Autres pays ou zones en dÃ©veloppement,Otros paÃ­ses o Ã¡reas en desarrollo,,,,Caribbean,CaraÃ¯bes,Caribe,,,,,
666,190,PM,SPM,St. Pierre and Miquelon,Saint-Pierre-et-Miquelon,San Pedro y MiquelÃ³n,"ÙEŠÙEEˆÙEØ¥ÙEØ¨ÙŠÙŠØ± Ø³Ø§ÙE,åœ£çš®åŸE°”å’Œå¯EEéšE",Ğ¡ĞµĞ½-ĞŸÑŒĞµÑ€ Ğ¸ ĞœĞ¸ĞºĞµĞ»Ğ¾Ğ½,Saint Pierre and Miquelon,Saint-Pierre-et-Miquelon,Saint-Pierre y Miquelon,"ÙEŠÙEEˆÙEØ¥ÙEØ¨ÙŠÙŠØ± Ø³Ø§ÙE,åœ£çš®åŸE°”å’Œå¯EEéšE",Ğ¡ĞµĞ½-ĞŸÑŒĞµÑ€ Ğ¸ ĞœĞ¸ĞºĞµĞ»Ğ¾Ğ½,Americas,AmÃ©riques,AmÃ©ricas,,,,Developed countries or areas,Pays ou zones dÃ©veloppÃ©s,PaÃ­ses o Ã¡reas desarrollados,,,,Northern America,AmÃ©rique du Nord,AmÃ©rica del Norte,,,,,
670,191,VC,VCT,Saint Vincent/Grenadines,Saint-Vincent/Grenadines,San Vicente/Grenadinas,"Ø³Ø§ÙEª ÙEE³ÙEª ÙˆØ¬Ø²Ø± ØºØ±ÙŠÙE§Ø¯ÙŠÙE,åœ£æ–E£®ç‰¹å’Œæ ¼æ—çº³ä¸æ–¯""","Ğ¡ĞµĞ½ÑEĞ’Ğ¸Ğ½ÑEµĞ½ÑEĞ¸ Ğ“Ñ€ĞµĞ½Ğ°Ğ´Ğ¸Ğ½ÑE,Saint Vincent and the Grenadines""",Saint-Vincent-et-les Grenadines,San Vicente y las Granadinas,"Ø³Ø§ÙEª ÙEE³ÙEª ÙˆØ¬Ø²Ø± ØºØ±ÙŠÙE§Ø¯ÙŠÙE,åœ£æ–E£®ç‰¹å’Œæ ¼æ—çº³ä¸æ–¯""","Ğ¡ĞµĞ½ÑEĞ’Ğ¸Ğ½ÑEµĞ½ÑEĞ¸ Ğ“Ñ€ĞµĞ½Ğ°Ğ´Ğ¸Ğ½ÑE,Americas""",AmÃ©riques,AmÃ©ricas,,,,Other developing countries or areas,Autres pays ou zones en dÃ©veloppement,Otros paÃ­ses o Ã¡reas en desarrollo,,,,Caribbean,CaraÃ¯bes,Caribe,,,,,,,
674,192,SM,SMR,San Marino,Saint-Marin,San Marino,"Ø¬ÙEEˆØ±ÙŠØ© Ø³Ø§ÙEÙE§Ø±ÙŠÙEE,åœ£é©¬åŠ›è¯º""",Ğ ĞµÑE¿ÑƒĞ±Ğ»Ğ¸ĞºĞ° Ğ¡Ğ°Ğ½-ĞœĞ°Ñ€Ğ¸Ğ½Ğ¾,the Republic of San Marino,la RÃ©publique de Saint-Marin,la RepÃºblica de San Marino,"Ø¬ÙEEˆØ±ÙŠØ© Ø³Ø§ÙEÙE§Ø±ÙŠÙEE,åœ£é©¬åŠ›è¯º""",Ğ ĞµÑE¿ÑƒĞ±Ğ»Ğ¸ĞºĞ° Ğ¡Ğ°Ğ½-ĞœĞ°Ñ€Ğ¸Ğ½Ğ¾,Europe,Europe,Europa,,,,Developed countries or areas,Pays ou zones dÃ©veloppÃ©s,PaÃ­ses o Ã¡reas desarrollados,,,,Southern Europe,Europe mÃ©ridionale,Europa meridional,,,,,
678,193,ST,STP,Sao Tome and Principe,Sao TomÃ©-et-Principe,Santo TomÃ© y PrÃ­ncipe,"Ø³Ø§ÙEØªÙˆÙEEÙˆØ¨Ø±ÙE³ÙŠØ¨ÙE,åœ£å¤šç¾å’Œæ™®æ—è¥¿æ¯E",Ğ¡Ğ°Ğ½-Ğ¢Ğ¾Ğ¼Ğµ Ğ¸ ĞŸÑ€Ğ¸Ğ½ÑE¸Ğ¿Ğ¸,the Democratic Republic of Sao Tome and Principe,la RÃ©publique dÃ©mocratique de Sao TomÃ©-et-Principe,la RepÃºblica DemocrÃ¡tica de Santo TomÃ© y PrÃ­ncipe,"Ø³Ø§ÙEØªÙˆÙEEÙˆØ¨Ø±ÙE³ÙŠØ¨ÙE,åœ£å¤šç¾å’Œæ™®æ—è¥¿æ¯E",Ğ¡Ğ°Ğ½-Ğ¢Ğ¾Ğ¼Ğµ Ğ¸ ĞŸÑ€Ğ¸Ğ½ÑE¸Ğ¿Ğ¸,Africa,Afrique,Ãfrica,,,,Least Developed Countries,Pays les moins avancÃ©s,PaÃ­ses menos adelantados,,,,Middle Africa,Afrique centrale,Ãfrica central,,,,,
682,194,SA,SAU,Saudi Arabia,Arabie saoudite,Arabia Saudita,Ø§ÙEEEEE© Ø§ÙE¹Ø±Ø¨ÙŠØ© Ø§ÙE³Ø¹ÙˆØ¯ÙŠØ©,æ²™ç‰¹é˜¿æ‹‰ä¼¯,"ĞšĞ¾Ñ€Ğ¾Ğ»ĞµĞ²ÑE‚Ğ²Ğ¾ Ğ¡Ğ°ÑƒĞ´Ğ¾Ğ²ÑEºĞ°ÑEĞÑ€Ğ°Ğ²Ğ¸ÑE,the Kingdom of Saudi Arabia""",le Royaume d'Arabie saoudite,el Reino de Arabia Saudita,Ø§ÙEEEEE© Ø§ÙE¹Ø±Ø¨ÙŠØ© Ø§ÙE³Ø¹ÙˆØ¯ÙŠØ©,æ²™ç‰¹é˜¿æ‹‰ä¼¯,"ĞšĞ¾Ñ€Ğ¾Ğ»ĞµĞ²ÑE‚Ğ²Ğ¾ Ğ¡Ğ°ÑƒĞ´Ğ¾Ğ²ÑEºĞ°ÑEĞÑ€Ğ°Ğ²Ğ¸ÑE,Asia""",Asie,Asia,,,,Other developing countries or areas,Autres pays ou zones en dÃ©veloppement,Otros paÃ­ses o Ã¡reas en desarrollo,,,,Western Asia,Asie occidentale,Asia occidental,,,,,
686,195,SN,SEN,Senegal,SÃ©nÃ©gal,Senegal,"Ø§ÙE³ÙEºØ§ÙE,å¡åEåŠ å°”åEå’Œå›½""",Ğ¡ĞµĞ½ĞµĞ³Ğ°Ğ»,the Republic of Senegal,la RÃ©publique du SÃ©nÃ©gal,la RepÃºblica del Senegal,"Ø§ÙE³ÙEºØ§ÙE,å¡åEåŠ å°”åEå’Œå›½""",Ğ¡ĞµĞ½ĞµĞ³Ğ°Ğ»,Africa,Afrique,Ãfrica,,,,Least Developed Countries,Pays les moins avancÃ©s,PaÃ­ses menos adelantados,,,,Western Africa,Afrique occidentale,Ãfrica occidental,,,,,
690,196,SC,SYC,Seychelles,Seychelles,Seychelles,"Ø³ÙŠØ´ÙŠÙE,å¡èEå°”åEå’Œå›½""",Ğ¡ĞµĞ¹ÑˆĞµĞ»ÑŒÑEºĞ¸Ğµ ĞÑE‚Ñ€Ğ¾Ğ²Ğ°,the Republic of Seychelles,la RÃ©publique des Seychelles,la RepÃºblica de Seychelles,"Ø³ÙŠØ´ÙŠÙE,å¡èEå°”åEå’Œå›½""",Ğ¡ĞµĞ¹ÑˆĞµĞ»ÑŒÑEºĞ¸Ğµ ĞÑE‚Ñ€Ğ¾Ğ²Ğ°,Africa,Afrique,Ãfrica,,,,Other developing countries or areas,Autres pays ou zones en dÃ©veloppement,Otros paÃ­ses o Ã¡reas en desarrollo,,,,Eastern Africa,Afrique orientale,Ãfrica oriental,,,,,
694,197,SL,SLE,Sierra Leone,Sierra Leone,Sierra Leona,"Ø³ÙŠØ±Ø§ÙEŠÙˆÙE,å¡æ‹‰åˆ©æ˜E",Ğ¡ÑŒĞµÑ€Ñ€Ğ°-Ğ›ĞµĞ¾Ğ½Ğµ,the Republic of Sierra Leone,la RÃ©publique de Sierra Leone,la RepÃºblica de Sierra Leona,"Ø³ÙŠØ±Ø§ÙEŠÙˆÙE,å¡æ‹‰åˆ©æ˜E",Ğ¡ÑŒĞµÑ€Ñ€Ğ°-Ğ›ĞµĞ¾Ğ½Ğµ,Africa,Afrique,Ãfrica,,,,Least Developed Countries,Pays les moins avancÃ©s,PaÃ­ses menos adelantados,,,,Western Africa,Afrique occidentale,Ãfrica occidental,,,,,
705,198,SI,SVN,Slovenia,SlovÃ©nie,Eslovenia,Ø³ÙEˆÙEŠÙEŠØ§,"æ–¯æ´›æ–‡å°¼äºE,Ğ¡Ğ»Ğ¾Ğ²ĞµĞ½Ğ¸ÑE",the Republic of Slovenia,la RÃ©publique de SlovÃ©nie,la RepÃºblica de Eslovenia,Ø³ÙEˆÙEŠÙEŠØ§,"æ–¯æ´›æ–‡å°¼äºE,Ğ¡Ğ»Ğ¾Ğ²ĞµĞ½Ğ¸ÑE",Europe,Europe,Europa,,,,Developed countries or areas,Pays ou zones dÃ©veloppÃ©s,PaÃ­ses o Ã¡reas desarrollados,,,,Southern Europe,Europe mÃ©ridionale,Europa meridional,,,,,
703,199,SK,SVK,Slovakia,Slovaquie,Eslovaquia,Ø³ÙEˆÙE§ÙEŠØ§,æ–¯æ´›ä¼åE,"Ğ¡Ğ»Ğ¾Ğ²Ğ°ĞºĞ¸ÑE,the Slovak Republic""",la RÃ©publique slovaque,la RepÃºblica Eslovaca,Ø³ÙEˆÙE§ÙEŠØ§,æ–¯æ´›ä¼åE,"Ğ¡Ğ»Ğ¾Ğ²Ğ°ĞºĞ¸ÑE,Europe""",Europe,Europa,,,,Developed countries or areas,Pays ou zones dÃ©veloppÃ©s,PaÃ­ses o Ã¡reas desarrollados,,,,Eastern Europe,Europe orientale,Europa oriental,,,,,
702,200,SG,SGP,Singapore,Singapour,Singapur,Ø³ÙEºØ§ÙEˆØ±Ø©,æ–°åŠ å¡,Ğ¡Ğ¸Ğ½Ğ³Ğ°Ğ¿ÑƒÑ€,the Republic of Singapore,la RÃ©publique de Singapour,la RepÃºblica de Singapur,Ø³ÙEºØ§ÙEˆØ±Ø© Ø¬ÙEEˆØ±ÙŠØ©,æ–°åŠ å¡å…±å’Œå›½,Ğ ĞµÑE¿ÑƒĞ±Ğ»Ğ¸ĞºĞ° Ğ¡Ğ¸Ğ½Ğ³Ğ°Ğ¿ÑƒÑ€,Asia,Asie,Asia,,,,Other developing countries or areas,Autres pays ou zones en dÃ©veloppement,Otros paÃ­ses o Ã¡reas en desarrollo,,,,South-Eastern Asia,Asie du Sud-Est,Asia sudoriental,,,
706,201,SO,SOM,Somalia,Somalie,Somalia,"Ø§ÙEµÙˆÙE§ÙE,ç´¢é©¬é‡E",Ğ¡Ğ¾Ğ¼Ğ°Ğ»Ğ¸,the Federal Republic of Somalia,la RÃ©publique fÃ©dÃ©rale de Somalie,la RepÃºblica Federal de Somalia,Ø§ÙE¥ØªØ­Ø§Ø¯ÙŠØ© Ø§ÙEµÙˆÙE§ÙEØ¬ÙEEˆØ±ÙŠØ©,ç´¢é©¬é‡Œè”é‚¦å…±å’Œå›½,Ğ¤ĞµĞ´ĞµÑ€Ğ°Ñ‚Ğ¸Ğ²Ğ½Ğ°ÑEĞ ĞµÑE¿ÑƒĞ±Ğ»Ğ¸ĞºĞ° Ğ¡Ğ¾Ğ¼Ğ°Ğ»Ğ¸,Africa,Afrique,Ãfrica,,,,Least Developed Countries,Pays les moins avancÃ©s,PaÃ­ses menos adelantados,,,,Eastern Africa,Afrique orientale,Ãfrica oriental,,,,
710,202,ZA,ZAF,South Africa,Afrique du Sud,SudÃ¡frica,Ø¬ÙEEˆØ±ÙŠØ© Ø¬ÙEˆØ¨ Ø£ÙE±ÙŠÙ‚ÙŠØ§,"åEéE,Ğ®Ğ¶Ğ½Ğ°ÑEĞÑE€Ğ¸ĞºĞ°""",the Republic of South Africa,la RÃ©publique sud-africaine,la RepÃºblica de SudÃ¡frica,Ø¬ÙEEˆØ±ÙŠØ© Ø¬ÙEˆØ¨ Ø£ÙE±ÙŠÙ‚ÙŠØ§,"åEéE,Ğ®Ğ¶Ğ½Ğ°ÑEĞÑE€Ğ¸ĞºĞ°""",Africa,Afrique,Ãfrica,,,,Other developing countries or areas,Autres pays ou zones en dÃ©veloppement,Otros paÃ­ses o Ã¡reas en desarrollo,,,,Southern Africa,Afrique australe,Ãfrica austral,,,,,
724,203,ES,ESP,Spain,Espagne,EspaÃ±a,ÙEEEE© Ø¥Ø³Ø¨Ø§ÙEŠØ§,"è¥¿ç­ç‰E,ĞšĞ¾Ñ€Ğ¾Ğ»ĞµĞ²ÑE‚Ğ²Ğ¾ Ğ˜ÑE¿Ğ°Ğ½Ğ¸ÑE",the Kingdom of Spain,le Royaume d'Espagne,el Reino de EspaÃ±a,ÙEEEE© Ø¥Ø³Ø¨Ø§ÙEŠØ§,"è¥¿ç­ç‰E,ĞšĞ¾Ñ€Ğ¾Ğ»ĞµĞ²ÑE‚Ğ²Ğ¾ Ğ˜ÑE¿Ğ°Ğ½Ğ¸ÑE",Europe,Europe,Europa,,,,Developed countries or areas,Pays ou zones dÃ©veloppÃ©s,PaÃ­ses o Ã¡reas desarrollados,,,,Southern Europe,Europe mÃ©ridionale,Europa meridional,,,,,
732,205,EH,ESH,Western Sahara,Sahara occidental,Sahara Occidental,Ø§ÙEºØ±Ø¨ÙŠØ© Ø§ÙEµØ­Ø±Ø§Ø¡,"è¥¿æ’’å“ˆæ‹E,Ğ—Ğ°Ğ¿Ğ°Ğ´Ğ½Ğ°ÑEĞ¡Ğ°ÑE°Ñ€Ğ°""",Western Sahara,Sahara occidental,SÃ¡hara occidental,Ø§ÙEºØ±Ø¨ÙŠØ© Ø§ÙEµØ­Ø±Ø§Ø¡,"è¥¿æ’’å“ˆæ‹E,Ğ—Ğ°Ğ¿Ğ°Ğ´Ğ½Ğ°ÑEĞ¡Ğ°ÑE°Ñ€Ğ°""",Africa,Afrique,Ãfrica,,,,Other developing countries or areas,Autres pays ou zones en dÃ©veloppement,Otros paÃ­ses o Ã¡reas en desarrollo,,,,Northern Africa,Afrique septentrionale,Ãfrica septentrional,,,,,
736,206,,,Sudan (former),Soudan (ex),SudÃ¡n (ex),"Ø§ÙE³ÙˆØ¯Ø§ÙE,è‹ä¸¹""",Ğ¡ÑƒĞ´Ğ°Ğ½,the Republic of the Sudan,la RÃ©publique du Soudan,la RepÃºblica del SudÃ¡n,Ø§ÙE³ÙˆØ¯Ø§ÙEØ¬ÙEEˆØ±ÙŠØ©,è‹ä¸¹å…±å’Œå›½,Ğ ĞµÑE¿ÑƒĞ±Ğ»Ğ¸ĞºĞ° Ğ¡ÑƒĞ´Ğ°Ğ½,Africa,Afrique,Ãfrica,,,,Least Developed Countries,Pays les moins avancÃ©s,PaÃ­ses menos adelantados,,,,Northern Africa,Afrique septentrionale,Ãfrica septentrional,,,,
740,207,SR,SUR,Suriname,Suriname,Suriname,"Ø³ÙˆØ±ÙŠÙE§ÙE,è‹é‡ŒåE",Ğ¡ÑƒÑ€Ğ¸Ğ½Ğ°Ğ¼,the Republic of Suriname,la RÃ©publique du Suriname,la RepÃºblica de Suriname,"Ø³ÙˆØ±ÙŠÙE§ÙE,è‹é‡ŒåE",Ğ¡ÑƒÑ€Ğ¸Ğ½Ğ°Ğ¼,Americas,AmÃ©riques,AmÃ©ricas,,,,Other developing countries or areas,Autres pays ou zones en dÃ©veloppement,Otros paÃ­ses o Ã¡reas en desarrollo,,,,South America,AmÃ©rique du Sud,AmÃ©rica del Sur,,,,,
762,208,TJ,TJK,Tajikistan,Tadjikistan,TayikistÃ¡n,"Ø¬ÙEEˆØ±ÙŠØ© Ø·Ø§Ø¬ÙŠÙE³ØªØ§ÙE,å¡”å‰å…‹æ–¯å¦""",Ğ ĞµÑE¿ÑƒĞ±Ğ»Ğ¸ĞºĞ° Ğ¢Ğ°Ğ´Ğ¶Ğ¸ĞºĞ¸ÑE‚Ğ°Ğ½,the Republic of Tajikistan,la RÃ©publique du Tadjikistan,la RepÃºblica de TayikistÃ¡n,"Ø¬ÙEEˆØ±ÙŠØ© Ø·Ø§Ø¬ÙŠÙE³ØªØ§ÙE,å¡”å‰å…‹æ–¯å¦""",Ğ ĞµÑE¿ÑƒĞ±Ğ»Ğ¸ĞºĞ° Ğ¢Ğ°Ğ´Ğ¶Ğ¸ĞºĞ¸ÑE‚Ğ°Ğ½,Asia,Asie,Asia,,,,Other developing countries or areas,Autres pays ou zones en dÃ©veloppement,Otros paÃ­ses o Ã¡reas en desarrollo,,,,Central Asia,Asie centrale,Asia central,,,,,
748,209,SZ,SWZ,Eswatini,Eswatini,Eswatini,"Ø¥Ø³ÙˆØ§ØªÙŠÙEE,æ–¯å¨å£«å…°""",Ğ­ÑE²Ğ°Ñ‚Ğ¸Ğ½Ğ¸,the Kingdom of Eswatini,le Royaume dâ€™Eswatini,el Reino de Eswatini,"ÙEEEE© Ø¥Ø³ÙˆØ§ØªÙŠÙEE,æ–¯å¨å£«å…°ç‹å›½""",ĞšĞ¾Ñ€Ğ¾Ğ»ĞµĞ²ÑE‚Ğ²Ğ¾ Ğ­ÑE²Ğ°Ñ‚Ğ¸Ğ½Ğ¸,Africa,Afrique,Ãfrica,,,,Other developing countries or areas,Autres pays ou zones en dÃ©veloppement,Otros paÃ­ses o Ã¡reas en desarrollo,,,,Southern Africa,Afrique australe,Ãfrica austral,,,,,
752,210,SE,SWE,Sweden,SuÃ¨de,Suecia,Ø§ÙE³ÙˆÙŠØ¯,ç‘Eå…¸,"ĞšĞ¾Ñ€Ğ¾Ğ»ĞµĞ²ÑE‚Ğ²Ğ¾ Ğ¨Ğ²ĞµÑE¸ÑE,the Kingdom of Sweden""",le Royaume de SuÃ¨de,el Reino de Suecia,Ø§ÙE³ÙˆÙŠØ¯,ç‘Eå…¸,"ĞšĞ¾Ñ€Ğ¾Ğ»ĞµĞ²ÑE‚Ğ²Ğ¾ Ğ¨Ğ²ĞµÑE¸ÑE,Europe""",Europe,Europa,,,,Developed countries or areas,Pays ou zones dÃ©veloppÃ©s,PaÃ­ses o Ã¡reas desarrollados,,,,Northern Europe,Europe septentrionale,Europa del Norte,,,,,
756,211,CH,CHE,Switzerland,Suisse,Suiza,"Ø§ÙE§ØªØ­Ø§Ø¯ Ø§ÙE³ÙˆÙŠØ³Ø±ÙE,ç‘Eå£«""","Ğ¨Ğ²ĞµĞ¹ÑE°Ñ€Ğ¸ÑE,the Swiss Confederation""",la ConfÃ©dÃ©ration suisse,la ConfederaciÃ³n Suiza,"Ø§ÙE§ØªØ­Ø§Ø¯ Ø§ÙE³ÙˆÙŠØ³Ø±ÙE,ç‘Eå£«""","Ğ¨Ğ²ĞµĞ¹ÑE°Ñ€Ğ¸ÑE,Europe""",Europe,Europa,,,,Developed countries or areas,Pays ou zones dÃ©veloppÃ©s,PaÃ­ses o Ã¡reas desarrollados,,,,Western Europe,Europe occidentale,Europa occidental,,,,,,,
760,212,SY,SYR,Syrian Arab Republic,RÃ©p. arabe syrienne,RepÃºblica Ãrabe Siria,Ø§ÙE¬ÙEEˆØ±ÙŠØ© Ø§ÙE¹Ø±Ø¨ÙŠØ© Ø§ÙE³ÙˆØ±ÙŠØ©,é˜¿æ‹‰ä¼¯å™åˆ©äºšåEå’Œå›½,Ğ¡Ğ¸Ñ€Ğ¸Ğ¹ÑEºĞ°ÑEĞÑ€Ğ°Ğ±ÑEºĞ°ÑEĞ ĞµÑE¿ÑƒĞ±Ğ»Ğ¸ĞºĞ°,the Syrian Arab Republic,la RÃ©publique arabe syrienne,la RepÃºblica Ãrabe Siria,Ø§ÙE¬ÙEEˆØ±ÙŠØ© Ø§ÙE¹Ø±Ø¨ÙŠØ© Ø§ÙE³ÙˆØ±ÙŠØ©,é˜¿æ‹‰ä¼¯å™åˆ©äºšåEå’Œå›½,Ğ¡Ğ¸Ñ€Ğ¸Ğ¹ÑEºĞ°ÑEĞÑ€Ğ°Ğ±ÑEºĞ°ÑEĞ ĞµÑE¿ÑƒĞ±Ğ»Ğ¸ĞºĞ°,Asia,Asie,Asia,,,,Other developing countries or areas,Autres pays ou zones en dÃ©veloppement,Otros paÃ­ses o Ã¡reas en desarrollo,,,,Western Asia,Asie occidentale,Asia occidental,,,
795,213,TM,TKM,Turkmenistan,TurkmÃ©nistan,TurkmenistÃ¡n,"ØªØ±ÙEE§ÙE³ØªØ§ÙE,åœŸåº“æ›¼æ–¯å¦""",Ğ¢ÑƒÑ€ĞºĞ¼ĞµĞ½Ğ¸ÑE‚Ğ°Ğ½,Turkmenistan,le TurkmÃ©nistan,TurkmenistÃ¡n,"ØªØ±ÙEE§ÙE³ØªØ§ÙE,åœŸåº“æ›¼æ–¯å¦""",Ğ¢ÑƒÑ€ĞºĞ¼ĞµĞ½Ğ¸ÑE‚Ğ°Ğ½,Asia,Asie,Asia,,,,Other developing countries or areas,Autres pays ou zones en dÃ©veloppement,Otros paÃ­ses o Ã¡reas en desarrollo,,,,Central Asia,Asie centrale,Asia central,,,,,
158,214,TW,TWN,Taiwan Province of China,Prov. chinoise de TaÃ¯wan,Prov. china de TaiwÃ¡n,,,,Taiwan Province of China,Province chinoise de TaÃ¯wan,Provincia china de TaiwÃ¡n,,,,Asia,Asie,Asia,,,,Other developing countries or areas,Autres pays ou zones en dÃ©veloppement,Otros paÃ­ses o Ã¡reas en desarrollo,,,,Eastern Asia,Asie orientale,Asia oriental,,,
834,215,TZ,TZA,"Tanzania, United Rep. of",RÃ©p.-Unie de Tanzanie,Rep. Unida de TanzanÃ­a,Ø¬ÙEEˆØ±ÙŠØ© ØªÙE²Ø§ÙEŠØ§ Ø§ÙEEªØ­Ø¯Ø©,å¦æ¡‘å°¼äºšè”åˆåEå’Œå›½,"ĞĞ±ÑŠĞµĞ´Ğ¸Ğ½ĞµĞ½Ğ½Ğ°ÑEĞ ĞµÑE¿ÑƒĞ±Ğ»Ğ¸ĞºĞ° Ğ¢Ğ°Ğ½Ğ·Ğ°Ğ½Ğ¸ÑE,the United Republic of Tanzania""",la RÃ©publique-Unie de Tanzanie,la RepÃºblica Unida de TanzanÃ­a,Ø¬ÙEEˆØ±ÙŠØ© ØªÙE²Ø§ÙEŠØ§ Ø§ÙEEªØ­Ø¯Ø©,å¦æ¡‘å°¼äºšè”åˆåEå’Œå›½,"ĞĞ±ÑŠĞµĞ´Ğ¸Ğ½ĞµĞ½Ğ½Ğ°ÑEĞ ĞµÑE¿ÑƒĞ±Ğ»Ğ¸ĞºĞ° Ğ¢Ğ°Ğ½Ğ·Ğ°Ğ½Ğ¸ÑE,Africa""",Afrique,Ãfrica,,,,Least Developed Countries,Pays les moins avancÃ©s,PaÃ­ses menos adelantados,,,,Eastern Africa,Afrique orientale,Ãfrica oriental,,,,,
764,216,TH,THA,Thailand,ThaÃ¯lande,Tailandia,ÙEEEE© ØªØ§ÙŠÙEE¯,æ³° å›½,ĞšĞ¾Ñ€Ğ¾Ğ»ĞµĞ²ÑE‚Ğ²Ğ¾ Ğ¢Ğ°Ğ¸Ğ»Ğ°Ğ½Ğ´,the Kingdom of Thailand,le Royaume de ThaÃ¯lande,el Reino de Tailandia,ÙEEEE© ØªØ§ÙŠÙEE¯,æ³° å›½,ĞšĞ¾Ñ€Ğ¾Ğ»ĞµĞ²ÑE‚Ğ²Ğ¾ Ğ¢Ğ°Ğ¸Ğ»Ğ°Ğ½Ğ´,Asia,Asie,Asia,,,,Other developing countries or areas,Autres pays ou zones en dÃ©veloppement,Otros paÃ­ses o Ã¡reas en desarrollo,,,,South-Eastern Asia,Asie du Sud-Est,Asia sudoriental,,,
768,217,TG,TGO,Togo,Togo,Togo,"ØªÙˆØºÙE,å¤šå“¥å…±å’Œå›½""",Ğ¢Ğ¾Ğ³Ğ¾,the Togolese Republic,la RÃ©publique togolaise,la RepÃºblica Togolesa,"ØªÙˆØºÙE,å¤šå“¥å…±å’Œå›½""",Ğ¢Ğ¾Ğ³Ğ¾,Africa,Afrique,Ãfrica,,,,Least Developed Countries,Pays les moins avancÃ©s,PaÃ­ses menos adelantados,,,,Western Africa,Afrique occidentale,Ãfrica occidental,,,,,
772,218,TK,TKL,Tokelau,TokÃ©laou,Tokelau,"ØªÙˆÙEŠÙE§ÙE,æ‰˜åEåŠ³""","Ğ¢Ğ¾ĞºĞµĞ»Ğ°ÑE,Tokelau""",les TokÃ©laou,Tokelau,"ØªÙˆÙEŠÙE§ÙE,æ‰˜åEåŠ³""","Ğ¢Ğ¾ĞºĞµĞ»Ğ°ÑE,Oceania""",OcÃ©anie,OceanÃ­a,,,,Other developing countries or areas,Autres pays ou zones en dÃ©veloppement,Otros paÃ­ses o Ã¡reas en desarrollo,,,,Polynesia,PolynÃ©sie,Polinesia,,,,,,,
776,219,TO,TON,Tonga,Tonga,Tonga,ØªÙˆÙEºØ§,æ±¤ åŠ ,Ğ¢Ğ¾Ğ½Ğ³Ğ°,the Kingdom of Tonga,le Royaume des Tonga,el Reino de Tonga,ØªÙˆÙEºØ§,æ±¤ åŠ ,Ğ¢Ğ¾Ğ½Ğ³Ğ°,Oceania,OcÃ©anie,OceanÃ­a,,,,Other developing countries or areas,Autres pays ou zones en dÃ©veloppement,Otros paÃ­ses o Ã¡reas en desarrollo,,,,Polynesia,PolynÃ©sie,Polinesia,,,
780,220,TT,TTO,Trinidad and Tobago,TrinitÃ©-et-Tobago,Trinidad y Tabago,"ØªØ±ÙŠÙEŠØ¯Ø§Ø¯ ÙˆØªÙˆØ¨Ø§ØºÙE,ç‰¹ç«‹å°¼è¾¾å’Œå¤šå·´å“¥å…±å’Œå›½""",Ğ¢Ñ€Ğ¸Ğ½Ğ¸Ğ´Ğ°Ğ´ Ğ¸ Ğ¢Ğ¾Ğ±Ğ°Ğ³Ğ¾,the Republic of Trinidad and Tobago,la RÃ©publique de TrinitÃ©-et-Tobago,la RepÃºblica de Trinidad y Tabago,"ØªØ±ÙŠÙEŠØ¯Ø§Ø¯ ÙˆØªÙˆØ¨Ø§ØºÙE,ç‰¹ç«‹å°¼è¾¾å’Œå¤šå·´å“¥å…±å’Œå›½""",Ğ¢Ñ€Ğ¸Ğ½Ğ¸Ğ´Ğ°Ğ´ Ğ¸ Ğ¢Ğ¾Ğ±Ğ°Ğ³Ğ¾,Americas,AmÃ©riques,AmÃ©ricas,,,,Other developing countries or areas,Autres pays ou zones en dÃ©veloppement,Otros paÃ­ses o Ã¡reas en desarrollo,,,,Caribbean,CaraÃ¯bes,Caribe,,,,,
512,221,OM,OMN,Oman,Oman,OmÃ¡n,"Ø³ÙE·ÙE© Ø¹ÙE§ÙE,é˜¿æ›¼è‹ä¸¹å›½""",Ğ¡ÑƒĞ»Ñ‚Ğ°Ğ½Ğ°ÑEĞĞ¼Ğ°Ğ½,the Sultanate of Oman,le Sultanat d'Oman,la SultanÃ­a de OmÃ¡n,"Ø³ÙE·ÙE© Ø¹ÙE§ÙE,é˜¿æ›¼è‹ä¸¹å›½""",Ğ¡ÑƒĞ»Ñ‚Ğ°Ğ½Ğ°ÑEĞĞ¼Ğ°Ğ½,Asia,Asie,Asia,,,,Other developing countries or areas,Autres pays ou zones en dÃ©veloppement,Otros paÃ­ses o Ã¡reas en desarrollo,,,,Western Asia,Asie occidentale,Asia occidental,,,,,
788,222,TN,TUN,Tunisia,Tunisie,TÃºnez,ØªÙˆÙE³,çªå°¼æ–¯,Ğ¢ÑƒĞ½Ğ¸ÑEEºĞ°ÑEĞ ĞµÑE¿ÑƒĞ±Ğ»Ğ¸ĞºĞ°,the Republic of Tunisia,la RÃ©publique tunisienne,la RepÃºblica de TÃºnez,ØªÙˆÙE³,çªå°¼æ–¯,Ğ¢ÑƒĞ½Ğ¸ÑEEºĞ°ÑEĞ ĞµÑE¿ÑƒĞ±Ğ»Ğ¸ĞºĞ°,Africa,Afrique,Ãfrica,,,,Other developing countries or areas,Autres pays ou zones en dÃ©veloppement,Otros paÃ­ses o Ã¡reas en desarrollo,,,,Northern Africa,Afrique septentrionale,Ãfrica septentrional,,,
792,223,TR,TUR,Turkey,Turquie,TurquÃ­a,Ø§ÙE¬ÙEEˆØ±ÙŠØ© Ø§ÙEªØ±ÙEŠØ©,åœŸè€³å…¶,"Ğ¢ÑƒÑ€ÑE¸ÑE,the Republic of Turkey""",la RÃ©publique turque,la RepÃºblica de TurquÃ­a,Ø§ÙE¬ÙEEˆØ±ÙŠØ© Ø§ÙEªØ±ÙEŠØ©,åœŸè€³å…¶,"Ğ¢ÑƒÑ€ÑE¸ÑE,Asia""",Asie,Asia,,,,Other developing countries or areas,Autres pays ou zones en dÃ©veloppement,Otros paÃ­ses o Ã¡reas en desarrollo,,,,Western Asia,Asie occidentale,Asia occidental,,,,,
796,224,TC,TCA,Turks and Caicos Is.,Ãles Turques et CaÃ¯ques,Islas Turcas y Caicos,ÙˆÙE§ÙŠÙEˆØ³ ØªØ±ÙE³ Ø¬Ø²Ø±,"ç‰¹å…‹æ–¯å’ŒåEç§‘æ–¯ç¾¤å²E,Ğ¾ÑE‚Ñ€Ğ¾Ğ²Ğ° Ğ¢Ñ‘Ñ€ĞºÑEĞ¸ ĞšĞ°Ğ¹ĞºĞ¾ÑE",Turks and Caicos Islands,Ãles Turques et CaÃ¯ques,Islas Turcas y Caicos,ÙˆÙE§ÙŠÙEˆØ³ ØªØ±ÙE³ Ø¬Ø²Ø±,"ç‰¹å…‹æ–¯å’ŒåEç§‘æ–¯ç¾¤å²E,Ğ¾ÑE‚Ñ€Ğ¾Ğ²Ğ° Ğ¢Ñ‘Ñ€ĞºÑEĞ¸ ĞšĞ°Ğ¹ĞºĞ¾ÑE",Americas,AmÃ©riques,AmÃ©ricas,,,,Other developing countries or areas,Autres pays ou zones en dÃ©veloppement,Otros paÃ­ses o Ã¡reas en desarrollo,,,,Caribbean,CaraÃ¯bes,Caribe,,,,,
784,225,AE,ARE,United Arab Emirates,Ã‰mirats arabes unis,Emiratos Ãrabes Unidos,Ø§ÙE¥ÙE§Ø±Ø§Øª Ø§ÙE¹Ø±Ø¨ÙŠØ© Ø§ÙEEªØ­Ø¯Ø©,é˜¿æ‹‰ä¼¯è”åˆé…‹é•¿å›½,"ĞĞ±ÑŠĞµĞ´Ğ¸Ğ½ĞµĞ½Ğ½Ñ‹Ğµ ĞÑ€Ğ°Ğ±ÑEºĞ¸Ğµ Ğ­Ğ¼Ğ¸Ñ€Ğ°Ñ‚ÑE,the United Arab Emirates""",les Ã‰mirats arabes unis,los Emiratos Ãrabes Unidos,Ø§ÙE¥ÙE§Ø±Ø§Øª Ø§ÙE¹Ø±Ø¨ÙŠØ© Ø§ÙEEªØ­Ø¯Ø©,é˜¿æ‹‰ä¼¯è”åˆé…‹é•¿å›½,"ĞĞ±ÑŠĞµĞ´Ğ¸Ğ½ĞµĞ½Ğ½Ñ‹Ğµ ĞÑ€Ğ°Ğ±ÑEºĞ¸Ğµ Ğ­Ğ¼Ğ¸Ñ€Ğ°Ñ‚ÑE,Asia""",Asie,Asia,,,,Other developing countries or areas,Autres pays ou zones en dÃ©veloppement,Otros paÃ­ses o Ã¡reas en desarrollo,,,,Western Asia,Asie occidentale,Asia occidental,,,,,
800,226,UG,UGA,Uganda,Ouganda,Uganda,Ø¬ÙEEˆØ±ÙŠØ© Ø£ÙˆØºÙE¯Ø§,ä¹Œå¹²è¾¾,Ğ£Ğ³Ğ°Ğ½Ğ´Ğ°,the Republic of Uganda,la RÃ©publique de l'Ouganda,la RepÃºblica de Uganda,Ø¬ÙEEˆØ±ÙŠØ© Ø£ÙˆØºÙE¯Ø§,ä¹Œå¹²è¾¾,Ğ£Ğ³Ğ°Ğ½Ğ´Ğ°,Africa,Afrique,Ãfrica,,,,Least Developed Countries,Pays les moins avancÃ©s,PaÃ­ses menos adelantados,,,,Eastern Africa,Afrique orientale,Ãfrica oriental,,,
798,227,TV,TUV,Tuvalu,Tuvalu,Tuvalu,"ØªÙˆÙE§ÙEE,å›¾ç“¦å¢""","Ğ¢ÑƒĞ²Ğ°Ğ»ÑE,Tuvalu""",Tuvalu,Tuvalu,"ØªÙˆÙE§ÙEE,å›¾ç“¦å¢""","Ğ¢ÑƒĞ²Ğ°Ğ»ÑE,Oceania""",OcÃ©anie,OceanÃ­a,,,,Least Developed Countries,Pays les moins avancÃ©s,PaÃ­ses menos adelantados,,,,Polynesia,PolynÃ©sie,Polinesia,,,,,,,
810,228,SU,SUN,Un. Sov. Soc. Rep.,Union des RÃ©p.soc.sov.,UniÃ³n de Rep.Soc.Sov.,,,,Union of Soviet Socialist Republics,Union des RÃ©publiques socialistes soviÃ©tiques,UniÃ³n de Rep.Soc.Sov.,,,,,,,,,,Developed countries or areas,Pays ou zones dÃ©veloppÃ©s,PaÃ­ses o Ã¡reas desarrollados,,,,,,,,,
826,229,GB,GBR,United Kingdom,Royaume-Uni,Reino Unido,Ø§ÙEEEEE© Ø§ÙEEªØ­Ø¯Ø©,å¤§ä¸åEé¢ åŠåŒ—çˆ±å°”åEè”åˆç‹å›½,Ğ¡Ğ¾ĞµĞ´Ğ¸Ğ½ĞµĞ½Ğ½Ğ¾Ğµ ĞšĞ¾Ñ€Ğ¾Ğ»ĞµĞ²ÑE‚Ğ²Ğ¾ (Ğ’ĞµĞ»Ğ¸ĞºĞ¾Ğ±Ñ€Ğ¸Ñ‚Ğ°Ğ½Ğ¸Ğ¸ Ğ¸ Ğ¡ĞµĞ²ĞµÑ€Ğ½Ğ¾Ğ¹ Ğ˜Ñ€Ğ»Ğ°Ğ½Ğ´Ğ¸Ğ¸),the United Kingdom of Great Britain and Northern Ireland,le Royaume-Uni de Grande-Bretagne et d'Irlande du Nord,el Reino Unido de Gran BretaÃ±a e Irlanda del Norte,Ø§ÙEEEEE© Ø§ÙEEªØ­Ø¯Ø©,å¤§ä¸åEé¢ åŠåŒ—çˆ±å°”åEè”åˆç‹å›½,Ğ¡Ğ¾ĞµĞ´Ğ¸Ğ½ĞµĞ½Ğ½Ğ¾Ğµ ĞšĞ¾Ñ€Ğ¾Ğ»ĞµĞ²ÑE‚Ğ²Ğ¾ (Ğ’ĞµĞ»Ğ¸ĞºĞ¾Ğ±Ñ€Ğ¸Ñ‚Ğ°Ğ½Ğ¸Ğ¸ Ğ¸ Ğ¡ĞµĞ²ĞµÑ€Ğ½Ğ¾Ğ¹ Ğ˜Ñ€Ğ»Ğ°Ğ½Ğ´Ğ¸Ğ¸),Europe,Europe,Europa,,,,Developed countries or areas,Pays ou zones dÃ©veloppÃ©s,PaÃ­ses o Ã¡reas desarrollados,,,,Northern Europe,Europe septentrionale,Europa del Norte,,,
804,230,UA,UKR,Ukraine,Ukraine,Ucrania,Ø£ÙˆÙE±Ø§ÙEŠØ§,ä¹ŒåEå…°,Ğ£ĞºÑ€Ğ°Ğ¸Ğ½Ğ°,Ukraine,l'Ukraine,Ucrania,Ø£ÙˆÙE±Ø§ÙEŠØ§,ä¹ŒåEå…°,Ğ£ĞºÑ€Ğ°Ğ¸Ğ½Ğ°,Europe,Europe,Europa,,,,Developed countries or areas,Pays ou zones dÃ©veloppÃ©s,PaÃ­ses o Ã¡reas desarrollados,,,,Eastern Europe,Europe orientale,Europa oriental,,,
840,231,US,USA,United States of America,Ã‰tats-Unis d'AmÃ©rique,EstadosUnidos de AmÃ©rica,Ø§ÙEˆÙE§ÙŠØ§Øª Ø§ÙEEªØ­Ø¯Ø© Ø§ÙE£ÙE±ÙŠÙEŠØ©,ç¾åˆ©åšåˆä¼—å›½,Ğ¡Ğ¾ĞµĞ´Ğ¸Ğ½ĞµĞ½Ğ½Ñ‹Ğµ Ğ¨Ñ‚Ğ°Ñ‚ÑEĞĞ¼ĞµÑ€Ğ¸ĞºĞ¸,the United States of America,les Ã‰tats-Unis d'AmÃ©rique,los Estados Unidos de AmÃ©rica,Ø§ÙEˆÙE§ÙŠØ§Øª Ø§ÙEEªØ­Ø¯Ø© Ø§ÙE£ÙE±ÙŠÙEŠØ©,ç¾åˆ©åšåˆä¼—å›½,Ğ¡Ğ¾ĞµĞ´Ğ¸Ğ½ĞµĞ½Ğ½Ñ‹Ğµ Ğ¨Ñ‚Ğ°Ñ‚ÑEĞĞ¼ĞµÑ€Ğ¸ĞºĞ¸,Americas,AmÃ©riques,AmÃ©ricas,,,,Developed countries or areas,Pays ou zones dÃ©veloppÃ©s,PaÃ­ses o Ã¡reas desarrollados,,,,Northern America,AmÃ©rique du Nord,AmÃ©rica del Norte,,,
581,232,UM,UMI,US Minor Outlying Is.,Ãles Mineures EloignÃ©sEU,Is Menores PerifÃ©ricasEU,Ø§ÙEµØºØ±ÙEØ§ÙEEªØ­Ø¯Ø© Ø§ÙEˆÙE§ÙŠØ§Øª Ø¬Ø²Ø±,"ç¾å›½å°ç¦»å²E,Ğ¼Ğ°Ğ»Ñ‹Ğµ Ğ¾Ñ‚Ğ´Ğ°Ğ»ĞµĞ½Ğ½Ñ‹Ğµ Ğ¾ÑE‚Ñ€Ğ¾Ğ²Ğ° Ğ¡Ğ¾ĞµĞ´Ğ¸Ğ½ĞµĞ½Ğ½Ñ‹ÑEĞ¨Ñ‚Ğ°Ñ‚Ğ¾Ğ² ĞĞ¼ĞµÑ€Ğ¸ĞºĞ¸""",the United States Minor Islands,Ãles mineures Ã©loignÃ©es des Ã‰tats-Unis,Islas Menores PerifÃ©ricas de los Estados Unidos,Ø§ÙEµØºØ±ÙEØ§ÙEEªØ­Ø¯Ø© Ø§ÙEˆÙE§ÙŠØ§Øª Ø¬Ø²Ø±,"ç¾å›½å°ç¦»å²E,Ğ¼Ğ°Ğ»Ñ‹Ğµ Ğ¾Ñ‚Ğ´Ğ°Ğ»ĞµĞ½Ğ½Ñ‹Ğµ Ğ¾ÑE‚Ñ€Ğ¾Ğ²Ğ° Ğ¡Ğ¾ĞµĞ´Ğ¸Ğ½ĞµĞ½Ğ½Ñ‹ÑEĞ¨Ñ‚Ğ°Ñ‚Ğ¾Ğ² ĞĞ¼ĞµÑ€Ğ¸ĞºĞ¸""",Oceania,OcÃ©anie,OceanÃ­a,,,,Other developing countries or areas,Autres pays ou zones en dÃ©veloppement,Otros paÃ­ses o Ã¡reas en desarrollo,,,,Micronesia,MicronÃ©sie,Micronesia,,,,,
854,233,BF,BFA,Burkina Faso,Burkina Faso,Burkina Faso,"Ø¨ÙˆØ±ÙEŠÙE§ ÙE§Ø³ÙE,å¸EŸºçº³æ³•ç´¢""",Ğ‘ÑƒÑ€ĞºĞ¸Ğ½Ğ°-Ğ¤Ğ°ÑE¾,Burkina Faso,le Burkina Faso,Burkina Faso,"Ø¨ÙˆØ±ÙEŠÙE§ ÙE§Ø³ÙE,å¸EŸºçº³æ³•ç´¢""",Ğ‘ÑƒÑ€ĞºĞ¸Ğ½Ğ°-Ğ¤Ğ°ÑE¾,Africa,Afrique,Ãfrica,,,,Least Developed Countries,Pays les moins avancÃ©s,PaÃ­ses menos adelantados,,,,Western Africa,Afrique occidentale,Ãfrica occidental,,,,,
858,234,UY,URY,Uruguay,Uruguay,Uruguay,"Ø£ÙˆØ±ÙˆØºÙˆØ§ÙE,ä¹Œæ‹‰åœ­ä¸œå²¸å…±å’Œå›½""",Ğ£Ñ€ÑƒĞ³Ğ²Ğ°Ğ¹,the Eastern Republic of Uruguay,la RÃ©publique orientale de l'Uruguay,la RepÃºblica Oriental del Uruguay,"Ø£ÙˆØ±ÙˆØºÙˆØ§ÙE,ä¹Œæ‹‰åœ­ä¸œå²¸å…±å’Œå›½""",Ğ£Ñ€ÑƒĞ³Ğ²Ğ°Ğ¹,Americas,AmÃ©riques,AmÃ©ricas,,,,Other developing countries or areas,Autres pays ou zones en dÃ©veloppement,Otros paÃ­ses o Ã¡reas en desarrollo,,,,South America,AmÃ©rique du Sud,AmÃ©rica del Sur,,,,,
860,235,UZ,UZB,Uzbekistan,OuzbÃ©kistan,UzbekistÃ¡n,"Ø¬ÙEEˆØ±ÙŠØ© Ø£ÙˆØ²Ø¨ÙE³ØªØ§ÙE,ä¹ŒåEåˆ«å…‹æ–¯å¦""",Ğ£Ğ·Ğ±ĞµĞºĞ¸ÑE‚Ğ°Ğ½,the Republic of Uzbekistan,la RÃ©publique d'OuzbÃ©kistan,la RepÃºblica de UzbekistÃ¡n,"Ø¬ÙEEˆØ±ÙŠØ© Ø£ÙˆØ²Ø¨ÙE³ØªØ§ÙE,ä¹ŒåEåˆ«å…‹æ–¯å¦""",Ğ£Ğ·Ğ±ĞµĞºĞ¸ÑE‚Ğ°Ğ½,Asia,Asie,Asia,,,,Other developing countries or areas,Autres pays ou zones en dÃ©veloppement,Otros paÃ­ses o Ã¡reas en desarrollo,,,,Central Asia,Asie centrale,Asia central,,,,,
862,236,VE,VEN,"Venezuela, Boliv Rep of","Venezuela, RÃ©p boliv du","Venezuela, Rep Boliv de",Ø¬ÙEEˆØ±ÙŠØ© ÙEE²ÙˆÙŠÙE§ Ø§ÙE¨ÙˆÙEŠÙE§Ø±ÙŠØ©,å§”åEç‘æ‹‰ (ç»åˆ©ç“¦å°”åEå’Œå›½),Ğ’ĞµĞ½ĞµÑEƒÑĞ»Ğ° (Ğ‘Ğ¾Ğ»Ğ¸Ğ²Ğ°Ñ€Ğ¸Ğ°Ğ½ÑEºĞ°ÑEĞ ĞµÑE¿ÑƒĞ±Ğ»Ğ¸ĞºĞ°),the Bolivarian Republic of Venezuela,la RÃ©publique bolivarienne du Venezuela,la RepÃºblica Bolivariana de Venezuela,Ø¬ÙEEˆØ±ÙŠØ© ÙEE²ÙˆÙŠÙE§ Ø§ÙE¨ÙˆÙEŠÙE§Ø±ÙŠØ©,å§”åEç‘æ‹‰ (ç»åˆ©ç“¦å°”åEå’Œå›½),Ğ’ĞµĞ½ĞµÑEƒÑĞ»Ğ° (Ğ‘Ğ¾Ğ»Ğ¸Ğ²Ğ°Ñ€Ğ¸Ğ°Ğ½ÑEºĞ°ÑEĞ ĞµÑE¿ÑƒĞ±Ğ»Ğ¸ĞºĞ°),Americas,AmÃ©riques,AmÃ©ricas,,,,Other developing countries or areas,Autres pays ou zones en dÃ©veloppement,Otros paÃ­ses o Ã¡reas en desarrollo,,,,South America,AmÃ©rique du Sud,AmÃ©rica del Sur,,,
704,237,VN,VNM,Viet Nam,Viet Nam,Viet Nam,"ÙEŠÙŠØª ÙE§ÙE,è¶Šå—ç¤¾ä¼šä¸»ä¹‰åEå’Œå›½""",Ğ’ÑŒĞµÑ‚Ğ½Ğ°Ğ¼,the Socialist Republic of Viet Nam,la RÃ©publique socialiste du Viet Nam,la RepÃºblica Socialista de Viet Nam,"ÙEŠÙŠØª ÙE§ÙE,è¶Šå—ç¤¾ä¼šä¸»ä¹‰åEå’Œå›½""",Ğ’ÑŒĞµÑ‚Ğ½Ğ°Ğ¼,Asia,Asie,Asia,,,,Other developing countries or areas,Autres pays ou zones en dÃ©veloppement,Otros paÃ­ses o Ã¡reas en desarrollo,,,,South-Eastern Asia,Asie du Sud-Est,Asia sudoriental,,,,,
231,238,ET,ETH,Ethiopia,Ã‰thiopie,EtiopÃ­a,Ø¥Ø«ÙŠÙˆØ¨ÙŠØ§,"åŸE¡ä¿E¯”äºE,Ğ­ÑE¸Ğ¾Ğ¿Ğ¸ÑE",the Federal Democratic Republic of Ethiopia,la RÃ©publique fÃ©dÃ©rale dÃ©mocratique d'Ã‰thiopie,la RepÃºblica DemocrÃ¡tica Federal de EtiopÃ­a,Ø¥Ø«ÙŠÙˆØ¨ÙŠØ§,"åŸE¡ä¿E¯”äºE,Ğ­ÑE¸Ğ¾Ğ¿Ğ¸ÑE",Africa,Afrique,Ãfrica,,,,Least Developed Countries,Pays les moins avancÃ©s,PaÃ­ses menos adelantados,,,,Eastern Africa,Afrique orientale,Ãfrica oriental,,,,,
92,239,VG,VGB,British Virgin Islands,Ãles Vierges britanniq.,Islas VÃ­rgenes BritÃ¡n.,Ø§ÙE¨Ø±ÙŠØ·Ø§ÙEŠØ© ÙEŠØ±Ø¬ÙŠÙEØ¬Ø²Ø±,"è‹±å±ç»´å°”äº¬ç¾¤å²E,Ğ‘Ñ€Ğ¸Ñ‚Ğ°Ğ½ÑEºĞ¸Ğµ Ğ’Ğ¸Ñ€Ğ³Ğ¸Ğ½ÑEºĞ¸Ğµ Ğ¾ÑE‚Ñ€Ğ¾Ğ²Ğ°""",British Virgin Islands,Ãles Vierges britanniques,Islas VÃ­rgenes BritÃ¡nicas,Ø§ÙE¨Ø±ÙŠØ·Ø§ÙEŠØ© ÙEŠØ±Ø¬ÙŠÙEØ¬Ø²Ø±,"è‹±å±ç»´å°”äº¬ç¾¤å²E,Ğ‘Ñ€Ğ¸Ñ‚Ğ°Ğ½ÑEºĞ¸Ğµ Ğ’Ğ¸Ñ€Ğ³Ğ¸Ğ½ÑEºĞ¸Ğµ Ğ¾ÑE‚Ñ€Ğ¾Ğ²Ğ°""",Americas,AmÃ©riques,AmÃ©ricas,,,,Other developing countries or areas,Autres pays ou zones en dÃ©veloppement,Otros paÃ­ses o Ã¡reas en desarrollo,,,,Caribbean,CaraÃ¯bes,Caribe,,,,,
850,240,VI,VIR,US Virgin Islands,Ãles Vierges amÃ©ricaines,Islas VÃ­rgenes (EE.UU.),Ø§ÙEEªØ­Ø¯Ø© ÙEEˆÙE§ÙŠØ§Øª Ø§ÙEªØ§Ø¨Ø¹Ø© ÙEŠØ±Ø¬ÙŠÙEØ¬Ø²Ø±,"ç¾å±ç»´å°”äº¬ç¾¤å²E,Ğ’Ğ¸Ñ€Ğ³Ğ¸Ğ½ÑEºĞ¸Ğµ Ğ¾ÑE‚Ñ€Ğ¾Ğ²Ğ° Ğ¡Ğ¨ĞE",the United States Virgin Islands,les Ãles Vierges amÃ©ricaines,las Islas VÃ­rgenes (EE.UU.),Ø§ÙEEªØ­Ø¯Ø© ÙEEˆÙE§ÙŠØ§Øª Ø§ÙEªØ§Ø¨Ø¹Ø© ÙEŠØ±Ø¬ÙŠÙEØ¬Ø²Ø±,"ç¾å±ç»´å°”äº¬ç¾¤å²E,Ğ’Ğ¸Ñ€Ğ³Ğ¸Ğ½ÑEºĞ¸Ğµ Ğ¾ÑE‚Ñ€Ğ¾Ğ²Ğ° Ğ¡Ğ¾ĞµĞ´Ğ¸Ğ½ĞµĞ½Ğ½Ñ‹ÑEĞ¨Ñ‚Ğ°Ñ‚Ğ¾Ğ²""",Americas,AmÃ©riques,AmÃ©ricas,,,,Other developing countries or areas,Autres pays ou zones en dÃ©veloppement,Otros paÃ­ses o Ã¡reas en desarrollo,,,,Caribbean,CaraÃ¯bes,Caribe,,,,,
872,242,WK,WAK,Wake Island,"Wake, Ãle de","Wake, Isla",,,,Wake Island,Ãles Wake,Isla Wake,,,,,,,,,,,,,,,,,,,,,
876,243,WF,WLF,Wallis and Futuna Is.,Ãles Wallis et Futuna,Islas Wallis y Futuna,ÙˆÙEˆØªÙˆÙE§ ÙˆØ§ÙEŠØ³ Ø¬Ø²Ø±,"ç“¦åˆ©æ–¯å’Œå¯Œå›¾çº³ç¾¤å²E,Ğ¾ÑE‚Ñ€Ğ¾Ğ²Ğ° Ğ£Ğ¾Ğ»Ğ»Ğ¸ÑEĞ¸ Ğ¤ÑƒÑ‚ÑƒĞ½Ğ°""",Wallis and Futuna Islands,les Ãles Wallis et Futuna,Islas Wallis y Futuna,ÙˆÙEˆØªÙˆÙE§ ÙˆØ§ÙEŠØ³ Ø¬Ø²Ø±,"ç“¦åˆ©æ–¯å’Œå¯Œå›¾çº³ç¾¤å²E,Ğ¾ÑE‚Ñ€Ğ¾Ğ²Ğ° Ğ£Ğ¾Ğ»Ğ»Ğ¸ÑEĞ¸ Ğ¤ÑƒÑ‚ÑƒĞ½Ğ°""",Oceania,OcÃ©anie,OceanÃ­a,,,,Other developing countries or areas,Autres pays ou zones en dÃ©veloppement,Otros paÃ­ses o Ã¡reas en desarrollo,,,,Polynesia,PolynÃ©sie,Polinesia,,,,,
882,244,WS,WSM,Samoa,Samoa,Samoa,Ø¯ÙˆÙE© Ø³Ø§ÙEˆØ§ Ø§ÙEE³ØªÙ‚ÙE©,"è¨æ‘©äºE,ĞĞµĞ·Ğ°Ğ²Ğ¸ÑE¸Ğ¼Ğ¾Ğµ Ğ“Ğ¾ÑEƒĞ´Ğ°Ñ€ÑE‚Ğ²Ğ¾ Ğ¡Ğ°Ğ¼Ğ¾Ğ°""",the Independent State of Samoa,l'Ã‰tat indÃ©pendant du Samoa,el Estado Independiente de Samoa,Ø¯ÙˆÙE© Ø³Ø§ÙEˆØ§ Ø§ÙEE³ØªÙ‚ÙE©,"è¨æ‘©äºE,ĞĞµĞ·Ğ°Ğ²Ğ¸ÑE¸Ğ¼Ğ¾Ğµ Ğ“Ğ¾ÑEƒĞ´Ğ°Ñ€ÑE‚Ğ²Ğ¾ Ğ¡Ğ°Ğ¼Ğ¾Ğ°""",Oceania,OcÃ©anie,OceanÃ­a,,,,Other developing countries or areas,Autres pays ou zones en dÃ©veloppement,Otros paÃ­ses o Ã¡reas en desarrollo,,,,Polynesia,PolynÃ©sie,Polinesia,,,,,
402,245,,,West Bank,Cisjordanie,Cisjordania,,,,The West Bank,la Cisjordanie,Ribera Occidental,,,,Asia,Asie,Asia,,,,,,,,,,Western Asia,Asie occidentale,Asia occidental,,,
886,246,,,Yemen Arab Republic,"Yemen, Rep. Arabe","Yemen, Republica Araba",,,,,,,,,,Asia,Asie,Asia,,,,Least Developed Countries,Pays les moins avancÃ©s,PaÃ­ses menos adelantados,,,,Western Asia,Asie occidentale,Asia occidental,,,
720,247,,,"Yemen, Democratic",Yemen Democratique,Yemen Democratico,,,,,,,,,,Asia,Asie,Asia,,,,Least Developed Countries,Pays les moins avancÃ©s,PaÃ­ses menos adelantados,,,,Western Asia,Asie occidentale,Asia occidental,,,
890,248,YU,YUG,Yugoslavia SFR,RFS de Yougoslavie,RFS de Yugoslavia,Ø¬ÙEEˆØ±ÙŠØ© ØµØ±Ø¨ÙŠØ§,"å¡å°”ç»´äºE,Ğ¡ĞµÑ€Ğ±Ğ¸ÑE",Socialist Federal Republic of Yugoslavia,RÃ©publique socialiste fÃ©dÃ©rative de Yougoslavie,RFS de Yugoslavia,Ø¬ÙEEˆØ±ÙŠØ© ØµØ±Ø¨ÙŠØ§,"å¡å°”ç»´äºE,Ğ¡ĞµÑ€Ğ±Ğ¸ÑE",Europe,Europe,Europa,,,,Developed countries or areas,Pays ou zones dÃ©veloppÃ©s,PaÃ­ses o Ã¡reas desarrollados,,,,Southern Europe,Europe mÃ©ridionale,Europa meridional,,,,,
887,249,YE,YEM,Yemen,YÃ©men,Yemen,"Ø§ÙEŠÙEE,ä¹Eé—¨""",Ğ™ĞµĞ¼ĞµĞ½ÑEºĞ°ÑEĞ ĞµÑE¿ÑƒĞ±Ğ»Ğ¸ĞºĞ°,the Republic of Yemen,la RÃ©publique du YÃ©men,la RepÃºblica del Yemen,"Ø§ÙEŠÙEE,ä¹Eé—¨""",Ğ™ĞµĞ¼ĞµĞ½ÑEºĞ°ÑEĞ ĞµÑE¿ÑƒĞ±Ğ»Ğ¸ĞºĞ°,Asia,Asie,Asia,,,,Least Developed Countries,Pays les moins avancÃ©s,PaÃ­ses menos adelantados,,,,Western Asia,Asie occidentale,Asia occidental,,,,,
180,250,CD,COD,"Congo, Dem. Rep. of the",RÃ©p. dÃ©m. du Congo,Rep. Dem. del Congo,Ø¬ÙEEˆØ±ÙŠØ© Ø§ÙEEˆÙEºÙEØ§ÙE¯ÙŠÙE‚Ø±Ø§Ø·ÙŠØ©,åˆšæœæ°‘ä¸»å…±å’Œå›½,Ğ”ĞµĞ¼Ğ¾ĞºÑ€Ğ°Ñ‚Ğ¸ÑEµÑEºĞ°ÑEĞ ĞµÑE¿ÑƒĞ±Ğ»Ğ¸ĞºĞ° ĞšĞ¾Ğ½Ğ³Ğ¾,the Democratic Republic of the Congo,la RÃ©publique dÃ©mocratique du Congo,la RepÃºblica DemocrÃ¡tica del Congo,Ø¬ÙEEˆØ±ÙŠØ© Ø§ÙEEˆÙEºÙEØ§ÙE¯ÙŠÙE‚Ø±Ø§Ø·ÙŠØ©,åˆšæœæ°‘ä¸»å…±å’Œå›½,Ğ”ĞµĞ¼Ğ¾ĞºÑ€Ğ°Ñ‚Ğ¸ÑEµÑEºĞ°ÑEĞ ĞµÑE¿ÑƒĞ±Ğ»Ğ¸ĞºĞ° ĞšĞ¾Ğ½Ğ³Ğ¾,Africa,Afrique,Ãfrica,,,,Least Developed Countries,Pays les moins avancÃ©s,PaÃ­ses menos adelantados,,,,Middle Africa,Afrique centrale,Ãfrica central,,,
894,251,ZM,ZMB,Zambia,Zambie,Zambia,Ø¬ÙEEˆØ±ÙŠØ© Ø²Ø§ÙE¨ÙŠØ§,"èµæ¯”äºE,Ğ—Ğ°Ğ¼Ğ±Ğ¸ÑE",the Republic of Zambia,la RÃ©publique de Zambie,la RepÃºblica de Zambia,Ø¬ÙEEˆØ±ÙŠØ© Ø²Ø§ÙE¨ÙŠØ§,"èµæ¯”äºE,Ğ—Ğ°Ğ¼Ğ±Ğ¸ÑE",Africa,Afrique,Ãfrica,,,,Least Developed Countries,Pays les moins avancÃ©s,PaÃ­ses menos adelantados,,,,Eastern Africa,Afrique orientale,Ãfrica oriental,,,,,
896,252,,,Other nei,Autres nca,Otros nep,,,,Others,Autres,Otros,,,,,,,,,,,,,,,,,,,,,
56,255,BE,BEL,Belgium,Belgique,BÃ©lgica,Ø¨ÙE¬ÙŠÙE§,æ¯”åˆ©æ—¶,"Ğ‘ĞµĞ»ÑŒĞ³Ğ¸ÑE,the Kingdom of Belgium""",le Royaume de Belgique,el Reino de BÃ©lgica,Ø¨ÙE¬ÙŠÙE§,æ¯”åˆ©æ—¶,"Ğ‘ĞµĞ»ÑŒĞ³Ğ¸ÑE,Europe""",Europe,Europa,,,,Developed countries or areas,Pays ou zones dÃ©veloppÃ©s,PaÃ­ses o Ã¡reas desarrollados,,,,Western Europe,Europe occidentale,Europa occidental,,,,,
442,256,LU,LUX,Luxembourg,Luxembourg,Luxemburgo,ÙEE³ÙE¨Ø±Øº,å¢æ£®å ¡,Ğ’ĞµĞ»Ğ¸ĞºĞ¾Ğµ Ğ“ĞµÑ€ÑE¾Ğ³ÑE‚Ğ²Ğ¾ Ğ›ÑĞºÑEµĞ¼Ğ±ÑƒÑ€Ğ³,the Grand Duchy of Luxembourg,le Grand-DuchÃ© de Luxembourg,el Gran Ducado de Luxemburgo,ÙEE³ÙE¨Ø±Øº,å¢æ£®å ¡,Ğ’ĞµĞ»Ğ¸ĞºĞ¾Ğµ Ğ“ĞµÑ€ÑE¾Ğ³ÑE‚Ğ²Ğ¾ Ğ›ÑĞºÑEµĞ¼Ğ±ÑƒÑ€Ğ³,Europe,Europe,Europa,,,,Developed countries or areas,Pays ou zones dÃ©veloppÃ©s,PaÃ­ses o Ã¡reas desarrollados,,,,Western Europe,Europe occidentale,Europa occidental,,,
660,258,AI,AIA,Anguilla,Anguilla,Anguila,ÙEEØ£ÙEºÙˆÙŠÙE§,å®‰åœ­æ‹‰çš„/å®‰åœ­æ‹‰äºº,Ğ°Ğ½Ğ³Ğ¸Ğ»ÑŒÑEºĞ¸Ğ¹,Anguilla,Anguilla,Anguila,ÙEEØ£ÙEºÙˆÙŠÙE§,å®‰åœ­æ‹‰çš„/å®‰åœ­æ‹‰äºº,Ğ°Ğ½Ğ³Ğ¸Ğ»ÑŒÑEºĞ¸Ğ¹,Americas,AmÃ©riques,AmÃ©ricas,,,,Other developing countries or areas,Autres pays ou zones en dÃ©veloppement,Otros paÃ­ses o Ã¡reas en desarrollo,,,,Caribbean,CaraÃ¯bes,Caribe,,,
830,259,,,Channel Islands,Ãles Anglo-Normandes,Islas Anglonormandas,Ø´Ø§ÙEŠÙEØ¬Ø²Ø±,"æµ·å³¡ç¾¤å²E,ĞĞ¾Ñ€Ğ¼Ğ°Ğ½Ğ´ÑEºĞ¸Ğµ Ğ¾ÑE‚Ñ€Ğ¾Ğ²Ğ°""",Channel Islands,Iles Anglo-Normandes,Islas Normandas,Ø´Ø§ÙEŠÙEØ¬Ø²Ø±,"æµ·å³¡ç¾¤å²E,ĞĞ¾Ñ€Ğ¼Ğ°Ğ½Ğ´ÑEºĞ¸Ğµ Ğ¾ÑE‚Ñ€Ğ¾Ğ²Ğ°""",Europe,Europe,Europa,,,,Developed countries or areas,Pays ou zones dÃ©veloppÃ©s,PaÃ­ses o Ã¡reas desarrollados,,,,Northern Europe,Europe septentrionale,Europa del Norte,,,,,
744,260,SJ,SJM,Svalbard and Jan Mayen,Ãles Svalbard/Jan Mayen,Islas Svalbard/Jan Mayen,,,,Svalbard and Jan Mayen Islands,Ãles Svalbard et Jan Mayen,Islas Svalbard y Jan Mayen,,,,Europe,Europe,Europa,,,,Developed countries or areas,Pays ou zones dÃ©veloppÃ©s,PaÃ­ses o Ã¡reas desarrollados,,,,Northern Europe,Europe septentrionale,Europa del Norte,,,
833,264,IM,IMN,Isle of Man,Ãle de Man,Isla de Man,ÙE§ÙEØ¬Ø²ÙŠØ±Ø©,"é©¬æ©å²E,Ğ¾ÑE‚Ñ€Ğ¾Ğ² ĞœÑĞ½""",Isle of Man,Ãle de Man,Isla de Man,ÙE§ÙEØ¬Ø²ÙŠØ±Ø©,"é©¬æ©å²E,Ğ¾ÑE‚Ñ€Ğ¾Ğ² ĞœÑĞ½""",Europe,Europe,Europa,,,,Developed countries or areas,Pays ou zones dÃ©veloppÃ©s,PaÃ­ses o Ã¡reas desarrollados,,,,Northern Europe,Europe septentrionale,Europa del Norte,,,,,
175,270,YT,MYT,Mayotte,Mayotte,Mayotte,ÙE§ÙŠÙˆØª,"é©¬çº¦ç‰¹å²E,ĞœĞ°Ğ¹Ğ¾Ñ‚Ñ‚Ğ°""",Mayotte,Mayotte,Mayotte,ÙE§ÙŠÙˆØª,"é©¬çº¦ç‰¹å²E,ĞœĞ°Ğ¹Ğ¾Ñ‚Ñ‚Ğ°""",Africa,Afrique,Ãfrica,,,,Other developing countries or areas,Autres pays ou zones en dÃ©veloppement,Otros paÃ­ses o Ã¡reas en desarrollo,,,,Eastern Africa,Afrique orientale,Ãfrica oriental,,,,,
239,271,GS,SGS,SouthGeorgia/Sandwich Is,GÃ©orgie Sud-Ãles Sand.S.,Georgia S.-Is.Sandw.Sur,ÙˆØ³Ø§ÙE¯ÙˆÙŠØªØ´ Ø¬ÙˆØ±Ø¬ÙŠØ§ Ø¬ÙEˆØ¨ Ø¬Ø²Ø±,"å—ä¹”æ²»äºšå²›å’Œå—æ¡‘å¨å¥E¾¤å²›ï¼ˆè‹±å›½EE,Ğ¾ÑE‚Ñ€Ğ¾Ğ² Ğ®Ğ¶Ğ½Ğ°ÑEĞ“ĞµĞ¾Ñ€Ğ³Ğ¸ÑEĞ¸ Ğ®Ğ¶Ğ½Ñ‹Ğµ Ğ¡Ğ°Ğ½Ğ´Ğ²Ğ¸ÑEµĞ²ÑEĞ¾ÑE‚Ñ€Ğ¾Ğ²Ğ°""",South Georgia and the South Sandwich Islands,Ãles GÃ©orgie du Sud et Sandwich du Sud,Islas Georgias del Sur y Sandwich del Sur,ÙˆØ³Ø§ÙE¯ÙˆÙŠØªØ´ Ø¬ÙˆØ±Ø¬ÙŠØ§ Ø¬ÙEˆØ¨ Ø¬Ø²Ø±,"å—ä¹”æ²»äºšå²›å’Œå—æ¡‘å¨å¥E¾¤å²›ï¼ˆè‹±å›½EE,Ğ¾ÑE‚Ñ€Ğ¾Ğ² Ğ®Ğ¶Ğ½Ğ°ÑEĞ“ĞµĞ¾Ñ€Ğ³Ğ¸ÑEĞ¸ Ğ®Ğ¶Ğ½Ñ‹Ğµ Ğ¡Ğ°Ğ½Ğ´Ğ²Ğ¸ÑEµĞ²ÑEĞ¾ÑE‚Ñ€Ğ¾Ğ²Ğ°""",Americas,AmÃ©riques,AmÃ©ricas,,,,Other developing countries or areas,Autres pays ou zones en dÃ©veloppement,Otros paÃ­ses o Ã¡reas en desarrollo,,,,South America,AmÃ©rique du Sud,AmÃ©rica del Sur,,,,,
688,272,RS,SRB,Serbia,Serbie,Serbia,ØµØ±Ø¨ÙŠØ§,"å¡å°”ç»´äºE,Ğ¡ĞµÑ€Ğ±Ğ¸ÑE",the Republic of Serbia,la RÃ©publique de Serbie,la RepÃºblica de Serbia,ØµØ±Ø¨ÙŠØ§ Ø¬ÙEEˆØ±ÙŠØ©,å¡å°”ç»´äºšåEå’Œå›½,"Ğ ĞµÑE¿ÑƒĞ±Ğ»Ğ¸ĞºĞ° Ğ¡ĞµÑ€Ğ±Ğ¸ÑE,Europe""",Europe,Europa,,,,Developed countries or areas,Pays ou zones dÃ©veloppÃ©s,PaÃ­ses o Ã¡reas desarrollados,,,,Southern Europe,Europe mÃ©ridionale,Europa meridional,,,,,
499,273,ME,MNE,Montenegro,MontÃ©nÃ©gro,Montenegro,Ø§ÙE¬Ø¨ÙEØ§ÙE£Ø³ÙˆØ¯,é»‘å±±,"Ğ§ĞµÑ€Ğ½Ğ¾Ğ³Ğ¾Ñ€Ğ¸ÑE,Montenegro""",le MontÃ©nÃ©gro,Montenegro,Ø§ÙE¬Ø¨ÙEØ§ÙE£Ø³ÙˆØ¯,é»‘å±±,"Ğ§ĞµÑ€Ğ½Ğ¾Ğ³Ğ¾Ñ€Ğ¸ÑE,Europe""",Europe,Europa,,,,Developed countries or areas,Pays ou zones dÃ©veloppÃ©s,PaÃ­ses o Ã¡reas desarrollados,,,,Southern Europe,Europe mÃ©ridionale,Europa meridional,,,,,
836,276,,EAZ,Zanzibar,Zanzibar,ZanzÃ­bar,,,,Zanzibar,Zanzibar,Zanzibar,,,,Africa,Afrique,Ãfrica,,,,Least Developed Countries,Pays les moins avancÃ©s,PaÃ­ses menos adelantados,,,,Eastern Africa,Afrique orientale,Ãfrica oriental,,,
532,278,AN,ANT,Netherlands Antilles,Antilles nÃ©erlandaises,Antillas Neerlandesas,ÙEEØ¬Ø²Ø± Ø§ÙE£ÙEªÙŠÙEØ§ÙEEˆÙEE¯ÙŠØ©,"è·å±å®‰çš„åˆ—æ–¯äºº/å±å®‰çš„åˆ—æ–¯äººçšE,(Ğ¸Ğ·/ Ğ¶Ğ¸Ñ‚ĞµĞ»ÑE Ğ“Ğ¾Ğ»Ğ»Ğ°Ğ½Ğ´ÑEºĞ¸ÑEĞĞ½Ñ‚Ğ¸Ğ»ÑŒÑEºĞ¸ÑEĞ¾ÑE‚Ñ€Ğ¾Ğ²Ğ¾Ğ²""",Netherlands Antilles,les Antilles nÃ©erlandaises,Antillas Neerlandesas,ÙEEØ¬Ø²Ø± Ø§ÙE£ÙEªÙŠÙEØ§ÙEEˆÙEE¯ÙŠØ©,"è·å±å®‰çš„åˆ—æ–¯äºº/å±å®‰çš„åˆ—æ–¯äººçšE,(Ğ¸Ğ·/ Ğ¶Ğ¸Ñ‚ĞµĞ»ÑE Ğ“Ğ¾Ğ»Ğ»Ğ°Ğ½Ğ´ÑEºĞ¸ÑEĞĞ½Ñ‚Ğ¸Ğ»ÑŒÑEºĞ¸ÑEĞ¾ÑE‚Ñ€Ğ¾Ğ²Ğ¾Ğ²""",,,,,,,,,,,,,,,,,,,,
248,282,AX,ALA,ÃEand Islands,Ãles d'ÃEand,Islas ÃEand,Ø£ÙE§ÙE¯ Ø¬Ø²Ø±,"å¥¥å…°ç¾¤å²E,ĞĞ»Ğ°Ğ½Ğ´ÑEºĞ¸Ğµ Ğ¾ÑE‚Ñ€Ğ¾Ğ²Ğ°""",ÃEand Islands,Ãles d'ÃEand,Islas ÃEand,Ø£ÙE§ÙE¯ Ø¬Ø²Ø±,"å¥¥å…°ç¾¤å²E,ĞĞ»Ğ°Ğ½Ğ´ÑEºĞ¸Ğµ Ğ¾ÑE‚Ñ€Ğ¾Ğ²Ğ°""",Europe,Europe,Europa,,,,Developed countries or areas,Pays ou zones dÃ©veloppÃ©s,PaÃ­ses o Ã¡reas desarrollados,,,,Northern Europe,Europe septentrionale,Europa del Norte,,,,,
535,283,BQ,BES,Bonaire/S.Eustatius/Saba,Bonaire/S.Eustatius/Saba,Bonaire/S.Eustatius/Saba,ÙˆØ³Ø§Ø¨Ø§ ÙŠÙˆØ³ØªØ§ØªÙŠÙˆØ³ ÙˆØ³Ø§ÙEØ¨ÙˆÙEŠØ±,åšçº³å°”ã€åœ£ä¿E–¯å¡”ä¼‘æ–¯å’Œè¨å·´,"Ğ‘Ğ¾Ğ½Ğ°Ğ¹Ñ€Ğµ, Ğ¡Ğ¸Ğ½ÑEĞ­ÑE‚Ğ°Ñ‚Ğ¸ÑƒÑEĞ¸ Ğ¡Ğ°Ğ±Ğ°","Bonaire, Sint Eustatius and Saba","Bonaire, Sint Eustatius et Saba","Bonaire, Sint Eustatius y Saba",ÙˆØ³Ø§Ø¨Ø§ ÙŠÙˆØ³ØªØ§ØªÙŠÙˆØ³ ÙˆØ³Ø§ÙEØ¨ÙˆÙEŠØ±,åšçº³å°”ã€åœ£ä¿E–¯å¡”ä¼‘æ–¯å’Œè¨å·´,"Ğ‘Ğ¾Ğ½Ğ°Ğ¹Ñ€Ğµ, Ğ¡Ğ¸Ğ½ÑEĞ­ÑE‚Ğ°Ñ‚Ğ¸ÑƒÑEĞ¸ Ğ¡Ğ°Ğ±Ğ°",Americas,AmÃ©riques,AmÃ©ricas,,,,Other developing countries or areas,Autres pays ou zones en dÃ©veloppement,Otros paÃ­ses o Ã¡reas en desarrollo,,,,Caribbean,CaraÃ¯bes,Caribe,,,
831,284,GG,GGY,Guernsey,Guernesey,Isla de Guernesey,"ÙEºÙˆÙŠØ±ÙE³ÙEØ§ÙEªØ§Ø¨Ø¹Ø© Ø¨ÙŠÙEˆÙŠÙE,æ ¼æ©è¥¿å²Eæµ·å³¡ç¾¤å²E""",Ğ“ĞµÑ€Ğ½ÑE¸,Bailiwick of Guernsey,Guernesey,Isla de Guernesey,"ÙEºÙˆÙŠØ±ÙE³ÙEØ§ÙEªØ§Ø¨Ø¹Ø© Ø¨ÙŠÙEˆÙŠÙE,æ ¼æ©è¥¿å²Eæµ·å³¡ç¾¤å²E""",Ğ“ĞµÑ€Ğ½ÑE¸,Europe,Europe,Europa,,,,Developed countries or areas,Pays ou zones dÃ©veloppÃ©s,PaÃ­ses o Ã¡reas desarrollados,,,,Northern Europe,Europe septentrionale,Europa del Norte,,,,,
832,285,JE,JEY,Jersey,Le Jersey,Jersey,"Ø¬ÙŠØ±Ø³ÙE,æ³½è¥¿""",Ğ¾ÑE‚Ñ€Ğ¾Ğ² Ğ”Ğ¶ĞµÑ€ÑE¸,Bailiwick of Jersey,Jersey,Jersey,"Ø¬ÙŠØ±Ø³ÙE,æ³½è¥¿è¡Œæ”¿åŒº""",Ğ¾ÑE‚Ñ€Ğ¾Ğ² Ğ”Ğ¶ĞµÑ€ÑE¸,Europe,Europe,Europa,,,,Developed countries or areas,Pays ou zones dÃ©veloppÃ©s,PaÃ­ses o Ã¡reas desarrollados,,,,Northern Europe,Europe septentrionale,Europa del Norte,,,,,
531,286,CW,CUW,CuraÃ§ao,CuraÃ§ao,CuraÃ§ao,"ÙEˆØ±Ø§Ø³Ø§ÙE,åº“æ‹‰ç´¢""",ĞšÑÑ€Ğ°ÑE°Ğ¾,CuraÃ§ao,CuraÃ§ao,CuraÃ§ao,"ÙEˆØ±Ø§Ø³Ø§ÙE,åº“æ‹‰ç´¢""",ĞšÑÑ€Ğ°ÑE°Ğ¾,Americas,AmÃ©riques,AmÃ©ricas,,,,Other developing countries or areas,Autres pays ou zones en dÃ©veloppement,Otros paÃ­ses o Ã¡reas en desarrollo,,,,Caribbean,CaraÃ¯bes,Caribe,,,,,
652,287,BL,BLM,Saint BarthÃ©lemy,Saint-BarthÃ©lemy,San BartolomÃ©,"Ø¨Ø§Ø±ØªÙEŠÙEEØ³Ø§ÙE,åœ£å·´æ³°å‹’ç±³""",Ğ¡ĞµĞ½-Ğ‘Ğ°Ñ€Ñ‚ĞµĞ»ÑŒĞ¼Ğ¸,Saint BarthÃ©lemy,Saint-BarthÃ©lemy,San BartolomÃ©,"Ø¨Ø§Ø±ØªÙEŠÙEEØ³Ø§ÙE,åœ£å·´æ³°å‹’ç±³""",Ğ¡ĞµĞ½-Ğ‘Ğ°Ñ€Ñ‚ĞµĞ»ÑŒĞ¼Ğ¸,Americas,AmÃ©riques,AmÃ©ricas,,,,Other developing countries or areas,Autres pays ou zones en dÃ©veloppement,Otros paÃ­ses o Ã¡reas en desarrollo,,,,Caribbean,CaraÃ¯bes,Caribe,,,,,
663,288,MF,MAF,Saint-Martin,Saint-Martin,Saint-Martin,"Ø§ÙEE±ÙE³ÙEØ§ÙE¬Ø²Ø¡ - ÙE§Ø±ØªÙEØ³Ø§ÙE,åœ£é©¬ä¸E¼ˆæ³•å±éƒ¨åˆE¼E",Ğ¡ĞµĞ½-ĞœĞ°Ñ€Ñ‚ĞµĞ½ (ÑE€Ğ°Ğ½ÑEƒĞ·ÑEºĞ°ÑEÑE°ÑE‚ÑE,Saint-Martin (French Part),Saint-Martin (Partie franÃ§aise),Saint-Martin (Parte francesa),"Ø§ÙEE±ÙE³ÙEØ§ÙE¬Ø²Ø¡ - ÙE§Ø±ØªÙEØ³Ø§ÙE,åœ£é©¬ä¸E¼ˆæ³•å±éƒ¨åˆE¼E",Ğ¡ĞµĞ½-ĞœĞ°Ñ€Ñ‚ĞµĞ½ (ÑE€Ğ°Ğ½ÑEƒĞ·ÑEºĞ°ÑEÑE°ÑE‚ÑE,Americas,AmÃ©riques,AmÃ©ricas,,,,Other developing countries or areas,Autres pays ou zones en dÃ©veloppement,Otros paÃ­ses o Ã¡reas en desarrollo,,,,Caribbean,CaraÃ¯bes,Caribe,,,,,
534,289,SX,SXM,Sint Maarten,Sint Maarten,Sint Maarten,ÙE§Ø±ØªÙEØ³Ø§ÙEª,"åœ£é©¬ä¸E¼ˆè·å±éƒ¨åˆE¼E,Ğ¡Ğ¸Ğ½ÑEĞœĞ°Ñ€Ñ‚ĞµĞ½ (Ğ³Ğ¾Ğ»Ğ»Ğ°Ğ½Ğ´ÑEºĞ°ÑEÑE°ÑE‚ÑE""",Sint Maarten (Dutch Part),Sint Maarten (Partie nÃ©erlandaise),Sint Maarten (Parte de los PaÃ­ses Bajos),ÙE§Ø±ØªÙEØ³Ø§ÙEª,"åœ£é©¬ä¸E¼ˆè·å±éƒ¨åˆE¼E,Ğ¡Ğ¸Ğ½ÑEĞœĞ°Ñ€Ñ‚ĞµĞ½ (Ğ³Ğ¾Ğ»Ğ»Ğ°Ğ½Ğ´ÑEºĞ°ÑEÑE°ÑE‚ÑE""",Americas,AmÃ©riques,AmÃ©ricas,,,,Other developing countries or areas,Autres pays ou zones en dÃ©veloppement,Otros paÃ­ses o Ã¡reas en desarrollo,,,,Caribbean,CaraÃ¯bes,Caribe,,,,,
728,290,SS,SSD,South Sudan,Soudan du Sud,SudÃ¡n del Sur,Ø§ÙE³ÙˆØ¯Ø§ÙEØ¬ÙEˆØ¨,å—è‹ä¸¹,Ğ®Ğ¶Ğ½Ñ‹Ğ¹ Ğ¡ÑƒĞ´Ğ°Ğ½,the Republic of South Sudan,la RÃ©publique du Soudan du Sud,la RepÃºblica de SudÃ¡n del Sur,Ø§ÙE³ÙˆØ¯Ø§ÙEØ¬ÙEˆØ¨ Ø¬ÙEEˆØ±ÙŠØ©,å—è‹ä¸¹å…±å’Œå›½,Ğ ĞµÑE¿ÑƒĞ±Ğ»Ğ¸ĞºĞ° Ğ®Ğ¶Ğ½Ñ‹Ğ¹ Ğ¡ÑƒĞ´Ğ°Ğ½,Africa,Afrique,Ãfrica,,,,Least Developed Countries,Pays les moins avancÃ©s,PaÃ­ses menos adelantados,,,,Eastern Africa,Afrique orientale,Ãfrica oriental,,,
680,294,,,Sark,Sercq,Sark,"Ø³Ø§Ø±ÙE,è¨å…E",Ğ¡Ğ°Ñ€Ğº,,,,,,,Europe,Europe,Europa,,,,Developed countries or areas,Pays ou zones dÃ©veloppÃ©s,PaÃ­ses o Ã¡reas desarrollados,,,,Northern Europe,Europe septentrionale,Europa del Norte,,,,
729,298,SD,SDN,Sudan,Soudan,SudÃ¡n,"Ø§ÙE³ÙˆØ¯Ø§ÙE,è‹ä¸¹""",Ğ¡ÑƒĞ´Ğ°Ğ½,the Republic of the Sudan,la RÃ©publique du Soudan,la RepÃºblica del SudÃ¡n,Ø§ÙE³ÙˆØ¯Ø§ÙEØ¬ÙEEˆØ±ÙŠØ©,è‹ä¸¹å…±å’Œå›½,Ğ ĞµÑE¿ÑƒĞ±Ğ»Ğ¸ĞºĞ° Ğ¡ÑƒĞ´Ğ°Ğ½,Africa,Afrique,Ãfrica,,,,Least Developed Countries,Pays les moins avancÃ©s,PaÃ­ses menos adelantados,,,,Northern Africa,Afrique septentrionale,Ãfrica septentrional,,,,
275,299,PS,PSE,Palestine,Palestine,Palestina,"ÙEE³Ø·ÙŠÙE,å·´å‹’æ–¯å¦""",ĞŸĞ°Ğ»ĞµÑE‚Ğ¸Ğ½Ğ°,Palestine,Palestine,Palestina,"ÙEE³Ø·ÙŠÙE,å·´å‹’æ–¯å¦""",ĞŸĞ°Ğ»ĞµÑE‚Ğ¸Ğ½Ğ°,Asia,Asie,Asia,,,,Other developing countries or areas,Autres pays ou zones en dÃ©veloppement,Otros paÃ­ses o Ã¡reas en desarrollo,,,,Western Asia,Asie occidentale,Asia occidental,,,,,
0,380,EU,EUR,European Union,Union EuropÃ©enne,UniÃ³n Europea,,,,The European Union (Member Organization),Union europÃ©enne (Organisation membre),UniÃ³n Europea (OrganizaciÃ³n Miembro),,,,,,,,,,,,,,,,,,,,,
